{"type": "FeatureCollection", "features": [{"type": "Feature", "geometry": {"type": "MultiPolygon", "coordinates": [[[[5.267982645093356, 52.427365782398255], [5.275811009838769, 52.42331736450282], [5.318861498375442, 52.41071020819453], [5.334835730124233, 52.40573485043996], [5.343709459916647, 52.40124268824276], [5.349513402875113, 52.401468467084264], [5.350771649801278, 52.400209190468075], [5.348167611225278, 52.39702880431049], [5.346370549922102, 52.39611406917605], [5.339352465617606, 52.395813222054116], [5.33236901824475, 52.393246740766976], [5.332933166374428, 52.39277316729591], [5.313516101053352, 52.385741702616386], [5.3130385825432525, 52.38625306635634], [5.301243577024487, 52.38198666525564], [5.3374898163414075, 52.35037416291416], [5.350544953516125, 52.33903876084265], [5.379156279727296, 52.314109205765824], [5.35400629018053, 52.30940781314175], [5.350497036412277, 52.30923223247579], [5.344923420843809, 52.309939498504264], [5.333504722088562, 52.314274153576804], [5.3329297495613925, 52.31388811104325], [5.317161965807225, 52.303559199375165], [5.315988357510036, 52.3041475597722], [5.313903105844361, 52.3031013224338], [5.313412627212627, 52.30337375944809], [5.3154541808045, 52.30440920176124], [5.298845353720031, 52.31187148537601], [5.285177361633813, 52.317090457489655], [5.26333566141817, 52.32386704622994], [5.239827596427829, 52.32925800538589], [5.23263591231056, 52.33058740493948], [5.223670348565171, 52.332162690280896], [5.2234605955661975, 52.33208482548597], [5.223481305012891, 52.33205261553448], [5.223416052221332, 52.33192440943098], [5.223019442807112, 52.33199584906601], [5.221159681618346, 52.33130767561], [5.2207777661648525, 52.3313245411137], [5.2212078237984985, 52.33176811792994], [5.2208113310390685, 52.331870039044695], [5.2202350726364255, 52.33254172467074], [5.221270840291636, 52.33237080115793], [5.221602225417476, 52.333071137497456], [5.220922786714705, 52.33380472438154], [5.220126827250168, 52.333949056663656], [5.219391708610995, 52.33370074690472], [5.219073542370343, 52.33307484616907], [5.2201939417379695, 52.3318909870733], [5.2191750774076455, 52.33134409548639], [5.218298683898449, 52.332233758445106], [5.215803839270465, 52.33129562743594], [5.216828978591574, 52.330198934068434], [5.217919624285317, 52.33058594995472], [5.218716000370305, 52.33031799639175], [5.219710946994825, 52.33049158047475], [5.216372521378768, 52.32939099764359], [5.212558527984966, 52.32998271300948], [5.212839029820113, 52.331454564012574], [5.213521997455465, 52.332057615697614], [5.212810644640919, 52.33291230713626], [5.210295121829289, 52.33379620240231], [5.209449580948, 52.33304390759787], [5.208483989691111, 52.33246140123884], [5.206162090795642, 52.33339420222444], [5.206012401909917, 52.33434707071315], [5.204768814614973, 52.33551041150558], [5.195175865784974, 52.33649498162488], [5.184232470660498, 52.335318126232316], [5.166862874294073, 52.33183818070144], [5.157481871431009, 52.32923670570234], [5.152722830687149, 52.32909783997121], [5.151266668580669, 52.32822048219352], [5.148656878925066, 52.32841556800985], [5.145536267178736, 52.32631147254393], [5.144763524376274, 52.324016655468476], [5.140932369994944, 52.32607087392239], [5.139211858672641, 52.32521888316157], [5.138822035289634, 52.325518710431545], [5.138440462492413, 52.325812185437435], [5.138323824729426, 52.32590190034014], [5.14005464373234, 52.32677564150315], [5.136961166727296, 52.32934422382668], [5.13724181281612, 52.32943578185744], [5.139325959364416, 52.32802514484352], [5.14141165089239, 52.32820277843673], [5.143609568336329, 52.32963917387296], [5.144874239298897, 52.331405748858465], [5.140494991647058, 52.334073195675565], [5.135990794515274, 52.33759434507095], [5.134170168816742, 52.33788986248475], [5.134447284155971, 52.33806770273777], [5.134763228019962, 52.338243684687804], [5.135154580304649, 52.3386613274443], [5.13593224893903, 52.33872613213774], [5.136074425905058, 52.33894341653203], [5.1355268166027646, 52.33922398454261], [5.134684761392895, 52.338613035116886], [5.132650354583578, 52.33793351133595], [5.132873160277612, 52.33773947198538], [5.1327951595094525, 52.33768940670813], [5.132422990699185, 52.33773576918926], [5.132119057995427, 52.33747347134694], [5.132158852240029, 52.3371041488591], [5.130938537206726, 52.337698603843194], [5.130991447572897, 52.33822966177851], [5.1321549014914645, 52.338109664708796], [5.1346180884486285, 52.341061955857754], [5.134568734755891, 52.34138208430826], [5.131749354757842, 52.3424594565618], [5.129712362352248, 52.33988902892043], [5.13116826528814, 52.34201261606169], [5.1309756828266515, 52.34346013290137], [5.132352326614993, 52.34373953073462], [5.1339184289281, 52.34399098974246], [5.133629494179189, 52.344204921839], [5.134197229111458, 52.34473547554843], [5.133460308146977, 52.34527322413914], [5.133467336980643, 52.34599400628409], [5.133942520240457, 52.34650272129307], [5.1331398186546915, 52.34713021517433], [5.1341980984380635, 52.34795790439297], [5.13281560421945, 52.357083407044165], [5.131244333586313, 52.36545750822873], [5.1226649389621315, 52.374801423957045], [5.122745283864313, 52.37886316496735], [5.124298410509433, 52.38053812065504], [5.128750506742432, 52.38291407308462], [5.156755912084876, 52.39310776824562], [5.158383855662418, 52.39489317117679], [5.161923303170452, 52.399448767650725], [5.161556607961856, 52.39979448258815], [5.169642779449202, 52.402770653307215], [5.205979992831615, 52.41604576809742], [5.2271260397949195, 52.42363467244175], [5.227144653708733, 52.42335536224222], [5.208254908389261, 52.416368165716065], [5.2169666545048425, 52.41643339971813], [5.220507322713946, 52.417718301123266], [5.220105038159836, 52.41835632947937], [5.2221136889712305, 52.4179000794129], [5.222684565800854, 52.418369568628655], [5.223966559022598, 52.417801455903316], [5.224586134203022, 52.41805737176369], [5.224499131251979, 52.419109086355775], [5.228454131862642, 52.42065865506018], [5.2317658140204975, 52.42429210697967], [5.233251234779058, 52.4256162243764], [5.229865964672587, 52.42469293869354], [5.2584227285648, 52.43542591247021], [5.267982645093356, 52.427365782398255]]]]}, "properties": {"type": "boundary", "gemeente": "Almere"}}, {"type": "Feature", "geometry": {"type": "MultiPolygon", "coordinates": [[[[5.616204466192075, 52.368737851192904], [5.6156758019526345, 52.36844070967831], [5.616294045839072, 52.36931446806698], [5.6147352330601015, 52.37056565569966], [5.615190513894131, 52.370841045750716], [5.616378798439553, 52.36946188460569], [5.616204466192075, 52.368737851192904]]], [[[5.508992291273377, 52.39766312297624], [5.532703371825147, 52.38454750083666], [5.53729879972019, 52.38500080011948], [5.545225532571963, 52.39016125331749], [5.554642610948883, 52.39638989679073], [5.578015182390366, 52.40996847642786], [5.583217915060182, 52.41135841032688], [5.5890709813511625, 52.41118713392012], [5.618401987298353, 52.40856867590699], [5.622984181273868, 52.40880201772043], [5.6171887364192346, 52.38478312931305], [5.611852737413006, 52.37468799386225], [5.6135576784349945, 52.37104269552431], [5.614670403614234, 52.37052644210744], [5.615436589293067, 52.36982526370236], [5.6127666725809275, 52.368663056295134], [5.610102852110635, 52.36647070307981], [5.611450803310777, 52.36590544833727], [5.614785501896352, 52.367909479713305], [5.615074939434812, 52.36765307807098], [5.612560479326591, 52.36597448718524], [5.613097808722493, 52.365554966269826], [5.611091451614466, 52.36440477002463], [5.611873008071808, 52.363980318916994], [5.613852234736921, 52.36455672256814], [5.61531982397405, 52.362614692588856], [5.6149273511716755, 52.362504911285804], [5.61403507623894, 52.36225105585163], [5.612828575760657, 52.360866443985635], [5.6123304550641775, 52.36132669567152], [5.6125021973782445, 52.36229654896047], [5.611276323501516, 52.36298599934002], [5.611564518727426, 52.363828344389596], [5.610844160431701, 52.364275825026574], [5.610450467918849, 52.36417643882103], [5.608165654949055, 52.36529665901869], [5.607048764116175, 52.36451330328749], [5.601105857549151, 52.36555834526295], [5.588593759577573, 52.36320812780901], [5.582383736179015, 52.363073496135435], [5.563817264196683, 52.36757322878636], [5.54258098020169, 52.35334721943496], [5.5383495695615395, 52.35012645643786], [5.537220308309234, 52.34723036971013], [5.541545021378778, 52.33781195146457], [5.545157259880473, 52.33508401157685], [5.5480182665871665, 52.33557925502353], [5.5528369680159155, 52.33415325419733], [5.552130833488789, 52.33169880556828], [5.551141030746106, 52.33135458175723], [5.549738347687398, 52.328954320764915], [5.548434497855228, 52.327297400286724], [5.552518488035564, 52.320927179179144], [5.552503997958265, 52.319786952428494], [5.550628266641933, 52.31896844785456], [5.548652825699173, 52.31450034547692], [5.5490198252608165, 52.31355009525616], [5.549095756218813, 52.31207223564069], [5.546727631488568, 52.31196865574779], [5.547061277313513, 52.31088227085339], [5.54881612902923, 52.311164570515785], [5.549125686020867, 52.311632602784584], [5.549284998186897, 52.31153617975639], [5.549012099206871, 52.311055731078554], [5.546844948096296, 52.31038378276256], [5.5424816487534745, 52.300326923148326], [5.538222299810506, 52.29276552935263], [5.535558048325751, 52.29051323034128], [5.538138255348664, 52.28911303051877], [5.5351676161398355, 52.28874659636191], [5.528699055440808, 52.27492666185785], [5.526065250944906, 52.27339789526078], [5.518030060674578, 52.2725584136737], [5.49276948413368, 52.26785290934593], [5.488866424119529, 52.267014718584136], [5.488877346820924, 52.26673692786992], [5.4879476562958605, 52.26630118973926], [5.487887354011415, 52.266350512056164], [5.488705087125107, 52.266737076109486], [5.488055780228759, 52.26720957953565], [5.487305146185096, 52.26659047691106], [5.487224704582071, 52.26661705897013], [5.487259860361871, 52.26686293410607], [5.486734525538463, 52.266912761417096], [5.48571422343147, 52.26665946700046], [5.48585944128607, 52.26634607668813], [5.487087778688423, 52.26660398987472], [5.487295205292668, 52.266497623870386], [5.487361510547268, 52.2659312312657], [5.4872277576958695, 52.265911427813776], [5.487164093135311, 52.26635802752696], [5.471447920146161, 52.26354155118469], [5.46981415500935, 52.26324811706029], [5.452547094687943, 52.25988444736513], [5.452729883910851, 52.259461755004246], [5.4335339533013425, 52.256402437792715], [5.433048704763388, 52.255816834930464], [5.417353778219981, 52.2534606309312], [5.409646044421812, 52.25261331393751], [5.401560804002622, 52.25329710330583], [5.399376647485128, 52.25536617613662], [5.395873097272475, 52.25633567210193], [5.396414944292809, 52.25686022045478], [5.39484339738324, 52.25785774486503], [5.393549536792186, 52.257042914024254], [5.395722968494757, 52.25592773461369], [5.395542483706438, 52.2558061199878], [5.39209800447864, 52.257734058743566], [5.392145562863247, 52.25782742681995], [5.392966511523685, 52.25738193500758], [5.394112831812266, 52.25804998504535], [5.39262160065902, 52.258884447026254], [5.391595613914485, 52.258115340638], [5.391174061239997, 52.25862889203582], [5.392024770876885, 52.25891045943072], [5.385096651294865, 52.264042915323095], [5.317161965807224, 52.303559199375286], [5.3329297495613925, 52.31388811104325], [5.333504722088562, 52.314274153576804], [5.344923420843809, 52.309939498504264], [5.350497036412277, 52.30923223247579], [5.354006290180641, 52.30940781314175], [5.379156279727405, 52.314109205765824], [5.350544953516233, 52.339038760842655], [5.3374898163414075, 52.35037416291416], [5.301243577024597, 52.38198666525564], [5.3130385825432525, 52.38625306635634], [5.3135161010534615, 52.385741702616386], [5.332933166374428, 52.39277316729591], [5.33236901824475, 52.393246740766976], [5.339352465617606, 52.395813222054116], [5.346370549922102, 52.39611406917605], [5.348167611225278, 52.39702880431049], [5.350771649801278, 52.400209190468075], [5.378987490069202, 52.411494607113795], [5.397532453518178, 52.41984123328716], [5.421007869485215, 52.43208371655374], [5.423774984100532, 52.43256461734219], [5.427176694244675, 52.43455440456847], [5.426889318303192, 52.43550610251035], [5.438608221373037, 52.44263180901982], [5.448894071012067, 52.43530209370545], [5.474979173977541, 52.42003385195073], [5.508992291273377, 52.39766312297624]]]]}, "properties": {"type": "boundary", "gemeente": "Zeewolde"}}, {"type": "Feature", "geometry": {"type": "MultiPolygon", "coordinates": [[[[5.888086045574158, 52.6168628417089], [5.843010284635713, 52.61075057893892], [5.864965213077074, 52.615615410255124], [5.867834904094484, 52.61606992677155], [5.869965357252192, 52.61562429886966], [5.87043304341043, 52.6164213794296], [5.886482709166067, 52.619839736098605], [5.887909083546707, 52.62037130734907], [5.892889937521583, 52.61968974387246], [5.893979350741207, 52.6185048045318], [5.896300021392479, 52.617974607665914], [5.888086045574158, 52.6168628417089]]], [[[6.010563857027096, 52.642440157814804], [6.00876492774518, 52.64227447902866], [6.003913376085854, 52.64353887176812], [5.999269568584404, 52.6457012570715], [5.999152338269387, 52.647772826376546], [6.00266969136903, 52.648711626707154], [6.007987906563959, 52.647970158314585], [6.0123167628909915, 52.64655589393305], [6.013874469493216, 52.645685566758914], [6.010563857027096, 52.642440157814804]]], [[[5.7488082744242535, 52.8396800018411], [5.784383102659776, 52.81747611070487], [5.7873764409382025, 52.808969354399274], [5.789807612116258, 52.80369180900812], [5.795177974844035, 52.80652216357271], [5.803475323616074, 52.79685898638549], [5.812726367847383, 52.79118666480678], [5.8186573618553314, 52.787635964044526], [5.81879262610327, 52.78469686665625], [5.828147366827778, 52.785545553429984], [5.8360551411588855, 52.785635303352784], [5.837311402879211, 52.785024092272174], [5.841619243710596, 52.78513858262489], [5.843390759197985, 52.78446381821401], [5.850297296841418, 52.78453099942399], [5.862084077219564, 52.7810227432888], [5.8799392882144135, 52.77309174915048], [5.885137308760289, 52.769301036900764], [5.892551099056651, 52.76595989213152], [5.894383588225556, 52.76513390118096], [5.896086186527797, 52.76282221559142], [5.897762639654768, 52.76213507205387], [5.900054902273426, 52.76119546111076], [5.9060102333486295, 52.76132578634908], [5.921830342269362, 52.751169979075975], [5.930151467013816, 52.73958643242578], [5.9355604213486695, 52.730252043732534], [5.941170842637054, 52.71755097827744], [5.941886316725464, 52.71594936331616], [5.942556137097172, 52.71500233059236], [5.951162507305905, 52.71191957242806], [5.952092881558516, 52.710876573388646], [5.955316677089678, 52.707262124335905], [5.954840193878026, 52.703767967729085], [5.9590128558914195, 52.703863775332884], [5.964826243802237, 52.698104769221224], [5.965156666254969, 52.6935700527878], [5.962106052390064, 52.69035098889481], [5.959401404791115, 52.68995061939723], [5.9527415571799205, 52.68524030506103], [5.951510084256009, 52.684952182996355], [5.949520388189231, 52.685713739326154], [5.946849162900547, 52.68400304265421], [5.944708856433111, 52.68271283721006], [5.945378262871549, 52.68230168124117], [5.940161850100485, 52.679223452007115], [5.93387162960321, 52.675510677242464], [5.932751933941659, 52.67318913041388], [5.9330853705798745, 52.67126371551405], [5.93459482926473, 52.669781810825725], [5.935149217870707, 52.669233996512396], [5.939727232638604, 52.66883544497541], [5.940102491069945, 52.670426770181486], [5.941594876251097, 52.67051688422378], [5.954018686155552, 52.66767426437577], [5.95817386449617, 52.667809685652855], [5.961796309595024, 52.66729669738455], [5.963055645831526, 52.666398519038204], [5.964969732809207, 52.666154577592955], [5.966853013738604, 52.666580393141146], [5.970815344222851, 52.66518902186384], [5.974668613176116, 52.662714104720074], [5.979547762177915, 52.66049575348276], [5.982653160616873, 52.65794391541518], [5.981865802630152, 52.658314240505845], [5.9812394058151295, 52.65809160610313], [5.983829351249964, 52.656326027042866], [5.983738059338033, 52.65560810687861], [5.968257069503931, 52.641221302056174], [5.9637327565173965, 52.63874024184469], [5.884885901295269, 52.622804091435206], [5.831787557670065, 52.612538801117395], [5.771563709497442, 52.612761772190936], [5.750120694348428, 52.612808031133426], [5.748595385855653, 52.61226417799795], [5.745705916946704, 52.6123443091353], [5.745765557965271, 52.61122842368893], [5.7498901370261635, 52.61113075147684], [5.750201582248033, 52.61074444069214], [5.745436316431769, 52.610832860784114], [5.743303366323667, 52.61241026209608], [5.7415990154279255, 52.61211873557159], [5.739908279695566, 52.61284666252997], [5.663327526564584, 52.613046084055995], [5.658304006056475, 52.61372040356158], [5.653562310317707, 52.615460078250955], [5.651210509978827, 52.614766508587145], [5.650038280067992, 52.615593915030146], [5.6516458305001995, 52.61697348907465], [5.629892402275121, 52.63771675583927], [5.630443836590376, 52.6384028008651], [5.64110202632553, 52.64254777864023], [5.636279924313064, 52.647219676310776], [5.636132191081817, 52.64961182406048], [5.648866700536068, 52.649550910059936], [5.65001657195786, 52.6543108048746], [5.642832573224293, 52.660551092484994], [5.655380552289936, 52.665950374446], [5.641589937837176, 52.678014752723236], [5.64371820315041, 52.682614379625754], [5.6258042852748575, 52.68260674725665], [5.612624741062105, 52.68134593165588], [5.609530101488427, 52.680420092908555], [5.606930628905242, 52.68241643859928], [5.604311638425877, 52.68231006614996], [5.604311250877757, 52.68323686464276], [5.594552055095664, 52.68329991542999], [5.594313256178982, 52.67627446159449], [5.593321022444735, 52.67628052199956], [5.593847882781592, 52.702182564870256], [5.594878909862215, 52.74800068003455], [5.59517290153859, 52.76262603769799], [5.59658378259057, 52.76605833736478], [5.633593685593979, 52.80222247622238], [5.659722019575475, 52.82766862350667], [5.663405816181082, 52.8300871012175], [5.669587883641516, 52.83173430004218], [5.709815772221802, 52.8346648775664], [5.712029357481777, 52.83569418890014], [5.713082180328064, 52.838027687802054], [5.7226999215398395, 52.836075073309445], [5.728664311746874, 52.833398443384304], [5.729574869293183, 52.83372698909855], [5.727248153763832, 52.83691663217078], [5.72482472591792, 52.84362374253424], [5.72468283098168, 52.84398267724323], [5.74571982999059, 52.84023664929793], [5.7488082744242535, 52.8396800018411]]]]}, "properties": {"type": "boundary", "gemeente": "Noordoostpolder"}}, {"type": "Feature", "geometry": {"type": "MultiPolygon", "coordinates": [[[[5.604311250877757, 52.68323686464276], [5.604311638425877, 52.68231006614996], [5.606930628905352, 52.68241643859928], [5.609530101488427, 52.680420092908555], [5.61262474106216, 52.68134593165588], [5.6258042852748575, 52.68260674725665], [5.643718203150521, 52.682614379625754], [5.641589937837176, 52.678014752723236], [5.655380552289936, 52.665950374446], [5.642832573224404, 52.660551092484994], [5.65001657195786, 52.6543108048746], [5.648866700536068, 52.649550910059936], [5.636132191081872, 52.64961182406047], [5.636279924313064, 52.647219676310776], [5.6411020263256395, 52.64254777864023], [5.630443836590486, 52.6384028008651], [5.629892402275229, 52.63771675583927], [5.615915305395513, 52.65062896301996], [5.601271017907412, 52.657031152927466], [5.602579518929759, 52.65745982780024], [5.598749681039012, 52.65754851698652], [5.598760861796985, 52.657642087516074], [5.602725289815655, 52.65772414290629], [5.6028360457479796, 52.65804656921942], [5.602137384462643, 52.658307486585855], [5.602064723493873, 52.6602241555203], [5.600127006229959, 52.66015303770688], [5.600179264924433, 52.65890089327151], [5.597354540834695, 52.65880040042823], [5.596643787822507, 52.659322630473014], [5.5984013799448915, 52.659397992764625], [5.598297193704177, 52.66024444405299], [5.596492215764007, 52.66019586673227], [5.5964929268325125, 52.6603449863935], [5.5991018464515205, 52.660414915674785], [5.599234766476719, 52.660877420566145], [5.59910679646437, 52.6609871166492], [5.596379099744535, 52.660679010899806], [5.593223144638195, 52.66083495665011], [5.593211493652192, 52.66062312868473], [5.595641641528126, 52.66029481845419], [5.597964730971205, 52.65647829391991], [5.5978415006785545, 52.65644679570816], [5.595764864665697, 52.65891327166893], [5.5914733791695435, 52.66098727292654], [5.591900482472649, 52.662934599847326], [5.592728943107725, 52.66307470220677], [5.593116185319287, 52.66988538008051], [5.593321022444846, 52.67628052199956], [5.594313256178982, 52.67627446159449], [5.594552055095664, 52.68329991542999], [5.604311250877757, 52.68323686464276]]]]}, "properties": {"type": "boundary", "gemeente": "Urk"}}, {"type": "Feature", "geometry": {"type": "MultiPolygon", "coordinates": [[[[5.863513197360226, 52.52035459016138], [5.8587715747358695, 52.51906164045819], [5.858731279820106, 52.51980992354888], [5.859584732036355, 52.51985776560161], [5.8628590977989825, 52.520906310775416], [5.863513197360226, 52.52035459016138]]], [[[5.8603767105987465, 52.52136270464242], [5.860028026823835, 52.52030267366181], [5.859212117150789, 52.52040741941918], [5.8586321524851295, 52.52456987193269], [5.858632253744533, 52.5245699712898], [5.858642393489419, 52.52457720085009], [5.860546211251968, 52.525939578037345], [5.861542426934032, 52.525627196770394], [5.862626951489417, 52.52334528425047], [5.862052965472889, 52.52185974607324], [5.8603767105987465, 52.52136270464242]]], [[[5.757928278113405, 52.590754229157405], [5.756615086518395, 52.588340424763416], [5.739593271638082, 52.59102928790491], [5.735416519026701, 52.593959149904464], [5.734127825116641, 52.59674875466996], [5.7348421514676975, 52.602285717305136], [5.7418574107928695, 52.6047515484079], [5.750572366298578, 52.60388355568345], [5.754923589397848, 52.60201836505623], [5.757928278113405, 52.590754229157405]]], [[[5.75682819543408, 52.58064171284214], [5.756933096097833, 52.57957608977994], [5.759878788168512, 52.57961323209801], [5.76089487524636, 52.581553850726124], [5.763960769037285, 52.58120631499486], [5.761432030329833, 52.58108242325971], [5.761031936471885, 52.57933341773237], [5.767412773865147, 52.57929700319029], [5.783385432099979, 52.579819241057464], [5.803996877504519, 52.579681663560656], [5.809015330027076, 52.57893664684719], [5.812824604048417, 52.57746338340578], [5.851729369782685, 52.55121853142329], [5.853837642600565, 52.54721038119702], [5.854957255933614, 52.545081509312375], [5.85542383341299, 52.545619350472116], [5.85575137630963, 52.546153351704255], [5.856039909518109, 52.546152504033], [5.855814262224164, 52.54524609726716], [5.856271779008609, 52.545136700624965], [5.856509809023956, 52.54585014090879], [5.857015226929087, 52.54587019764503], [5.85760226906601, 52.54565040343671], [5.857722815446795, 52.54518145140987], [5.857871083145027, 52.54460458608449], [5.8569518935667375, 52.54402723744685], [5.856758195512835, 52.544365370431606], [5.856560308961498, 52.5447108074772], [5.856156450123179, 52.544788503203755], [5.855542941265346, 52.544587208040646], [5.855688451040393, 52.54410607412761], [5.85660099125183, 52.54381151937607], [5.856083812703871, 52.5435121406306], [5.855637206781729, 52.54382595897373], [5.855285089978826, 52.5438006870316], [5.854981572091838, 52.54304106399374], [5.856819827038005, 52.52037478771372], [5.8575263692236055, 52.52020245028603], [5.857526638115112, 52.519192670158496], [5.856914823921596, 52.51920280605844], [5.856996411320269, 52.51819621657597], [5.855467436500962, 52.516846024227995], [5.852772485904333, 52.50888667810562], [5.852981425837829, 52.50598012285278], [5.8475493061718264, 52.493451844586005], [5.816112750678989, 52.45885134190395], [5.816386126856932, 52.45770900740102], [5.81741885180426, 52.45730216460944], [5.817378415296422, 52.45725554132029], [5.816291093667394, 52.457606885013874], [5.815162959002523, 52.45636097323032], [5.8144515487217525, 52.456732447145114], [5.812332852089188, 52.45662431090358], [5.803779326853808, 52.445857390149676], [5.802718225443454, 52.44620309468588], [5.79984467151181, 52.44145569948296], [5.797274222628864, 52.43962065360882], [5.797059667780321, 52.43883236795363], [5.78133429849176, 52.43088817331536], [5.777911561721541, 52.42833572822615], [5.775781848200686, 52.42790791688355], [5.757256033207254, 52.418983393860664], [5.747012163522385, 52.41458272147125], [5.745212527694791, 52.414660591542436], [5.744601144446072, 52.4140508830803], [5.7448478436027335, 52.41515620128677], [5.742339773755727, 52.415304887360186], [5.742017476303014, 52.41454462845722], [5.743816086531257, 52.413747343030835], [5.741782507039381, 52.413595960378515], [5.739776792588799, 52.415308752010134], [5.726507797556057, 52.41697229137889], [5.720113712092503, 52.41613555753045], [5.661470667525458, 52.39793770099006], [5.645254245545658, 52.390730901114175], [5.644484062533362, 52.389924008920744], [5.645163967988423, 52.389238069188565], [5.6438381548914, 52.389247288526285], [5.644759675574081, 52.38854029099351], [5.639305898133234, 52.38731697406496], [5.637355333868345, 52.38574334375194], [5.636710369286287, 52.38618729840468], [5.635422674984922, 52.38501021310799], [5.6362178310462285, 52.38415298057281], [5.63570104220593, 52.38395105356759], [5.634544291607366, 52.38478257512116], [5.632644234001682, 52.38404905301803], [5.634394000820972, 52.38256909858964], [5.632305028674104, 52.383918096616995], [5.625201870708106, 52.38031584748048], [5.62333628024041, 52.37661311184596], [5.620799572990933, 52.375921562943695], [5.616133568600464, 52.37172191518386], [5.616777007604296, 52.37077885238249], [5.615190513894131, 52.370841045750716], [5.6147352330601015, 52.37056565569966], [5.614670403614234, 52.37052644210744], [5.6135576784349945, 52.37104269552431], [5.611852737413006, 52.37468799386225], [5.617188736419124, 52.38478312931305], [5.622984181273868, 52.40880201772043], [5.618401987298299, 52.40856867590699], [5.589070981351054, 52.41118713392012], [5.58799919382565, 52.41476678843649], [5.566637745566397, 52.43586360155023], [5.5738040751412194, 52.43879468095164], [5.581973114961878, 52.44559301653505], [5.5863894908789264, 52.44771113629035], [5.572780586220076, 52.462448939592704], [5.565420530466358, 52.470281266480974], [5.605870974146225, 52.48452034342816], [5.591361371967101, 52.49996426124466], [5.588147320369822, 52.51339326786144], [5.588056373464311, 52.51377314572092], [5.588057086744971, 52.513773210119524], [5.591281275376555, 52.51412299478077], [5.588313552201603, 52.549185591531895], [5.587411138814109, 52.56346021487157], [5.572889365628628, 52.59615774911772], [5.6283162980990475, 52.605359238887004], [5.641548225175288, 52.61054846526158], [5.649321522552439, 52.61466218033871], [5.650038280067992, 52.615593915030146], [5.651210509978827, 52.614766508587145], [5.6419766648968555, 52.60984602399302], [5.639968868841976, 52.60786705519659], [5.650807483141938, 52.59931843805986], [5.65476645651659, 52.597336863747294], [5.7255547559795925, 52.58643594978861], [5.730240583101332, 52.58573080258649], [5.755709957145822, 52.58189440113775], [5.756764960986217, 52.58128406235955], [5.75682819543408, 52.58064171284214]]]]}, "properties": {"type": "boundary", "gemeente": "Dronten"}}, {"type": "Feature", "geometry": {"type": "MultiPolygon", "coordinates": [[[[5.533445501376484, 52.57771648276196], [5.529432274753983, 52.57510333808594], [5.525598655190334, 52.57731927392639], [5.5296043129230235, 52.57984054010606], [5.533445501376484, 52.57771648276196]]], [[[5.302144171334263, 52.691594449548866], [5.353662034308822, 52.67773802024106], [5.361210775659764, 52.674419056596925], [5.399549303108882, 52.64938333159862], [5.41321783696133, 52.63600592458054], [5.415819512749993, 52.63709327020576], [5.416096919126322, 52.63630375336642], [5.414237950797674, 52.635634925849175], [5.415746279368479, 52.63423380406789], [5.417063438530948, 52.634572229271946], [5.415831825885603, 52.633662079725354], [5.456439562316451, 52.59364062855506], [5.467913081542673, 52.57137104486501], [5.46855619987422, 52.569640307785235], [5.466998181127483, 52.56721466749886], [5.464381834028364, 52.5657192515001], [5.453241173137035, 52.56330905905338], [5.448431234946623, 52.56159746367693], [5.4435688031778104, 52.55885059242253], [5.439835549096512, 52.55551253491604], [5.428045774060901, 52.53809429181631], [5.4268907366914405, 52.53503465990343], [5.42625803801154, 52.528031294495854], [5.427163745856967, 52.527983438225235], [5.427076381402202, 52.52749380943574], [5.429066712915485, 52.52741606695178], [5.429112387626475, 52.52786858196081], [5.4297440619742146, 52.527925425643794], [5.430317240979782, 52.52941102340649], [5.432398617651615, 52.529354438784395], [5.432675710253549, 52.53228850903626], [5.433093335887614, 52.532425788723586], [5.432789855767736, 52.53059696138511], [5.433592979462652, 52.53052992405251], [5.434607293526705, 52.52978429745267], [5.434894793025644, 52.527620551900945], [5.435198250381308, 52.52968411531206], [5.43627213965098, 52.5310486435407], [5.43942139012993, 52.53287586528625], [5.4397684766411345, 52.53267227737839], [5.436799639452492, 52.53100085458769], [5.438569057532888, 52.52987802777233], [5.44156851331412, 52.53161956518464], [5.440428913385686, 52.532319866754925], [5.441813389935845, 52.53313909533097], [5.442980818379724, 52.53240569185613], [5.445558726306308, 52.53388246389228], [5.445192994761866, 52.53419327940746], [5.446322115298039, 52.53480101019909], [5.4455195065892585, 52.53532328285842], [5.444439248617642, 52.53472620640266], [5.443900778990887, 52.53517559445924], [5.444901480708817, 52.53572560520713], [5.444120603144701, 52.53624113704171], [5.44291695834171, 52.53554409610899], [5.443195694036273, 52.53527436298749], [5.442435703543209, 52.534827057113354], [5.442042523804343, 52.53532964082283], [5.442154615527114, 52.53597977825433], [5.443714491363036, 52.53691668973056], [5.444431718907587, 52.5368494760101], [5.447578674034814, 52.53521750597722], [5.454511282312961, 52.546013056708524], [5.454621560483233, 52.546634406389], [5.453813330446331, 52.546790476409655], [5.4559411000640035, 52.55032803521085], [5.454301412986854, 52.55119241679123], [5.454478518861424, 52.55140567760126], [5.457793241862293, 52.55010154001557], [5.458971208799468, 52.55138356366447], [5.460159835313009, 52.55185722558999], [5.462095703762946, 52.55215156418928], [5.493322095122847, 52.5532692928036], [5.4974498715815745, 52.55436705583552], [5.500714885651779, 52.556104730086226], [5.518992486777421, 52.56740082413856], [5.517702812011452, 52.568261435342954], [5.5219019334924315, 52.57083910548316], [5.523318135348602, 52.57007293276053], [5.5411832226927515, 52.581103690306314], [5.558709698608771, 52.592260676581006], [5.565124259057814, 52.594638623786025], [5.572889365628628, 52.59615774911772], [5.587411138814109, 52.56346021487157], [5.588313552201603, 52.549185591531895], [5.591281275376555, 52.51412299478077], [5.588057086744971, 52.513773210119524], [5.588056373464311, 52.51377314572092], [5.588147320369822, 52.51339326786144], [5.591361371967101, 52.49996426124466], [5.605870974146225, 52.48452034342816], [5.565420530466358, 52.470281266480974], [5.572780586220076, 52.462448939592704], [5.5863894908789264, 52.44771113629035], [5.581973114961878, 52.44559301653505], [5.5738040751412194, 52.43879468095164], [5.566637745566397, 52.43586360155023], [5.58799919382565, 52.41476678843649], [5.589070981351054, 52.41118713392012], [5.583217915060182, 52.41135841032688], [5.578015182390366, 52.40996847642786], [5.554642610948774, 52.39638989679073], [5.545225532571854, 52.39016125331749], [5.537298799720081, 52.38500080011948], [5.532703371825147, 52.38454750083666], [5.508992291273321, 52.39766312297624], [5.474979173977541, 52.42003385195073], [5.448894071012067, 52.43530209370545], [5.438608221373037, 52.44263180901982], [5.426889318303083, 52.43550610251035], [5.427176694244675, 52.43455440456847], [5.4237749841004215, 52.43256461734219], [5.421007869485104, 52.432083716553734], [5.397532453518178, 52.41984123328716], [5.378987490069202, 52.411494607113795], [5.350771649801278, 52.400209190468075], [5.349513402875113, 52.401468467084264], [5.343709459916647, 52.40124268824276], [5.334835730124233, 52.40573485043996], [5.318861498375442, 52.41071020819453], [5.275811009838769, 52.42331736450282], [5.267982645093356, 52.427365782398255], [5.2584227285648, 52.43542591247021], [5.377910394458562, 52.48689941363444], [5.386467100588277, 52.49026777194838], [5.39479788733128, 52.49077157662024], [5.400235635105899, 52.49363290027398], [5.416746154167546, 52.50304868463273], [5.417160457673039, 52.503455791354114], [5.418587351662382, 52.50305712358446], [5.419099027667447, 52.50337799906185], [5.418515976006402, 52.5040206421401], [5.419703000587628, 52.50335108300677], [5.420175617327017, 52.503535236872885], [5.419640423707135, 52.504627748340695], [5.424255327827279, 52.5070182365483], [5.424346913761899, 52.506931249064344], [5.434574028088249, 52.51119422423927], [5.440582586065351, 52.51781143187207], [5.439416548811234, 52.51882192066062], [5.436596298873574, 52.518283948841756], [5.4369487412473365, 52.517205057531584], [5.436716321036704, 52.51711400292387], [5.436039351721918, 52.51825566534409], [5.436108373260378, 52.518699792902616], [5.436694583769328, 52.51857640615369], [5.437279790155473, 52.519011310805446], [5.436042124620857, 52.520745299617346], [5.435735243259612, 52.522048760167785], [5.435482794195281, 52.524473056407665], [5.434060605254322, 52.52635184286481], [5.432976355251885, 52.5247175430468], [5.431939775812516, 52.52473471212775], [5.429782631499133, 52.524896219113444], [5.429519211498318, 52.526641675239254], [5.429013866782586, 52.526770037805264], [5.429058042033845, 52.52734783898236], [5.427066710039865, 52.527425546615746], [5.427004704227903, 52.526732729519175], [5.426272219267709, 52.52682550778786], [5.425519899359102, 52.520829071312264], [5.424993634489455, 52.52082924063026], [5.425194075329064, 52.526962060088564], [5.4227091393322535, 52.527276748065844], [5.423102007039791, 52.52901132460955], [5.4247582511105685, 52.52960950911872], [5.425537946242308, 52.52966790004982], [5.426281491955857, 52.53551754920184], [5.427184232468963, 52.53795299883015], [5.431069857400616, 52.54354491698948], [5.438492890422391, 52.55492231196076], [5.4405672552239634, 52.55720639970705], [5.44352660122804, 52.55949525524909], [5.446145259066376, 52.56108131398339], [5.448888657349335, 52.56223624513153], [5.4516433195574105, 52.563300894096244], [5.464190213519991, 52.56618255472067], [5.466241099540263, 52.567470447524634], [5.467352627421502, 52.56925416797726], [5.46679967242234, 52.57177161467785], [5.457384651421896, 52.58997738660211], [5.455459151402426, 52.59355861354845], [5.407211941182569, 52.64084422510346], [5.406284251847621, 52.64061772022942], [5.398975024875784, 52.648833929777055], [5.360342862656835, 52.674179471147234], [5.35263222819123, 52.67743037331189], [5.305494760440112, 52.68988614991612], [5.299205064974849, 52.68321853558245], [5.2932380459479305, 52.68130681707524], [5.287130352096331, 52.68157916374682], [5.2814323515325645, 52.6843894855387], [5.288299297375488, 52.68419809075428], [5.292413581664301, 52.685072834241694], [5.295124685602195, 52.686777988468094], [5.296551287078963, 52.689828356475054], [5.286883778976429, 52.68989532198096], [5.287425287311934, 52.69116483026469], [5.297173858936477, 52.692185798410236], [5.302144171334263, 52.691594449548866]]]]}, "properties": {"type": "boundary", "gemeente": "Lelystad"}}]}