{"type": "FeatureCollection", "features": [{"type": "Feature", "geometry": {"type": "MultiPolygon", "coordinates": [[[[6.60371799207849, 53.05888033824261], [6.605170272070167, 53.056448442073226], [6.608087673325969, 53.048419325454844], [6.606489641864596, 53.03820383586866], [6.603549459334866, 53.03295754406841], [6.631221723915377, 53.02610636705623], [6.6297639810813305, 53.02371625866057], [6.6326464754720895, 53.02203720070378], [6.629760839015735, 53.01562568599625], [6.621738825628431, 53.01217451457664], [6.621846373530561, 53.01005716771578], [6.6207271956533855, 53.00926706348661], [6.615983908854606, 53.00813529920975], [6.611720351953344, 53.001607583622466], [6.611572620690377, 52.99957557415883], [6.6078632591241995, 52.99535387305185], [6.6079448052312735, 52.98944190627263], [6.607926448194346, 52.989413354797506], [6.60570215613389, 52.98449509192539], [6.604134925470595, 52.98289990066393], [6.599383348626415, 52.98151915586104], [6.596485134876371, 52.979300281747], [6.595378020216589, 52.97627121776171], [6.596043686058807, 52.9726590652013], [6.582845880901738, 52.96801101560972], [6.5812655188728995, 52.967450127291734], [6.569997448326221, 52.9576761764469], [6.567227121626961, 52.95246467644417], [6.561504898413825, 52.946653126484044], [6.555331212770613, 52.94954780986762], [6.542997693353846, 52.95533925346886], [6.5392790667048635, 52.94589128043251], [6.535914756208624, 52.93259150823896], [6.534602943615769, 52.93251576524226], [6.530772462848136, 52.93462687050801], [6.517622319345121, 52.9397639156369], [6.519577422642486, 52.94295669103215], [6.508827016139956, 52.94698561031859], [6.496972035639373, 52.95156703093274], [6.4931283852490775, 52.9479968101891], [6.490587625587867, 52.94901343325083], [6.489538223561292, 52.94805943814617], [6.486492279459414, 52.94918240262895], [6.483947974072176, 52.950173967569185], [6.489194180264896, 52.954457949455616], [6.49383175007763, 52.9587482696258], [6.487558499259228, 52.96120589452857], [6.495743650806832, 52.96899151883572], [6.48688337663207, 52.972443139033764], [6.485502521714169, 52.972985618886135], [6.490489498999058, 52.97759754189327], [6.496595723142083, 52.983240402772175], [6.49391383642361, 52.98426660566829], [6.494233942201084, 52.985856868519136], [6.4990049227722295, 52.99021683277213], [6.494573087568153, 52.991959711901366], [6.493702595598674, 52.992337940936714], [6.49806135233989, 52.99378200487259], [6.49258648888026, 52.9930598677367], [6.4916930665086445, 52.99558795756371], [6.488212588342436, 53.00540631426749], [6.505121058468843, 53.009918163870424], [6.513036818711832, 53.01055774098959], [6.509979144216365, 53.01704050085308], [6.50387359896408, 53.016042638250816], [6.495528314190211, 53.03089871888022], [6.502894021106912, 53.03221382544699], [6.4999515010984386, 53.03843130675231], [6.50038126858342, 53.03907286608021], [6.505130572092655, 53.04635575161881], [6.51092416038213, 53.04445454830092], [6.5242840013012575, 53.04595003611209], [6.529107949129851, 53.04338622039138], [6.530852704833615, 53.0411865075847], [6.530194263289598, 53.04011053570049], [6.533893033484279, 53.038932747431325], [6.533683699322674, 53.03815730351616], [6.541743499809263, 53.037178740228995], [6.5412707838782165, 53.035660638898904], [6.547307195098167, 53.03506802569138], [6.549277394482763, 53.03834645007123], [6.550770303580944, 53.03815648955153], [6.551489363793978, 53.04025346798221], [6.5523163272607645, 53.042576632147245], [6.552516572579758, 53.043496488814036], [6.550024830777146, 53.04647330005979], [6.551490826773236, 53.05036644129285], [6.553956132392997, 53.0527287097844], [6.552730596111527, 53.0551477058873], [6.556076500539179, 53.05572750622842], [6.555213620251848, 53.0586090837981], [6.569720806131474, 53.059862797780184], [6.5699369887702845, 53.05712277698631], [6.570399616706926, 53.05488823931382], [6.575057802150442, 53.054640466271046], [6.575201871441537, 53.055068773709785], [6.575804438053149, 53.05918863409353], [6.586811776842107, 53.05953897007873], [6.588077542256303, 53.05800033589828], [6.600456178349609, 53.06102124255213], [6.601235654447789, 53.06175868078969], [6.60371799207849, 53.05888033824261]]]]}, "properties": {"type": "boundary", "gemeente": "Assen"}}, {"type": "Feature", "geometry": {"type": "MultiPolygon", "coordinates": [[[[6.737492192755729, 52.87490707816339], [6.740446478848153, 52.87098481308328], [6.745106197349922, 52.87185119658915], [6.747294379275209, 52.870305551773406], [6.750997953778695, 52.865134616831604], [6.7523228834893745, 52.86319126937217], [6.7524774541774075, 52.8629593648661], [6.753400900613535, 52.86158434425814], [6.753008217826057, 52.85904100905272], [6.7540865637837735, 52.858532913392935], [6.76913997269941, 52.85147275687906], [6.765601136111314, 52.849926240673206], [6.766676466882843, 52.84941561752766], [6.767422125073721, 52.84906053925293], [6.809867684482172, 52.82881931470211], [6.826940793687865, 52.819752853658784], [6.833451087781343, 52.81570586293047], [6.835878755696645, 52.81420635985628], [6.839117047282328, 52.81219925889472], [6.8407137986604525, 52.81017696703856], [6.849805757670371, 52.80463456635193], [6.845863756458278, 52.798536040623254], [6.83238244074223, 52.780076193348464], [6.83104705228817, 52.77816302836449], [6.83105358458423, 52.77582762085641], [6.834220717024857, 52.7714296755415], [6.831074848900202, 52.76830256419707], [6.831220054497749, 52.76676525081826], [6.8396940054836, 52.760996877247294], [6.837916024769998, 52.75834867983224], [6.834970197230923, 52.756118517858454], [6.838081373881148, 52.755815854935825], [6.838369921581291, 52.75139519636566], [6.83357770898725, 52.747305505009855], [6.83277451807563, 52.74405473161908], [6.8309700711043355, 52.74194677111599], [6.834850717153924, 52.73810747760202], [6.837353251889774, 52.73440582013489], [6.826362737286352, 52.73088398347641], [6.828319503190115, 52.72631287359688], [6.829912862504829, 52.72598175828538], [6.832743094100079, 52.719514283044326], [6.840870716159555, 52.69957161930732], [6.848806080829059, 52.69937459721534], [6.8501629650752855, 52.69657808656244], [6.85160560915025, 52.69008947253289], [6.852151549222405, 52.68764195370684], [6.852530136784358, 52.685957637848546], [6.854668610345724, 52.67630707175953], [6.856027234965846, 52.671679629609095], [6.858853896446269, 52.66106279358962], [6.861875551553568, 52.64969142742132], [6.85349359009556, 52.64952518201941], [6.850838929645348, 52.64861574220298], [6.8374605075031125, 52.651943899534], [6.831705155785284, 52.65149853398529], [6.827944535949051, 52.64918228252636], [6.8216404666272075, 52.647693932401744], [6.818270342739341, 52.6477281885138], [6.81615253833929, 52.6486162287201], [6.808473326858949, 52.649022712850325], [6.8072908245346255, 52.64942047880152], [6.805409231833982, 52.6513736455455], [6.803210937883049, 52.65187064060416], [6.794290417934349, 52.650657423561476], [6.789897926764459, 52.65279205958225], [6.786998155119747, 52.652377722265065], [6.783817574066286, 52.6525329210596], [6.777431405420328, 52.65166123197626], [6.774175834976583, 52.650199664635835], [6.772089744193177, 52.65005151503001], [6.767879757238149, 52.64685144273114], [6.758848904229633, 52.648825782859774], [6.7555055054913495, 52.64726032205711], [6.753452127573948, 52.64580658571222], [6.751908580349728, 52.647030799661934], [6.753330300531715, 52.64757987159354], [6.753535825930564, 52.64801021691654], [6.752598805067172, 52.6481110870163], [6.750490740002099, 52.64688697744263], [6.741984635166752, 52.64533316734571], [6.735726855143609, 52.64037555614574], [6.73069303942372, 52.63752516285473], [6.7270319941138395, 52.63393455868626], [6.726398748219078, 52.6332205844773], [6.720787007805358, 52.631432394415505], [6.71820150674004, 52.631307084463344], [6.715016339629502, 52.63026571925295], [6.710053796810926, 52.62782047651809], [6.70641778579917, 52.627004513776924], [6.702005226450596, 52.62726722729639], [6.70086110790097, 52.628320410634416], [6.700911553316005, 52.62940096604915], [6.704523460499685, 52.633139604754746], [6.703498369643172, 52.63523272400227], [6.70652617120927, 52.63954231346553], [6.7056985730061935, 52.640890457796154], [6.7021709923559225, 52.64108380973361], [6.701169371518783, 52.641668529884775], [6.702066627101693, 52.64246647463304], [6.70538380080454, 52.64332099695738], [6.705529217009808, 52.645652218761725], [6.708025629829678, 52.647720895798166], [6.708334684809049, 52.6487590408044], [6.701415561946693, 52.650221991384576], [6.685850611002136, 52.65347904962646], [6.685849289813224, 52.653479326206224], [6.682509857194434, 52.65417862837841], [6.655651544878788, 52.662033756257884], [6.646744723976251, 52.66463818336036], [6.629453980436617, 52.66968831206111], [6.631768477770995, 52.67387279093621], [6.6321255740001765, 52.67865931231395], [6.63209590638651, 52.68096164754957], [6.632413300985526, 52.686729941190535], [6.630390365397893, 52.690616209042275], [6.6288429531043604, 52.69641517153323], [6.629938110469648, 52.7127223361164], [6.607196350540754, 52.71276107270072], [6.595795642498291, 52.7132179455073], [6.596780126195409, 52.72354687377208], [6.576429321001546, 52.72426590470823], [6.576822074341748, 52.72555590091366], [6.587468112292767, 52.73569003412644], [6.608161005640594, 52.755331680763845], [6.616262430701586, 52.763010378175686], [6.638956565365589, 52.78256049559798], [6.643253465355896, 52.786247729345874], [6.660879665181666, 52.80123314893173], [6.667748046854759, 52.79970273733558], [6.675114192618672, 52.79713632340089], [6.678029145126015, 52.79910767978737], [6.675772622334732, 52.800270666286316], [6.679036849078133, 52.80277609075357], [6.68118341368519, 52.807732747964884], [6.69015536995837, 52.81012344891935], [6.691604366552843, 52.80977968355295], [6.6923983995101395, 52.81075300397299], [6.693487508485532, 52.81545937679814], [6.690210793107819, 52.82267254190583], [6.691058984165084, 52.82601977240791], [6.693987477119923, 52.827804766268564], [6.696025400516124, 52.82661616001793], [6.707598268849014, 52.83639284463992], [6.706346940876455, 52.842429246999714], [6.704053233068323, 52.84697850758895], [6.719672607347174, 52.8488303831799], [6.728379886212545, 52.853824357464035], [6.725984667440173, 52.85729378431335], [6.719858152694271, 52.86148956836103], [6.72186080769065, 52.86631800404534], [6.71456392008084, 52.86815951417961], [6.736337062820839, 52.878691992656364], [6.737492192755729, 52.87490707816339]]]]}, "properties": {"type": "boundary", "gemeente": "Coevorden"}}, {"type": "Feature", "geometry": {"type": "MultiPolygon", "coordinates": [[[[7.040286232157232, 52.872818866988936], [7.04348615767801, 52.86521924519378], [7.046432966342568, 52.86585627050853], [7.047884854274415, 52.86450694316814], [7.051461247245085, 52.861182751245174], [7.052300840748044, 52.86149631609994], [7.062726325869387, 52.85146915657565], [7.063749489277464, 52.85179024533557], [7.064269956662461, 52.851043960776224], [7.0659171292304475, 52.85164268250292], [7.069137954800121, 52.847864398146555], [7.070067901385042, 52.8477941137302], [7.076236731834373, 52.850030853661394], [7.076316899077565, 52.84874749771926], [7.072192749388858, 52.84521167167032], [7.071640686844216, 52.8392789303486], [7.072378396350711, 52.83851465334514], [7.09273951671939, 52.83819691042543], [7.079512328001843, 52.82161768759468], [7.07155088113371, 52.8104219700495], [7.069074698387756, 52.780324332132814], [7.0641514045972915, 52.72320332119159], [7.058587980111071, 52.67669611628927], [7.0560486253087475, 52.65539483626785], [7.055063932280791, 52.64708349759767], [7.054755858467829, 52.64442257858465], [7.0556411716203975, 52.64435945751374], [7.055721731499565, 52.64349938833742], [7.04173340875948, 52.63270989833211], [7.038606395598346, 52.6328706999097], [7.035467584716758, 52.6348543135441], [7.028762840484518, 52.634640621477025], [7.012492135019872, 52.636776470373626], [7.0065979592018985, 52.638521838982555], [7.004491127528743, 52.64087688971912], [7.001877776801741, 52.64191889264389], [6.999233204781464, 52.64215273291998], [6.992459482428822, 52.641332377070356], [6.984271192826535, 52.64363685387772], [6.981924969923619, 52.64501279413637], [6.97598506272423, 52.64625477946721], [6.974929935003261, 52.646107989374684], [6.968319530961984, 52.641830490242235], [6.959233174508066, 52.6417308565909], [6.9535585391941614, 52.638990600022645], [6.945427516977135, 52.63934256175841], [6.938603466920793, 52.637885582251315], [6.934645433486951, 52.63832380175127], [6.928522223654731, 52.640185194736695], [6.919257670837571, 52.639845720807266], [6.9163400803552495, 52.641333507664534], [6.914464075949445, 52.646482048999346], [6.902938352934755, 52.648594325085476], [6.897180011736442, 52.65137185382443], [6.891498127120769, 52.651523500846054], [6.879950579184899, 52.65054887304223], [6.872810994460046, 52.65327112415042], [6.864744993920913, 52.64985950300573], [6.861875551553571, 52.649691427421445], [6.858853896446272, 52.66106279358972], [6.8560272349658495, 52.6716796296092], [6.854668610345724, 52.67630707175953], [6.852530136784358, 52.685957637848546], [6.852151549222405, 52.68764195370684], [6.85160560915025, 52.69008947253289], [6.8501629650752855, 52.69657808656244], [6.848806080829059, 52.69937459721534], [6.840870716159555, 52.69957161930732], [6.832743094100079, 52.719514283044326], [6.829912862504829, 52.72598175828538], [6.828319503190115, 52.72631287359688], [6.826362737286352, 52.73088398347641], [6.837353251889774, 52.73440582013489], [6.834850717153924, 52.73810747760202], [6.8309700711043355, 52.74194677111599], [6.83277451807563, 52.74405473161908], [6.83357770898725, 52.747305505009855], [6.838369921581291, 52.75139519636566], [6.838081373881148, 52.755815854935825], [6.834970197230923, 52.756118517858454], [6.837916024769998, 52.75834867983224], [6.8396940054836, 52.760996877247294], [6.831220054497749, 52.76676525081826], [6.831074848900202, 52.76830256419707], [6.834220717024857, 52.7714296755415], [6.83105358458423, 52.77582762085641], [6.83104705228817, 52.77816302836449], [6.83238244074223, 52.780076193348464], [6.845863756458278, 52.798536040623254], [6.849805757670371, 52.80463456635193], [6.855622077524672, 52.811578060969296], [6.858805368808628, 52.81379363093581], [6.865063884011865, 52.815816562175264], [6.869001840822417, 52.81929438817522], [6.871417119450908, 52.820051512510574], [6.884943804367706, 52.82450122627653], [6.9109252811535145, 52.83540215361637], [6.919245190375414, 52.838354220201914], [6.9499126234306745, 52.848803923828626], [6.9518880101283544, 52.85218854018049], [6.9520753194440505, 52.85531667532514], [6.957615216745457, 52.861905243230126], [6.961449746319174, 52.86428302114042], [6.964494794326578, 52.864949144810005], [6.966638067591725, 52.86386899099912], [7.00758900836464, 52.8730119261864], [7.013154330400666, 52.87299324802798], [7.014799310310461, 52.872987210197806], [7.018576947530581, 52.87297562890957], [7.040286232157232, 52.872818866988936]]]]}, "properties": {"type": "boundary", "gemeente": "Emmen"}}, {"type": "Feature", "geometry": {"type": "MultiPolygon", "coordinates": [[[[6.503364850666768, 52.76934651013285], [6.505539244141421, 52.76807475427983], [6.5079044891821045, 52.76884759775827], [6.512792868240247, 52.762100936723016], [6.535367636339416, 52.768104680195634], [6.537521198528798, 52.76523458849801], [6.566277700908873, 52.765577230749], [6.562430198726386, 52.75669477422574], [6.55757806733868, 52.745350322808115], [6.559661596489425, 52.7450655890758], [6.570780106349149, 52.740793327587134], [6.5732200919998345, 52.73985798915385], [6.5740368499760935, 52.740523549137194], [6.575865887476832, 52.73981245195859], [6.587468112292767, 52.73569003412644], [6.576822074341748, 52.72555590091366], [6.576429321001546, 52.72426590470823], [6.596780126195409, 52.72354687377208], [6.595795642498291, 52.7132179455073], [6.607196350540754, 52.71276107270072], [6.629938110469648, 52.7127223361164], [6.6288429531043604, 52.69641517153323], [6.630390365397893, 52.690616209042275], [6.632413300985526, 52.686729941190535], [6.63209590638651, 52.68096164754957], [6.6321255740001765, 52.67865931231395], [6.631768477770995, 52.67387279093621], [6.629453980436617, 52.66968831206111], [6.614527582931608, 52.67404934556954], [6.6129809214685595, 52.673838359716285], [6.603801610327253, 52.672585421702976], [6.581020163793578, 52.66946873337588], [6.552822093860303, 52.665595090193115], [6.547746583432735, 52.66397149808128], [6.529381286033441, 52.65450748745326], [6.530069774313944, 52.66461560163069], [6.530556459626567, 52.672472531866056], [6.502418455205786, 52.673460221268826], [6.4995523020817325, 52.67355424817976], [6.499774465135619, 52.675643093123696], [6.492574310144713, 52.67597106675385], [6.49292642820811, 52.68358714551023], [6.484852409847614, 52.68424595287991], [6.485980794755735, 52.69363296333688], [6.474699486759675, 52.6942078171312], [6.46331976432978, 52.6933079421943], [6.462814855130359, 52.69520322032019], [6.448676832681523, 52.693787939187246], [6.45131185247547, 52.69940606826824], [6.449875931645238, 52.70527513840442], [6.451141835711311, 52.706981916247805], [6.435646815847245, 52.706096357474735], [6.426518746577853, 52.704778873555526], [6.419665953906224, 52.70165581154707], [6.416222143513663, 52.703464189976486], [6.407167614926456, 52.70679594768356], [6.4047496581250005, 52.70467571929991], [6.403598850071314, 52.70599923398626], [6.404726211707565, 52.70912159245808], [6.405588777360517, 52.71258327909535], [6.4071761455722935, 52.71382490194517], [6.4099336131544415, 52.714295746557156], [6.413202851734297, 52.716209210607275], [6.414365027503499, 52.71726158909151], [6.414195643070404, 52.71940473946825], [6.414636840949693, 52.720220766737405], [6.413246630324557, 52.72056096081158], [6.406802379280233, 52.72841044043186], [6.421325358984184, 52.73141563895571], [6.415406598718315, 52.740833731126756], [6.423192409124949, 52.743000445118255], [6.422461416180191, 52.7451394740714], [6.42052271485857, 52.7482273844526], [6.426285496087299, 52.75142302401911], [6.419402923488814, 52.75599457618414], [6.416144296636673, 52.755317500957474], [6.410139807140846, 52.76488742361631], [6.413890528484058, 52.76605982351706], [6.431523412721493, 52.76862394744092], [6.436458564598504, 52.77039883434539], [6.440598033703857, 52.77291374206491], [6.442976485382872, 52.774485824368504], [6.446152100239188, 52.77609577933843], [6.446214090702087, 52.77772822210598], [6.446490456908809, 52.781542254095875], [6.446920075219903, 52.78588962185602], [6.449733837531553, 52.792763842357395], [6.455450486012238, 52.80055695357629], [6.478490632718523, 52.79584826147488], [6.491804904714828, 52.79312376091915], [6.496164144293388, 52.78622509349159], [6.490847960302805, 52.77088374640035], [6.503364850666768, 52.76934651013285]]]]}, "properties": {"type": "boundary", "gemeente": "Hoogeveen"}}, {"type": "Feature", "geometry": {"type": "MultiPolygon", "coordinates": [[[[6.175671766907696, 52.76989352501065], [6.176926341874141, 52.768214037415284], [6.177593009834463, 52.76830290644885], [6.1859627298173905, 52.75485974633835], [6.187258360133356, 52.75275305595737], [6.19407452156616, 52.74159460023457], [6.195339902954192, 52.73956314959961], [6.201843642625756, 52.7293076846151], [6.218556387774543, 52.7483008374367], [6.220659496647689, 52.747911869510894], [6.231439268330571, 52.74170906195764], [6.234576756447163, 52.740601251102284], [6.217624123050912, 52.72130030938237], [6.216320449342947, 52.718604677399235], [6.216523401380827, 52.712707754840395], [6.216634582444355, 52.70959507583664], [6.216904244006643, 52.703158430766955], [6.224961743396219, 52.703230905043085], [6.233328691515699, 52.70665974606306], [6.237928490235975, 52.70577124534467], [6.242556476741793, 52.70681400287219], [6.248976020713981, 52.708221622082135], [6.253120256795322, 52.70528221392863], [6.268628403761777, 52.70554435601855], [6.274255545736958, 52.70618371405812], [6.273803224701256, 52.70328219932307], [6.2772141896593165, 52.703360420948], [6.276699752982354, 52.70058676109672], [6.2779518008330975, 52.70105176045527], [6.279635228394736, 52.6996124818762], [6.276326059112266, 52.698004848331465], [6.2758080057530385, 52.695464082083056], [6.286700482333449, 52.699069921773415], [6.2850123071070465, 52.68970580253311], [6.275894541758256, 52.69031022733455], [6.275423679190436, 52.68774364112091], [6.28174100703043, 52.684474164604396], [6.283842686754901, 52.68419859544309], [6.283524542768691, 52.68249255053213], [6.275161545428675, 52.68344766733344], [6.2698151265047715, 52.68222864034614], [6.272668831266648, 52.673743042925715], [6.2724893849221885, 52.67319882228487], [6.26904598957804, 52.67357637019081], [6.268576346514085, 52.67171542182501], [6.266457072653501, 52.670996451677134], [6.266325689585408, 52.66825849299208], [6.265501591929911, 52.667988381211714], [6.265488992906961, 52.669139741939844], [6.260535561980998, 52.670478479854765], [6.258176680551311, 52.66981901884043], [6.257420082104305, 52.6704082312206], [6.255912104071374, 52.66960228957036], [6.255079565589197, 52.67007266141832], [6.2547360300916495, 52.669579438359904], [6.254256532519428, 52.67019853177231], [6.252001908941789, 52.66988202956098], [6.250270333171005, 52.67109641330035], [6.250612866727936, 52.67186784468874], [6.2492011277441195, 52.6713974839015], [6.247338209857938, 52.672776275616606], [6.248966239725279, 52.67390179455711], [6.248365605439524, 52.67561747643886], [6.243499496043414, 52.678786195253615], [6.2405043733774175, 52.67772935389667], [6.237075089742353, 52.67754833244849], [6.236808256004894, 52.678029510137414], [6.232843692642558, 52.679110046371996], [6.232925777288131, 52.679871198331824], [6.2340613881854, 52.68023843122177], [6.232651447359096, 52.68148713157736], [6.230663655410547, 52.68118624619898], [6.228692261778579, 52.681649526056304], [6.228231906059988, 52.68128704956454], [6.227699060102833, 52.68172626416197], [6.227182667686889, 52.681253320229665], [6.224906032962469, 52.68243185033764], [6.222721273949592, 52.682683379553666], [6.2209945698766385, 52.68282831242335], [6.221171002014197, 52.68347662014331], [6.218715325525217, 52.684377981558015], [6.219807433083781, 52.68570517371692], [6.218402791551388, 52.68600525308933], [6.217426371602045, 52.685517128226515], [6.21658507136118, 52.68639354910443], [6.214096334957067, 52.68631629138594], [6.213744218640522, 52.68565353862515], [6.2121143981715825, 52.68530909582138], [6.21250022877673, 52.68463362543699], [6.210181808369317, 52.68522489679467], [6.206464042504444, 52.68485921336025], [6.204985533491546, 52.68416173081942], [6.203937307455672, 52.68466765000003], [6.201682209534165, 52.684620961334154], [6.196478208146147, 52.68086641544672], [6.194475520639652, 52.67882569518838], [6.194230455171529, 52.676630225072664], [6.192055459279554, 52.67642710689357], [6.191445164334714, 52.67932049281153], [6.187862897410415, 52.67961438544872], [6.1858714188091355, 52.68250415689778], [6.180548944530294, 52.68158850282922], [6.184208796857871, 52.677208453338515], [6.181933642587091, 52.67686881785142], [6.1831475561982145, 52.67506388517785], [6.17013302340011, 52.67793665033116], [6.162996898388485, 52.680062401488264], [6.168973299856204, 52.68553393025206], [6.169651690294839, 52.686121392598714], [6.16819637003013, 52.68813650089794], [6.166352931017543, 52.688945797313536], [6.1649255474879325, 52.688890130796324], [6.162580691009521, 52.691061771298024], [6.15897688118262, 52.69215479434135], [6.1588035309234, 52.692480827366175], [6.156607527352139, 52.69195795792244], [6.153821477382102, 52.697337582438514], [6.151436769309122, 52.70137714792571], [6.15198593662233, 52.701597618144866], [6.151423667508171, 52.702883352925475], [6.143919400636811, 52.7142656037687], [6.14264802217868, 52.71632700706621], [6.139935923346816, 52.72036316617054], [6.132977366776704, 52.73139699038645], [6.12914886157324, 52.73802896725543], [6.127094621936096, 52.74026455058308], [6.120377239169877, 52.750243172999355], [6.1215983290443345, 52.75421086159369], [6.12633143329744, 52.75683505844333], [6.132469029998304, 52.75866865341362], [6.137709661349865, 52.759004907043], [6.156497214326982, 52.76265068168466], [6.160154468642671, 52.764659093025195], [6.163940721609653, 52.76644983496666], [6.168526096077417, 52.76709395690374], [6.172906626288286, 52.77305466029699], [6.174446287690626, 52.772060477122196], [6.175671766907696, 52.76989352501065]]]]}, "properties": {"type": "boundary", "gemeente": "Meppel"}}, {"type": "Feature", "geometry": {"type": "MultiPolygon", "coordinates": [[[[6.789826797185082, 53.08630911419434], [6.813944731272581, 53.07097299596927], [6.814535520075231, 53.07059947140025], [6.837170412513124, 53.0562298574047], [6.843273040744577, 53.05234563601797], [6.861287460073301, 53.040875422189956], [6.897088020101563, 53.01805252626273], [6.904620035481058, 53.013235844961244], [6.907130549812827, 53.01163006860136], [6.907184493389342, 53.01159555005793], [6.922171347789762, 53.002005913382], [6.9346800818764835, 52.993997296880025], [6.935684966534082, 52.99335373386863], [6.92794636310263, 52.99214279954136], [6.872320912840943, 52.98342175025563], [6.857924085931324, 52.981159787858516], [6.854636358280117, 52.98064295697886], [6.845879990987158, 52.9792711538422], [6.839031036740543, 52.97796107770937], [6.838959497381722, 52.97806069469887], [6.814368801757431, 52.97048885896848], [6.812764226069666, 52.969992160649475], [6.788759097389611, 52.96277564952754], [6.780059659394953, 52.96164064111331], [6.729295700785791, 52.954929018689604], [6.727711866590872, 52.95472072725758], [6.731146506288408, 52.938830003561925], [6.731422457918169, 52.93755592861728], [6.724650947697171, 52.93730605325018], [6.727293662015022, 52.91380525744875], [6.728313387599425, 52.90667668506279], [6.734699091392801, 52.88410296791602], [6.736337062820839, 52.878691992656364], [6.71456392008084, 52.86815951417961], [6.686498849951864, 52.87529987942111], [6.674985637485372, 52.905018052436596], [6.66673373373223, 52.909450240480126], [6.6417055177479005, 52.91200157456073], [6.625570548396961, 52.91280651945005], [6.614877413383417, 52.918312348609014], [6.585814263924623, 52.919468919734626], [6.565071373454908, 52.944981772661556], [6.561504898413825, 52.946653126484044], [6.567227121626961, 52.95246467644417], [6.569997448326221, 52.9576761764469], [6.5812655188728995, 52.967450127291734], [6.582845880901738, 52.96801101560972], [6.596043686058807, 52.9726590652013], [6.595378020216589, 52.97627121776171], [6.596485134876371, 52.979300281747], [6.599383348626415, 52.98151915586104], [6.604134925470595, 52.98289990066393], [6.60570215613389, 52.98449509192539], [6.607926448194346, 52.989413354797506], [6.6079448052312735, 52.98944190627263], [6.6078632591241995, 52.99535387305185], [6.611572620690377, 52.99957557415883], [6.611720351953344, 53.001607583622466], [6.615983908854606, 53.00813529920975], [6.6207271956533855, 53.00926706348661], [6.621846373530561, 53.01005716771578], [6.621738825628431, 53.01217451457664], [6.629760839015735, 53.01562568599625], [6.6326464754720895, 53.02203720070378], [6.6297639810813305, 53.02371625866057], [6.631221723915377, 53.02610636705623], [6.64859358581938, 53.026333661419464], [6.64801018636262, 53.028265232838955], [6.644771254417906, 53.03915253510866], [6.6405558613745805, 53.04162971321619], [6.64153295879735, 53.04319372622437], [6.643382968625321, 53.04699978479392], [6.646477615216343, 53.049125070799334], [6.6468342941686105, 53.05044515318181], [6.647898617868155, 53.05096739840748], [6.653787160338543, 53.055531748252925], [6.662142018673406, 53.05617948982477], [6.666936939049521, 53.0582367267443], [6.664199445897332, 53.05992800341152], [6.6645261905257165, 53.06159107341235], [6.669285893926138, 53.06322123760701], [6.671599261335843, 53.065018218849964], [6.669375760801635, 53.0656019535392], [6.670211943820803, 53.06711715993208], [6.664357953922705, 53.069148620814985], [6.6664112074447, 53.07200513990369], [6.666007965340977, 53.07215622317201], [6.663580247989009, 53.071335236404614], [6.661217341079175, 53.073189548341446], [6.662159880153956, 53.075030947093246], [6.659982582247034, 53.07442207643045], [6.654693106300558, 53.07825433225801], [6.653988712455678, 53.08009700730845], [6.649767847394737, 53.079568966380556], [6.648855226916548, 53.08218975547173], [6.657774333198844, 53.08403143531249], [6.661836265329089, 53.081986480764144], [6.669187633109682, 53.080346340527186], [6.670426501895337, 53.08010660453594], [6.67852070454426, 53.076825781980034], [6.687493365850153, 53.072228534379825], [6.69264287603482, 53.07018446533801], [6.699014833853946, 53.06517478797889], [6.705245087474551, 53.06766022027267], [6.7062993100101, 53.068081669928354], [6.711433101705559, 53.070114267595216], [6.713687323300107, 53.06869816730318], [6.715487430785174, 53.06943300217289], [6.726138594927506, 53.07366719131899], [6.727173755085461, 53.07322245048041], [6.748211029937823, 53.08123410994439], [6.750200553805616, 53.08178861318937], [6.749368166159203, 53.08363691334408], [6.7478765739929, 53.08352984302584], [6.745108227598525, 53.08469137659195], [6.746004880582575, 53.08583052358297], [6.757858813308782, 53.08940404098087], [6.761951797461566, 53.090545520353935], [6.763279492975888, 53.090916145204076], [6.765285279162052, 53.09149721990125], [6.776509298983489, 53.09476203341401], [6.789826797185082, 53.08630911419434]]]]}, "properties": {"type": "boundary", "gemeente": "Aa en Hunze"}}, {"type": "Feature", "geometry": {"type": "MultiPolygon", "coordinates": [[[[6.948411723067373, 52.982619004913175], [6.956650799877807, 52.97553492095775], [6.956721233182277, 52.9754743439248], [6.963292727312729, 52.96982194438409], [6.969586771251071, 52.96442817212047], [6.970353153147551, 52.96376996240387], [6.9703628622224, 52.96376162514803], [6.9785640866158625, 52.95671774509058], [6.979861504274431, 52.95560511797533], [6.986023032211245, 52.95031978330294], [6.98788120071693, 52.94872405434438], [6.995024367915705, 52.94258862092007], [7.00289989102138, 52.93581559625597], [7.009559305727879, 52.93009387937431], [7.015698322504382, 52.92481636558091], [7.024671319845456, 52.919870694614], [7.026854978606308, 52.919037709059346], [7.045531701037817, 52.91591620394037], [7.039581067684821, 52.90756110108016], [7.039540397535527, 52.907504403671865], [7.039540369292281, 52.907504364515155], [7.016562130587881, 52.875446793803384], [7.014799310310461, 52.872987210197806], [7.013154330400666, 52.87299324802798], [7.00758900836464, 52.8730119261864], [6.966638067591722, 52.863868990999], [6.964494794326578, 52.864949144810005], [6.961449746319174, 52.86428302114042], [6.957615216745457, 52.861905243230126], [6.9520753194440505, 52.85531667532514], [6.9518880101283544, 52.85218854018049], [6.9499126234306745, 52.848803923828626], [6.919245190375414, 52.838354220201914], [6.9109252811535145, 52.83540215361637], [6.884943804367706, 52.82450122627653], [6.871417119450908, 52.820051512510574], [6.869001840822417, 52.81929438817522], [6.865063884011865, 52.815816562175264], [6.858805368808628, 52.81379363093581], [6.855622077524672, 52.811578060969296], [6.849805757670371, 52.80463456635193], [6.8407137986604525, 52.81017696703856], [6.839117047282328, 52.81219925889472], [6.835878755696645, 52.81420635985628], [6.833451087781343, 52.81570586293047], [6.826940793687865, 52.819752853658784], [6.809867684482172, 52.82881931470211], [6.767422125073721, 52.84906053925293], [6.766676466882843, 52.84941561752766], [6.765601136111314, 52.849926240673206], [6.76913997269941, 52.85147275687906], [6.7540865637837735, 52.858532913392935], [6.753008217826057, 52.85904100905272], [6.753400900613535, 52.86158434425814], [6.7524774541774075, 52.8629593648661], [6.7523228834893745, 52.86319126937217], [6.750997953778695, 52.865134616831604], [6.747294379275209, 52.870305551773406], [6.745106197349919, 52.87185119658905], [6.740446478848372, 52.870984813083155], [6.737492192755726, 52.87490707816329], [6.736337062820839, 52.878691992656364], [6.7346990913930185, 52.88410296791593], [6.728313387599422, 52.90667668506271], [6.727293662015022, 52.91380525744875], [6.724650947697171, 52.93730605325018], [6.731422457918169, 52.93755592861728], [6.731146506288408, 52.938830003561925], [6.727711866590872, 52.95472072725758], [6.729295700785791, 52.954929018689604], [6.780059659394953, 52.96164064111331], [6.788759097389611, 52.96277564952754], [6.812764226069666, 52.969992160649475], [6.814368801757428, 52.97048885896839], [6.838959497381939, 52.97806069469877], [6.839031036740765, 52.97796107770937], [6.845879990987156, 52.9792711538421], [6.854636358280338, 52.98064295697886], [6.857924085931324, 52.981159787858516], [6.872320912840943, 52.98342175025563], [6.92794636310263, 52.99214279954136], [6.935684966534082, 52.99335373386863], [6.936610775036089, 52.99276075960258], [6.938412010483993, 52.99121315544912], [6.942927478521714, 52.987332930458784], [6.948411723067373, 52.982619004913175]]]]}, "properties": {"type": "boundary", "gemeente": "Borger-Odoorn"}}, {"type": "Feature", "geometry": {"type": "MultiPolygon", "coordinates": [[[[6.345803081901292, 52.78841844707661], [6.348220446761389, 52.78811459181062], [6.350463911242606, 52.78859062242759], [6.351029808954407, 52.78765028963449], [6.352081634752017, 52.7878414742872], [6.353345264025113, 52.78541068785282], [6.349477598396839, 52.783405309215084], [6.350079353938354, 52.78282641161771], [6.351245290312057, 52.78327119993405], [6.352283999485819, 52.78238769812953], [6.3537339279979586, 52.78248927344428], [6.353755584759885, 52.78204623997175], [6.355499331591438, 52.779516139512275], [6.3559946307291515, 52.78033903406789], [6.3588735214295085, 52.781766587225526], [6.35916741235873, 52.78281305289922], [6.360900143139382, 52.78323339471589], [6.363330133696252, 52.781969216311325], [6.36702715520676, 52.78108285112726], [6.368054237355604, 52.78135369788875], [6.369857077428503, 52.7802660233825], [6.3706767443465315, 52.780769200119316], [6.372067603301248, 52.780002180537096], [6.374561659884085, 52.781532155307254], [6.3732126867819145, 52.78232302390798], [6.377916249446668, 52.78520386870606], [6.386823617144687, 52.77995638322649], [6.387366963098977, 52.77903175078209], [6.387996322225304, 52.77934533659413], [6.3898244448225325, 52.778959684782976], [6.391527848705275, 52.77957400197942], [6.3940414596869, 52.777448750062945], [6.400575701853086, 52.780868944880005], [6.407305014413132, 52.78553276374915], [6.410238399683692, 52.78634569491286], [6.4102934934638505, 52.78710992299954], [6.412947562800354, 52.78831844901735], [6.4163761276320885, 52.78638761799064], [6.416653182683082, 52.78172954830296], [6.418922767179246, 52.781657069695655], [6.420440149376116, 52.780914080098924], [6.421601430680531, 52.78107839529516], [6.422601357232614, 52.78248617011557], [6.4237623346558115, 52.78285410380329], [6.427530123562707, 52.782501646165535], [6.428050493915452, 52.783710267157154], [6.431997388715129, 52.7845640842739], [6.432566141995205, 52.78646881294293], [6.43001136648906, 52.7871656865662], [6.429573027536011, 52.78870543522741], [6.433143599470343, 52.79076820649213], [6.436655358288611, 52.79146486230248], [6.436982123234298, 52.79199706790053], [6.446920075219903, 52.78588962185602], [6.446490456908809, 52.781542254095875], [6.446214090702087, 52.77772822210598], [6.446152100239188, 52.77609577933843], [6.442976485382872, 52.774485824368504], [6.440598033703857, 52.77291374206491], [6.436458564598504, 52.77039883434539], [6.431523412721493, 52.76862394744092], [6.413890528484058, 52.76605982351706], [6.410139807140846, 52.76488742361631], [6.416144296636673, 52.755317500957474], [6.419402923488814, 52.75599457618414], [6.426285496087299, 52.75142302401911], [6.42052271485857, 52.7482273844526], [6.422461416180191, 52.7451394740714], [6.423192409124949, 52.743000445118255], [6.415406598718315, 52.740833731126756], [6.421325358984184, 52.73141563895571], [6.406802379280233, 52.72841044043186], [6.413246630324557, 52.72056096081158], [6.414636840949693, 52.720220766737405], [6.414195643070404, 52.71940473946825], [6.414365027503499, 52.71726158909151], [6.413202851734297, 52.716209210607275], [6.4099336131544415, 52.714295746557156], [6.4071761455722935, 52.71382490194517], [6.405588777360517, 52.71258327909535], [6.404726211707565, 52.70912159245808], [6.403598850071314, 52.70599923398626], [6.4047496581250005, 52.70467571929991], [6.407167614926456, 52.70679594768356], [6.416222143513663, 52.703464189976486], [6.419665953906224, 52.70165581154707], [6.426518746577853, 52.704778873555526], [6.435646815847245, 52.706096357474735], [6.451141835711311, 52.706981916247805], [6.449875931645238, 52.70527513840442], [6.45131185247547, 52.69940606826824], [6.448676832681523, 52.693787939187246], [6.462814855130359, 52.69520322032019], [6.46331976432978, 52.6933079421943], [6.474699486759675, 52.6942078171312], [6.485980794755735, 52.69363296333688], [6.484852409847614, 52.68424595287991], [6.49292642820811, 52.68358714551023], [6.492574310144713, 52.67597106675385], [6.499774465135619, 52.675643093123696], [6.4995523020817325, 52.67355424817976], [6.502418455205786, 52.673460221268826], [6.530556459626567, 52.672472531866056], [6.530069774313944, 52.66461560163069], [6.529381286033444, 52.65450748745334], [6.52928865659823, 52.65445518347121], [6.52928439709034, 52.65445293123534], [6.5138620089857024, 52.646293976704705], [6.514014322272489, 52.64527222558312], [6.517866311217739, 52.61891821090745], [6.518247538124786, 52.616468495940275], [6.518533247221984, 52.61408107864132], [6.512027370921343, 52.61364997321414], [6.511676118195682, 52.61404114914752], [6.509307573155547, 52.61479533087059], [6.505028915984012, 52.61686043432825], [6.490902905738448, 52.61915603638115], [6.483895913368871, 52.61907684552846], [6.480085508599512, 52.618352524483115], [6.478016567172596, 52.618631580728504], [6.472991331650763, 52.62226581571158], [6.472369091815702, 52.62457953102496], [6.469965521086945, 52.624985951577386], [6.467219121540221, 52.6242786637588], [6.464094981019436, 52.62383839844155], [6.460707833646119, 52.61699170572572], [6.453477250414074, 52.61395594997647], [6.443070093418181, 52.61618730274443], [6.442218111763689, 52.615720461792584], [6.438253692639339, 52.6171491067149], [6.434934581052208, 52.61928582598417], [6.433803279478488, 52.62640950163479], [6.432992439342228, 52.627765340244714], [6.431326360585119, 52.62836985749253], [6.428176683896043, 52.628188798997954], [6.426036850960653, 52.62651285200195], [6.426886632161364, 52.624638707164], [6.420397966338913, 52.62239040747834], [6.418232367089628, 52.61904601202935], [6.416150331981492, 52.618667972983516], [6.412049250119485, 52.619868814586354], [6.411164299900106, 52.62082425632656], [6.409975585472763, 52.621603905618194], [6.4062177850675885, 52.62041939316117], [6.40589389721018, 52.618709110840214], [6.406761002109574, 52.61794233570443], [6.403720369895747, 52.61625450358654], [6.401248161011533, 52.616274507604345], [6.3963181388380645, 52.6177802531001], [6.393845675380397, 52.6172337618842], [6.391522300772958, 52.61451969403044], [6.386778258185041, 52.613620272653996], [6.384084271540369, 52.61225042416034], [6.38204833042489, 52.61564578479174], [6.3802527529674, 52.61502170035594], [6.376510443946795, 52.616924226932234], [6.3772394247289474, 52.62001376130634], [6.37361840370915, 52.62332673396547], [6.375183832514125, 52.62602879933551], [6.374590305194988, 52.628487100581], [6.369515704115556, 52.631901560836226], [6.368619756830172, 52.6335419598635], [6.3690516467929, 52.63563968902915], [6.3664080426689695, 52.63745375746299], [6.363907191652505, 52.63837642864302], [6.364102441429439, 52.64314209220435], [6.359440889048185, 52.64551909784158], [6.355987677641784, 52.645894623770836], [6.3435964447782744, 52.651158271386684], [6.341719751489148, 52.653686076027356], [6.334003046198477, 52.65469935873284], [6.331200930418192, 52.65716164480178], [6.327797879739657, 52.65869326563016], [6.326340342883006, 52.658958688659865], [6.3258838086156395, 52.659709295260996], [6.327224766877873, 52.66044733461891], [6.325871511332571, 52.66115506244771], [6.325857430923504, 52.662810349769586], [6.327620523488485, 52.66371820319696], [6.328516984307185, 52.66537864539854], [6.329290290842146, 52.66539899684986], [6.328004618395926, 52.66613219826047], [6.328711635971096, 52.666739073849506], [6.326938342534686, 52.66920749806743], [6.32252950433659, 52.6704383787501], [6.3195873619820775, 52.67039854090734], [6.318960774715419, 52.66972180478437], [6.316740418054873, 52.66989585656941], [6.316816498104776, 52.66949405032947], [6.314957277321327, 52.669425143123156], [6.314821972635134, 52.668751362955746], [6.313875468909428, 52.66868899261528], [6.314103416852528, 52.66805873704993], [6.312080685157803, 52.66805603059703], [6.311659918881442, 52.66733928445924], [6.309670599759288, 52.666753503063156], [6.305826078166002, 52.66623982607025], [6.302622018975748, 52.667346817250134], [6.301889639748328, 52.66699744837475], [6.302288326399835, 52.666427304669625], [6.299676443735334, 52.666497522817], [6.299689130966089, 52.66583130782978], [6.297563259780129, 52.66637002315064], [6.295195895418559, 52.663578097153234], [6.295548045074234, 52.66232279135705], [6.291947145340755, 52.66243789885044], [6.289056468271972, 52.663249752881825], [6.288269964824482, 52.663887984076254], [6.287487228268715, 52.66345319482557], [6.287226484043925, 52.66418124209355], [6.285052824702884, 52.66539495720734], [6.285491040187685, 52.666992399298586], [6.284531180011718, 52.66715363469152], [6.28270522982846, 52.66821991508038], [6.279056737563182, 52.66905188356031], [6.277905698686168, 52.66853998502465], [6.277350749389449, 52.66893113320732], [6.276254284981657, 52.66731373682046], [6.2745136594269155, 52.666898586512495], [6.2733392648196, 52.66491077739191], [6.270067486656548, 52.66479473575816], [6.265895891165262, 52.6667809218017], [6.265501591929911, 52.667988381211714], [6.266325689585408, 52.66825849299208], [6.266457072653501, 52.670996451677134], [6.268576346514085, 52.67171542182501], [6.26904598957804, 52.67357637019081], [6.2724893849221885, 52.67319882228487], [6.272668831266648, 52.673743042925715], [6.2698151265047715, 52.68222864034614], [6.275161545428675, 52.68344766733344], [6.283524542768691, 52.68249255053213], [6.283842686754901, 52.68419859544309], [6.28174100703043, 52.684474164604396], [6.275423679190436, 52.68774364112091], [6.275894541758256, 52.69031022733455], [6.2850123071070465, 52.68970580253311], [6.286700482333449, 52.699069921773415], [6.2758080057530385, 52.695464082083056], [6.276326059112266, 52.698004848331465], [6.279635228394736, 52.6996124818762], [6.2779518008330975, 52.70105176045527], [6.276699752982354, 52.70058676109672], [6.2772141896593165, 52.703360420948], [6.273803224701256, 52.70328219932307], [6.274255545736958, 52.70618371405812], [6.268628403761777, 52.70554435601855], [6.253120256795322, 52.70528221392863], [6.248976020713981, 52.708221622082135], [6.242556476741793, 52.70681400287219], [6.237928490235975, 52.70577124534467], [6.233328691515699, 52.70665974606306], [6.224961743396219, 52.703230905043085], [6.216904244006643, 52.703158430766955], [6.216634582444355, 52.70959507583664], [6.216523401380827, 52.712707754840395], [6.216320449342947, 52.718604677399235], [6.217624123050912, 52.72130030938237], [6.234576756447163, 52.740601251102284], [6.231439268330571, 52.74170906195764], [6.236638430249742, 52.74390367223537], [6.241555448248982, 52.75065336056594], [6.247412182741562, 52.754136122470506], [6.252027843721278, 52.75831091299128], [6.254671200131684, 52.757597426005134], [6.259614523123711, 52.757958286603056], [6.261747364023317, 52.75760480360622], [6.268555953095357, 52.75840624945755], [6.281479720940021, 52.762922124041104], [6.29749226779302, 52.76609034908057], [6.29904908780374, 52.76683700143596], [6.298509918823414, 52.76794209642116], [6.299181099016887, 52.76859425475828], [6.293037172748585, 52.77847205967734], [6.295624854836936, 52.78078701856121], [6.297054685104743, 52.78092871014157], [6.29838046670808, 52.782016083657155], [6.297490878013707, 52.78256010110779], [6.300567882639856, 52.785859193765724], [6.299530578529667, 52.78706526633621], [6.300784111202661, 52.78730450866437], [6.300541801373724, 52.78772808991717], [6.302184258050723, 52.78849615310209], [6.3026091842866645, 52.78952390892508], [6.301207294994155, 52.790973813802886], [6.305299199261491, 52.791550775754864], [6.306924592444215, 52.79387120060259], [6.3094008849547425, 52.79532180041538], [6.320847327545386, 52.79538873557103], [6.34068067686421, 52.79897809618674], [6.345919036044859, 52.798947229499205], [6.346244485864983, 52.79894545872387], [6.353658028872167, 52.79891191251622], [6.354596352188062, 52.795198749353595], [6.3524794438497105, 52.794535128073996], [6.350439215082277, 52.791839734181245], [6.342956629893761, 52.789692970350444], [6.345803081901292, 52.78841844707661]]]]}, "properties": {"type": "boundary", "gemeente": "De Wolden"}}, {"type": "Feature", "geometry": {"type": "MultiPolygon", "coordinates": [[[[6.49438859709783, 53.19820269622662], [6.496428525026207, 53.198138206107174], [6.506845473865456, 53.200145846231656], [6.508992255591982, 53.19912151837111], [6.50981619572752, 53.19901052809686], [6.509774912410744, 53.198780205965804], [6.513336793652943, 53.19697438911352], [6.513386727528072, 53.196937863649225], [6.512010118646688, 53.196218557996204], [6.513975828697439, 53.194028925968574], [6.517114984903622, 53.18885125121731], [6.51839432860208, 53.187346170752804], [6.521384244892666, 53.18576324246781], [6.523744779693076, 53.18272107157034], [6.526603752431019, 53.177437048589425], [6.534083082963129, 53.170468332222576], [6.536723505590337, 53.164426880138514], [6.536457761301267, 53.16273442715396], [6.53412657906468, 53.1609341361056], [6.537790569920017, 53.15831489248607], [6.534170541214789, 53.1514394844018], [6.537194240761868, 53.14865760424222], [6.538324855444074, 53.14552357771002], [6.536815793773499, 53.14221035477372], [6.540084380164734, 53.13877123363683], [6.539120994624653, 53.132557402592475], [6.533768265401309, 53.132697218213444], [6.5177470261345825, 53.1314301558958], [6.515078930922315, 53.13118570261838], [6.510930482868355, 53.13069391815767], [6.512502251118641, 53.12560532660739], [6.504979183275437, 53.12234422502942], [6.500894576861622, 53.120577658826036], [6.498425879415402, 53.123360222261454], [6.480300185256977, 53.1207875177264], [6.481327391284275, 53.11846389374375], [6.484300722450583, 53.11164540509955], [6.484870884655042, 53.10610201242175], [6.490834488625329, 53.096800225393956], [6.502547361892418, 53.08487270599488], [6.503347090879706, 53.0834227224893], [6.504010315006485, 53.08338240460258], [6.512089468544957, 53.07383810394329], [6.513356847676444, 53.07228120754863], [6.514465816753603, 53.06507405598553], [6.511649372011072, 53.05625233861363], [6.505130572092655, 53.04635575161881], [6.50038126858342, 53.03907286608021], [6.4999515010984386, 53.03843130675231], [6.502894021106912, 53.03221382544699], [6.495528314190211, 53.03089871888022], [6.50387359896408, 53.016042638250816], [6.509979144216365, 53.01704050085308], [6.513036818711832, 53.01055774098959], [6.505121058468843, 53.009918163870424], [6.488212588342436, 53.00540631426749], [6.466056019872079, 52.99951871946714], [6.413664524695352, 52.98562716247483], [6.413280432457869, 52.98552372683551], [6.402687097939611, 52.99565412684145], [6.374072622012038, 53.02295706123751], [6.362522063818644, 53.03396970968596], [6.3632195333382375, 53.039263136584054], [6.364924712307817, 53.05197857328929], [6.367811334483936, 53.06736068828517], [6.351725393190533, 53.070932152657036], [6.332382318730613, 53.07520777085476], [6.332056123693412, 53.075279961784034], [6.305274426098964, 53.081190075833206], [6.315158233452568, 53.09405334802602], [6.337796756527848, 53.08868945597194], [6.341000124573853, 53.08794520417405], [6.344443744927639, 53.08715119575393], [6.356621487154955, 53.107085180802024], [6.363560903325137, 53.10756092425267], [6.36535504167218, 53.11952795488653], [6.365627939955013, 53.12129047537818], [6.366052936511163, 53.1225590224949], [6.381473562563491, 53.147738517669126], [6.3826132482625795, 53.149571148701995], [6.381547307954181, 53.149593331457204], [6.381564978433851, 53.15318651155951], [6.381471920362598, 53.1534366707493], [6.388729487274591, 53.158015420394456], [6.391129058633929, 53.159419402485945], [6.395094629893796, 53.16352936422744], [6.397615208974488, 53.16451336397423], [6.3985953653499275, 53.164862749074935], [6.402688144828202, 53.167006305784234], [6.404138781386626, 53.168573020498435], [6.40412157183769, 53.172955635438065], [6.405470391948572, 53.17628362190907], [6.405594136043176, 53.17647548748405], [6.40797113137784, 53.17814905015009], [6.424488367083266, 53.18167865375225], [6.438018727978962, 53.18565217931307], [6.442867600182718, 53.18774106994653], [6.445662756156741, 53.191016129312146], [6.44771288899805, 53.196441213439044], [6.4499487270905975, 53.19669733919519], [6.463462234309131, 53.20005888595551], [6.481512645134791, 53.20355413366165], [6.485717639965302, 53.2038219685823], [6.492726424728416, 53.200737124303394], [6.492940170969099, 53.19931749354261], [6.4935056871647925, 53.1984977797291], [6.49438859709783, 53.19820269622662]]]]}, "properties": {"type": "boundary", "gemeente": "Noordenveld"}}, {"type": "Feature", "geometry": {"type": "MultiPolygon", "coordinates": [[[[6.30298530364369, 52.92497269727977], [6.333280630513804, 52.90635648304356], [6.369026391377153, 52.92197617450071], [6.385550270008562, 52.91554793056103], [6.384172798390294, 52.91425072607931], [6.385590353246011, 52.913676811009694], [6.383439226412389, 52.9116511430753], [6.381288688482645, 52.91241085848762], [6.377917164006628, 52.90865826378276], [6.379398688909818, 52.90821781958804], [6.377723223284985, 52.906795392278326], [6.3765667544639815, 52.9071550130872], [6.370496143433945, 52.90322793609965], [6.369018213124706, 52.903684620097295], [6.368513257596381, 52.903176503622156], [6.367221169510719, 52.90339598124843], [6.359560362505925, 52.8945348675637], [6.373265681022399, 52.890274983631166], [6.366554341664868, 52.88166449065775], [6.368679831675991, 52.87704954668354], [6.372636205629682, 52.8759080093631], [6.372050628592214, 52.88125558422873], [6.376879082629981, 52.886208687191285], [6.378626721798101, 52.88697721490849], [6.381437816383359, 52.88956336791421], [6.383875252431746, 52.88912450065254], [6.419992867310378, 52.882322587610204], [6.4200959923712055, 52.882023623610344], [6.419639623042491, 52.881475446187174], [6.42226348117989, 52.88031457412174], [6.420205659380463, 52.877916201444854], [6.4276979920880235, 52.87253225909695], [6.429296699285785, 52.873115234441826], [6.429723798528132, 52.87181405639078], [6.430778754524103, 52.8718630266513], [6.431448420819051, 52.869946706056304], [6.432143545890039, 52.86776912520798], [6.431021413294235, 52.86765936404486], [6.434344899361058, 52.85699397329629], [6.429244880051783, 52.85647463092912], [6.430859169667338, 52.850442938168214], [6.435521188158299, 52.85114628506043], [6.441199582108109, 52.84991885428207], [6.451272937319381, 52.85001619758394], [6.460715718462736, 52.85306690553766], [6.463149902323342, 52.84889291403479], [6.461892511045187, 52.848476761228675], [6.462089091009847, 52.846558676995166], [6.461152643833438, 52.84510510647809], [6.462667002131995, 52.83867757902018], [6.476124795759031, 52.83816183744309], [6.480025839556057, 52.83694510122821], [6.47631383192396, 52.83280631719672], [6.467661772234257, 52.8218158077964], [6.464024451241532, 52.81813829223571], [6.46226667641931, 52.816492917592015], [6.461338496416966, 52.815346667654964], [6.460445677643747, 52.81616198261445], [6.459281692645618, 52.81520076697199], [6.459907599512471, 52.81386439221107], [6.458707000317433, 52.80875238305036], [6.455450486012238, 52.80055695357629], [6.449733837531553, 52.792763842357395], [6.446920075219903, 52.78588962185602], [6.436982123234298, 52.79199706790053], [6.436655358288611, 52.79146486230248], [6.433143599470343, 52.79076820649213], [6.429573027536011, 52.78870543522741], [6.43001136648906, 52.7871656865662], [6.432566141995205, 52.78646881294293], [6.431997388715129, 52.7845640842739], [6.428050493915452, 52.783710267157154], [6.427530123562707, 52.782501646165535], [6.4237623346558115, 52.78285410380329], [6.422601357232614, 52.78248617011557], [6.421601430680531, 52.78107839529516], [6.420440149376116, 52.780914080098924], [6.418922767179246, 52.781657069695655], [6.416653182683082, 52.78172954830296], [6.4163761276320885, 52.78638761799064], [6.412947562800354, 52.78831844901735], [6.4102934934638505, 52.78710992299954], [6.410238399683692, 52.78634569491286], [6.407305014413132, 52.78553276374915], [6.400575701853086, 52.780868944880005], [6.3940414596869, 52.777448750062945], [6.391527848705275, 52.77957400197942], [6.3898244448225325, 52.778959684782976], [6.387996322225304, 52.77934533659413], [6.387366963098977, 52.77903175078209], [6.386823617144687, 52.77995638322649], [6.377916249446668, 52.78520386870606], [6.3732126867819145, 52.78232302390798], [6.374561659884085, 52.781532155307254], [6.372067603301248, 52.780002180537096], [6.3706767443465315, 52.780769200119316], [6.369857077428503, 52.7802660233825], [6.368054237355604, 52.78135369788875], [6.36702715520676, 52.78108285112726], [6.363330133696252, 52.781969216311325], [6.360900143139382, 52.78323339471589], [6.35916741235873, 52.78281305289922], [6.3588735214295085, 52.781766587225526], [6.3559946307291515, 52.78033903406789], [6.355499331591438, 52.779516139512275], [6.353755584759885, 52.78204623997175], [6.3537339279979586, 52.78248927344428], [6.352283999485819, 52.78238769812953], [6.351245290312057, 52.78327119993405], [6.350079353938354, 52.78282641161771], [6.349477598396839, 52.783405309215084], [6.353345264025113, 52.78541068785282], [6.352081634752017, 52.7878414742872], [6.351029808954407, 52.78765028963449], [6.350463911242606, 52.78859062242759], [6.348220446761389, 52.78811459181062], [6.345803081901292, 52.78841844707661], [6.342956629893761, 52.789692970350444], [6.350439215082277, 52.791839734181245], [6.3524794438497105, 52.794535128073996], [6.354596352188062, 52.795198749353595], [6.353658028872167, 52.79891191251622], [6.346244485864983, 52.79894545872387], [6.345919036044859, 52.798947229499205], [6.34068067686421, 52.79897809618674], [6.320847327545386, 52.79538873557103], [6.3094008849547425, 52.79532180041538], [6.306924592444215, 52.79387120060259], [6.305299199261491, 52.791550775754864], [6.301207294994155, 52.790973813802886], [6.3026091842866645, 52.78952390892508], [6.302184258050723, 52.78849615310209], [6.300541801373724, 52.78772808991717], [6.300784111202661, 52.78730450866437], [6.299530578529667, 52.78706526633621], [6.300567882639856, 52.785859193765724], [6.297490878013707, 52.78256010110779], [6.29838046670808, 52.782016083657155], [6.297054685104743, 52.78092871014157], [6.295624854836936, 52.78078701856121], [6.293037172748585, 52.77847205967734], [6.299181099016887, 52.76859425475828], [6.298509918823414, 52.76794209642116], [6.29904908780374, 52.76683700143596], [6.29749226779302, 52.76609034908057], [6.281479720940021, 52.762922124041104], [6.268555953095357, 52.75840624945755], [6.261747364023317, 52.75760480360622], [6.259614523123711, 52.757958286603056], [6.254671200131684, 52.757597426005134], [6.252027843721278, 52.75831091299128], [6.247412182741562, 52.754136122470506], [6.241555448248982, 52.75065336056594], [6.236638430249742, 52.74390367223537], [6.231439268330571, 52.74170906195764], [6.220659496647689, 52.747911869510894], [6.218556387774543, 52.7483008374367], [6.201843642625756, 52.7293076846151], [6.195339902954192, 52.73956314959961], [6.19407452156616, 52.74159460023457], [6.187258360133356, 52.75275305595737], [6.1859627298173905, 52.75485974633835], [6.177593009834463, 52.76830290644885], [6.176926341874141, 52.768214037415284], [6.175671766907696, 52.76989352501065], [6.174446287690626, 52.772060477122196], [6.172906626288286, 52.77305466029699], [6.176584604473307, 52.77520012525135], [6.184810692181444, 52.78030485261043], [6.193808323195047, 52.78640301005184], [6.201731113734987, 52.79369621035667], [6.199103892889128, 52.79582840329971], [6.185121588859361, 52.80722421700009], [6.180458419664991, 52.81103436394093], [6.177230114463013, 52.81385120716943], [6.172419268275902, 52.815639224616326], [6.171408522189254, 52.81525565345703], [6.157644213924705, 52.82503575527048], [6.151715141479967, 52.82739940135422], [6.149896043412879, 52.82812413266438], [6.149199264159203, 52.82840267638697], [6.149564983960173, 52.828459225927226], [6.151962449617771, 52.82882992517351], [6.150289025597286, 52.829940566760484], [6.136794724468618, 52.838917396257195], [6.130451881482213, 52.84387290534873], [6.128694566506535, 52.84780773175159], [6.119820018827375, 52.85421535275536], [6.120994868029086, 52.854650158529125], [6.140512557433452, 52.86347842774466], [6.141219126937748, 52.86379996124877], [6.160459519017366, 52.87252101491462], [6.1906796633652394, 52.884479024287685], [6.200811846454757, 52.88837873597695], [6.206899896528552, 52.89074401106462], [6.228785162296463, 52.91030248237879], [6.232290926374278, 52.91343837517952], [6.242342900523981, 52.918345426068896], [6.244829482851697, 52.91958721352886], [6.247258589540507, 52.92334767545803], [6.247552847602391, 52.923691917356855], [6.256592989842881, 52.927641483165296], [6.28315523064023, 52.92614801815698], [6.30298530364369, 52.92497269727977]]]]}, "properties": {"type": "boundary", "gemeente": "Westerveld"}}, {"type": "Feature", "geometry": {"type": "MultiPolygon", "coordinates": [[[[6.540898485863889, 53.17988256374611], [6.54174448223578, 53.17861130509205], [6.542709427380188, 53.17867335783347], [6.546254268186633, 53.180279616420115], [6.548188858465265, 53.18109866165937], [6.548378146929502, 53.18088675291578], [6.548572705170669, 53.18067094751663], [6.55580990962214, 53.1732980996271], [6.559319888509965, 53.169342045247866], [6.560587792004677, 53.16612806117161], [6.562753664990634, 53.16041724656593], [6.563178285774568, 53.15868801193886], [6.5636878497123305, 53.15763944053759], [6.564742724307591, 53.157990734001594], [6.581497307080558, 53.16353183053226], [6.581099232201592, 53.162614357307525], [6.58345561200934, 53.15852859551918], [6.587089633216829, 53.15622709911915], [6.584642853014662, 53.15430631547688], [6.587386712176137, 53.14868435866867], [6.587794519900505, 53.14589291825551], [6.600456562603451, 53.144309963542305], [6.606521210415347, 53.13931500910659], [6.608180511246276, 53.13889573619011], [6.609181733359106, 53.13840477259762], [6.61062363264984, 53.13794486351004], [6.614400609127625, 53.13555811794116], [6.613641439603068, 53.13269543844716], [6.616568450644475, 53.13297377547746], [6.618977022720964, 53.13158201794835], [6.618978498178765, 53.129881237266154], [6.621320388855404, 53.12831025971559], [6.621763470878583, 53.12635186700276], [6.622834353378935, 53.12537413241773], [6.627335713589577, 53.12283438482019], [6.628648568062266, 53.11949420926099], [6.630575805788435, 53.11938646063296], [6.627937866272024, 53.117180265496984], [6.628067904403479, 53.11587576194035], [6.629830412610633, 53.11468449316409], [6.633862225238075, 53.11420427718082], [6.635781634167817, 53.113397440297746], [6.637102882561112, 53.1086498566891], [6.634836373068316, 53.10620322765331], [6.643502216714572, 53.10866351663295], [6.651909439456135, 53.11116074215661], [6.653648315676507, 53.11162596412074], [6.67492701632149, 53.117525988090556], [6.678771896791894, 53.11810944708719], [6.69461733484596, 53.121059114812425], [6.695366909605276, 53.12117730061497], [6.718724635190617, 53.12024920640205], [6.71983169267559, 53.120219847864064], [6.721380732656107, 53.120131652183815], [6.723256427455883, 53.12005372628274], [6.737450856034579, 53.11946305546941], [6.74239646894025, 53.116372021216996], [6.7432536653760735, 53.11656963170646], [6.743530314210965, 53.11593775792447], [6.744729839892225, 53.115249327795915], [6.776509298983489, 53.09476203341401], [6.765285279162052, 53.09149721990125], [6.763279492975888, 53.090916145204076], [6.761951797461566, 53.090545520353935], [6.757858813308782, 53.08940404098087], [6.746004880582575, 53.08583052358297], [6.745108227598525, 53.08469137659195], [6.7478765739929, 53.08352984302584], [6.749368166159203, 53.08363691334408], [6.750200553805616, 53.08178861318937], [6.748211029937823, 53.08123410994439], [6.727173755085461, 53.07322245048041], [6.726138594927506, 53.07366719131899], [6.715487430785174, 53.06943300217289], [6.713687323300107, 53.06869816730318], [6.711433101705559, 53.070114267595216], [6.7062993100101, 53.068081669928354], [6.705245087474551, 53.06766022027267], [6.699014833853946, 53.06517478797889], [6.69264287603482, 53.07018446533801], [6.687493365850153, 53.072228534379825], [6.67852070454426, 53.076825781980034], [6.670426501895337, 53.08010660453594], [6.669187633109682, 53.080346340527186], [6.661836265329089, 53.081986480764144], [6.657774333198844, 53.08403143531249], [6.648855226916548, 53.08218975547173], [6.649767847394737, 53.079568966380556], [6.653988712455678, 53.08009700730845], [6.654693106300558, 53.07825433225801], [6.659982582247034, 53.07442207643045], [6.662159880153956, 53.075030947093246], [6.661217341079175, 53.073189548341446], [6.663580247989009, 53.071335236404614], [6.666007965340977, 53.07215622317201], [6.6664112074447, 53.07200513990369], [6.664357953922705, 53.069148620814985], [6.670211943820803, 53.06711715993208], [6.669375760801635, 53.0656019535392], [6.671599261335843, 53.065018218849964], [6.669285893926138, 53.06322123760701], [6.6645261905257165, 53.06159107341235], [6.664199445897332, 53.05992800341152], [6.666936939049521, 53.0582367267443], [6.662142018673406, 53.05617948982477], [6.653787160338543, 53.055531748252925], [6.647898617868155, 53.05096739840748], [6.6468342941686105, 53.05044515318181], [6.646477615216343, 53.049125070799334], [6.643382968625321, 53.04699978479392], [6.64153295879735, 53.04319372622437], [6.6405558613745805, 53.04162971321619], [6.644771254417906, 53.03915253510866], [6.64801018636262, 53.028265232838955], [6.64859358581938, 53.026333661419464], [6.631221723915377, 53.02610636705623], [6.603549459334866, 53.03295754406841], [6.606489641864596, 53.03820383586866], [6.608087673325969, 53.048419325454844], [6.605170272070167, 53.056448442073226], [6.60371799207849, 53.05888033824261], [6.601235654447789, 53.06175868078969], [6.600456178349609, 53.06102124255213], [6.588077542256303, 53.05800033589828], [6.586811776842107, 53.05953897007873], [6.575804438053149, 53.05918863409353], [6.575201871441537, 53.055068773709785], [6.575057802150442, 53.054640466271046], [6.570399616706926, 53.05488823931382], [6.5699369887702845, 53.05712277698631], [6.569720806131474, 53.059862797780184], [6.555213620251848, 53.0586090837981], [6.556076500539179, 53.05572750622842], [6.552730596111527, 53.0551477058873], [6.553956132392997, 53.0527287097844], [6.551490826773236, 53.05036644129285], [6.550024830777146, 53.04647330005979], [6.552516572579758, 53.043496488814036], [6.5523163272607645, 53.042576632147245], [6.551489363793978, 53.04025346798221], [6.550770303580944, 53.03815648955153], [6.549277394482763, 53.03834645007123], [6.547307195098167, 53.03506802569138], [6.5412707838782165, 53.035660638898904], [6.541743499809263, 53.037178740228995], [6.533683699322674, 53.03815730351616], [6.533893033484279, 53.038932747431325], [6.530194263289598, 53.04011053570049], [6.530852704833615, 53.0411865075847], [6.529107949129851, 53.04338622039138], [6.5242840013012575, 53.04595003611209], [6.51092416038213, 53.04445454830092], [6.505130572092655, 53.04635575161881], [6.511649372011072, 53.05625233861363], [6.514465816753603, 53.06507405598553], [6.513356847676444, 53.07228120754863], [6.512089468544957, 53.07383810394329], [6.504010315006485, 53.08338240460258], [6.503347090879706, 53.0834227224893], [6.502547361892418, 53.08487270599488], [6.490834488625329, 53.096800225393956], [6.484870884655042, 53.10610201242175], [6.484300722450583, 53.11164540509955], [6.481327391284275, 53.11846389374375], [6.480300185256977, 53.1207875177264], [6.498425879415402, 53.123360222261454], [6.500894576861622, 53.120577658826036], [6.504979183275437, 53.12234422502942], [6.512502251118641, 53.12560532660739], [6.510930482868355, 53.13069391815767], [6.515078930922315, 53.13118570261838], [6.5177470261345825, 53.1314301558958], [6.533768265401309, 53.132697218213444], [6.539120994624653, 53.132557402592475], [6.540084380164734, 53.13877123363683], [6.536815793773499, 53.14221035477372], [6.538324855444074, 53.14552357771002], [6.537194240761868, 53.14865760424222], [6.534170541214789, 53.1514394844018], [6.537790569920017, 53.15831489248607], [6.53412657906468, 53.1609341361056], [6.536457761301267, 53.16273442715396], [6.536723505590337, 53.164426880138514], [6.534083082963129, 53.170468332222576], [6.526603752431019, 53.177437048589425], [6.523744779693076, 53.18272107157034], [6.521384244892666, 53.18576324246781], [6.51839432860208, 53.187346170752804], [6.517114984903622, 53.18885125121731], [6.513975828697439, 53.194028925968574], [6.512010118646688, 53.196218557996204], [6.513386727528072, 53.196937863649225], [6.51571593856529, 53.19830900166478], [6.526709743161538, 53.195852822644234], [6.530492671004597, 53.19556019770829], [6.529529617903541, 53.195195841213184], [6.530399505559668, 53.19285744275977], [6.534218364103617, 53.184064531684356], [6.534616482654466, 53.18379090869556], [6.537454214576773, 53.182645909098554], [6.539536789411303, 53.181310371397764], [6.540898485863889, 53.17988256374611]]]]}, "properties": {"type": "boundary", "gemeente": "Tynaarlo"}}, {"type": "Feature", "geometry": {"type": "MultiPolygon", "coordinates": [[[[6.4916930665086445, 52.99558795756371], [6.49258648888026, 52.9930598677367], [6.49806135233989, 52.99378200487259], [6.493702595598674, 52.992337940936714], [6.494573087568153, 52.991959711901366], [6.4990049227722295, 52.99021683277213], [6.494233942201084, 52.985856868519136], [6.49391383642361, 52.98426660566829], [6.496595723142083, 52.983240402772175], [6.490489498999058, 52.97759754189327], [6.485502521714169, 52.972985618886135], [6.48688337663207, 52.972443139033764], [6.495743650806832, 52.96899151883572], [6.487558499259228, 52.96120589452857], [6.49383175007763, 52.9587482696258], [6.489194180264896, 52.954457949455616], [6.483947974072176, 52.950173967569185], [6.486492279459414, 52.94918240262895], [6.489538223561292, 52.94805943814617], [6.490587625587867, 52.94901343325083], [6.4931283852490775, 52.9479968101891], [6.496972035639373, 52.95156703093274], [6.508827016139956, 52.94698561031859], [6.519577422642486, 52.94295669103215], [6.517622319345121, 52.9397639156369], [6.530772462848136, 52.93462687050801], [6.534602943615769, 52.93251576524226], [6.535914756208624, 52.93259150823896], [6.5392790667048635, 52.94589128043251], [6.542997693353846, 52.95533925346886], [6.555331212770613, 52.94954780986762], [6.561504898413825, 52.946653126484044], [6.565071373454908, 52.944981772661556], [6.585814263924623, 52.919468919734626], [6.614877413383417, 52.918312348609014], [6.625570548396961, 52.91280651945005], [6.6417055177479005, 52.91200157456073], [6.66673373373223, 52.909450240480126], [6.674985637485372, 52.905018052436596], [6.686498849951864, 52.87529987942111], [6.71456392008084, 52.86815951417961], [6.72186080769065, 52.86631800404534], [6.719858152694271, 52.86148956836103], [6.725984667440173, 52.85729378431335], [6.728379886212545, 52.853824357464035], [6.719672607347174, 52.8488303831799], [6.704053233068323, 52.84697850758895], [6.706346940876455, 52.842429246999714], [6.707598268849014, 52.83639284463992], [6.696025400516124, 52.82661616001793], [6.693987477119923, 52.827804766268564], [6.691058984165084, 52.82601977240791], [6.690210793107819, 52.82267254190583], [6.693487508485532, 52.81545937679814], [6.6923983995101395, 52.81075300397299], [6.691604366552843, 52.80977968355295], [6.69015536995837, 52.81012344891935], [6.68118341368519, 52.807732747964884], [6.679036849078133, 52.80277609075357], [6.675772622334732, 52.800270666286316], [6.678029145126015, 52.79910767978737], [6.675114192618672, 52.79713632340089], [6.667748046854759, 52.79970273733558], [6.660879665181666, 52.80123314893173], [6.643253465355896, 52.786247729345874], [6.638956565365589, 52.78256049559798], [6.616262430701586, 52.763010378175686], [6.608161005640594, 52.755331680763845], [6.587468112292764, 52.73569003412635], [6.575865887476829, 52.73981245195847], [6.5740368499760935, 52.740523549137194], [6.5732200919998345, 52.73985798915385], [6.5707801063491456, 52.740793327587035], [6.5596615964894225, 52.74506558907567], [6.55757806733868, 52.745350322808115], [6.562430198726386, 52.75669477422574], [6.566277700908873, 52.765577230749], [6.537521198528798, 52.76523458849801], [6.535367636339416, 52.768104680195634], [6.512792868240247, 52.762100936723016], [6.5079044891821045, 52.76884759775827], [6.505539244141421, 52.76807475427983], [6.503364850666768, 52.76934651013285], [6.490847960302805, 52.77088374640035], [6.496164144293388, 52.78622509349159], [6.491804904714828, 52.79312376091915], [6.478490632718523, 52.79584826147488], [6.455450486012238, 52.80055695357629], [6.458707000317433, 52.80875238305036], [6.459907599512471, 52.81386439221107], [6.459281692645618, 52.81520076697199], [6.460445677643747, 52.81616198261445], [6.461338496416966, 52.815346667654964], [6.46226667641931, 52.816492917592015], [6.464024451241532, 52.81813829223571], [6.467661772234257, 52.8218158077964], [6.47631383192396, 52.83280631719672], [6.480025839556057, 52.83694510122821], [6.476124795759031, 52.83816183744309], [6.462667002131995, 52.83867757902018], [6.461152643833438, 52.84510510647809], [6.462089091009847, 52.846558676995166], [6.461892511045187, 52.848476761228675], [6.463149902323342, 52.84889291403479], [6.460715718462736, 52.85306690553766], [6.451272937319381, 52.85001619758394], [6.441199582108109, 52.84991885428207], [6.435521188158299, 52.85114628506043], [6.430859169667338, 52.850442938168214], [6.429244880051783, 52.85647463092912], [6.434344899361058, 52.85699397329629], [6.431021413294235, 52.86765936404486], [6.432143545890039, 52.86776912520798], [6.431448420819051, 52.869946706056304], [6.430778754524103, 52.8718630266513], [6.429723798528132, 52.87181405639078], [6.429296699285785, 52.873115234441826], [6.4276979920880235, 52.87253225909695], [6.420205659380463, 52.877916201444854], [6.42226348117989, 52.88031457412174], [6.419639623042491, 52.881475446187174], [6.4200959923712055, 52.882023623610344], [6.419992867310378, 52.882322587610204], [6.383875252431746, 52.88912450065254], [6.381437816383359, 52.88956336791421], [6.378626721798101, 52.88697721490849], [6.376879082629981, 52.886208687191285], [6.372050628592214, 52.88125558422873], [6.372636205629682, 52.8759080093631], [6.368679831675991, 52.87704954668354], [6.366554341664868, 52.88166449065775], [6.373265681022399, 52.890274983631166], [6.359560362505925, 52.8945348675637], [6.367221169510719, 52.90339598124843], [6.368513257596381, 52.903176503622156], [6.369018213124706, 52.903684620097295], [6.370496143433945, 52.90322793609965], [6.3765667544639815, 52.9071550130872], [6.377723223284985, 52.906795392278326], [6.379398688909818, 52.90821781958804], [6.377917164006628, 52.90865826378276], [6.381288688482645, 52.91241085848762], [6.383439226412389, 52.9116511430753], [6.385590353246011, 52.913676811009694], [6.384172798390294, 52.91425072607931], [6.385550270008562, 52.91554793056103], [6.369026391377153, 52.92197617450071], [6.393436054910188, 52.93284407928918], [6.402671508200331, 52.943382484226724], [6.427615228741273, 52.97181621141781], [6.42262350324384, 52.97659393975941], [6.413280432457869, 52.98552372683551], [6.413664524695352, 52.98562716247483], [6.466056019872079, 52.99951871946714], [6.488212588342436, 53.00540631426749], [6.4916930665086445, 52.99558795756371]]]]}, "properties": {"type": "boundary", "gemeente": "Midden-Drenthe"}}]}