{"type": "FeatureCollection", "features": [{"type": "Feature", "geometry": {"type": "MultiPolygon", "coordinates": [[[[6.740467635736455, 53.3121802718137], [6.742682192328505, 53.311020543798655], [6.74289621527794, 53.311357532601434], [6.743677991837999, 53.31110007144327], [6.744219104019649, 53.3119193701701], [6.747051487882813, 53.3114910495131], [6.747310989180465, 53.31192881566848], [6.74794894306729, 53.31178184579897], [6.7493514189347446, 53.30984386126324], [6.74479279444471, 53.307754435047286], [6.748048877116216, 53.30296973403078], [6.753082046153033, 53.298847891094844], [6.755539154326389, 53.29963455570275], [6.7606842379062915, 53.29523701672299], [6.764621062423023, 53.29813519714806], [6.772226091781233, 53.29191854833682], [6.769794859900997, 53.290681252597814], [6.772309892058564, 53.28779349827268], [6.769137334649658, 53.28662638187211], [6.772527218458176, 53.28308745151818], [6.751137068307856, 53.275400454959296], [6.732292446218477, 53.26920947778727], [6.717658349704781, 53.263168596866976], [6.707516599446622, 53.2594313917069], [6.69833114567081, 53.256145876205956], [6.70373386356655, 53.253782645026334], [6.703538169381718, 53.25194301310735], [6.709811393428062, 53.24843227334162], [6.714508218281016, 53.24561186976997], [6.7127213354816835, 53.24462081570051], [6.7176862849476064, 53.24187346884607], [6.712009358741862, 53.23845839003315], [6.708830317841109, 53.235437471051156], [6.708852327360432, 53.235297669135875], [6.7088711291497996, 53.23517825040409], [6.708453605338937, 53.23490969227951], [6.707089347405327, 53.23429697319], [6.709013207191385, 53.233118887026876], [6.708805058476193, 53.231856773258336], [6.707304258316089, 53.23107088501398], [6.705672745615855, 53.2282573692771], [6.707632154232533, 53.22710549607408], [6.707204056641448, 53.226863951821244], [6.708203484432316, 53.2262023156091], [6.707049902690213, 53.225600276880265], [6.705760473312344, 53.22501264378186], [6.706367766349277, 53.22453146984353], [6.70512405806349, 53.22370749348942], [6.702759696787997, 53.22113712829999], [6.701167437037915, 53.21940593668873], [6.698548785916602, 53.217807355303144], [6.698790240139159, 53.21730811891634], [6.6975159742500345, 53.21696671552574], [6.698245673661615, 53.21466859139885], [6.69330908380119, 53.2142531820063], [6.6933616818817345, 53.2129966485543], [6.690771253742944, 53.21316214119551], [6.690489860796587, 53.21246883088868], [6.6882327174209335, 53.21263514068637], [6.688190517629784, 53.212181130631926], [6.682848120273113, 53.211300246069996], [6.682658529992824, 53.212060479367594], [6.6804734288236585, 53.21169287358864], [6.680081660390367, 53.21003117042335], [6.679638859343335, 53.20940261498139], [6.679762493642754, 53.20832348021743], [6.6824846876315895, 53.20848848514218], [6.684013440307053, 53.2021481787783], [6.683023309776671, 53.2009875425816], [6.67359728915699, 53.200651878893], [6.6668730688373445, 53.202021586813466], [6.66215623974968, 53.1998164817871], [6.650179519632388, 53.193411677461064], [6.642611775481888, 53.191883632277765], [6.640198106061264, 53.190518867196424], [6.639813438496083, 53.19029786179766], [6.6468215887159445, 53.18793864144288], [6.644813635947161, 53.18738343349231], [6.643993303112582, 53.18736700714151], [6.639468373021678, 53.18598204004903], [6.647251477109892, 53.183783258781745], [6.6572411588589775, 53.18077062819258], [6.657241406854595, 53.18077036225751], [6.657635982717413, 53.180354616171975], [6.660273708705696, 53.176592302103835], [6.661164838685307, 53.1733257037568], [6.661625730949057, 53.17198058618231], [6.663259361181158, 53.17058448127912], [6.665368128532375, 53.16944197771506], [6.669676623167826, 53.16903045589679], [6.671684107730322, 53.166908170600635], [6.678178643501596, 53.1648074868661], [6.679705785470092, 53.163330066176655], [6.68871429105228, 53.15461241804378], [6.690269619835926, 53.15115629220205], [6.690215576520271, 53.150394504780095], [6.686986545743881, 53.14896666353361], [6.686274713558202, 53.14784887699977], [6.6890527749417625, 53.14466571797856], [6.695366909605276, 53.12117730061497], [6.69461733484596, 53.121059114812425], [6.678771896791894, 53.11810944708719], [6.67492701632149, 53.117525988090556], [6.653648315676507, 53.11162596412074], [6.651909439456135, 53.11116074215661], [6.643502216714572, 53.10866351663295], [6.634836373068316, 53.10620322765331], [6.637102882561112, 53.1086498566891], [6.635781634167817, 53.113397440297746], [6.633862225238075, 53.11420427718082], [6.629830412610633, 53.11468449316409], [6.628067904403479, 53.11587576194035], [6.627937866272024, 53.117180265496984], [6.630575805788435, 53.11938646063296], [6.628648568062266, 53.11949420926099], [6.627335713589577, 53.12283438482019], [6.622834353378935, 53.12537413241773], [6.621763470878583, 53.12635186700276], [6.621320388855404, 53.12831025971559], [6.618978498178765, 53.129881237266154], [6.618977022720964, 53.13158201794835], [6.616568450644475, 53.13297377547746], [6.613641439603068, 53.13269543844716], [6.614400609127625, 53.13555811794116], [6.61062363264984, 53.13794486351004], [6.609181733359106, 53.13840477259762], [6.608180511246276, 53.13889573619011], [6.606521210415347, 53.13931500910659], [6.600456562603451, 53.144309963542305], [6.587794519900505, 53.14589291825551], [6.587386712176137, 53.14868435866867], [6.584642853014662, 53.15430631547688], [6.587089633216829, 53.15622709911915], [6.58345561200934, 53.15852859551918], [6.581099232201592, 53.162614357307525], [6.581497307080558, 53.16353183053226], [6.564742724307591, 53.157990734001594], [6.5636878497123305, 53.15763944053759], [6.563178285774568, 53.15868801193886], [6.562753664990634, 53.16041724656593], [6.560587792004677, 53.16612806117161], [6.559319888509965, 53.169342045247866], [6.55580990962214, 53.1732980996271], [6.548572705170669, 53.18067094751663], [6.548378146929502, 53.18088675291578], [6.548188858465265, 53.18109866165937], [6.546254268186633, 53.180279616420115], [6.542709427380188, 53.17867335783347], [6.54174448223578, 53.17861130509205], [6.540898485863889, 53.17988256374611], [6.539536789411303, 53.181310371397764], [6.537454214576773, 53.182645909098554], [6.534616482654466, 53.18379090869556], [6.534218364103617, 53.184064531684356], [6.530399505559668, 53.19285744275977], [6.529529617903541, 53.195195841213184], [6.530492671004597, 53.19556019770829], [6.526709743161538, 53.195852822644234], [6.51571593856529, 53.19830900166478], [6.513386727528072, 53.196937863649225], [6.513336793652943, 53.19697438911352], [6.509774912410744, 53.198780205965804], [6.50981619572752, 53.19901052809686], [6.508992255591982, 53.19912151837111], [6.506845473865456, 53.200145846231656], [6.496428525026207, 53.198138206107174], [6.49438859709783, 53.19820269622662], [6.4935056871647925, 53.1984977797291], [6.492940170969099, 53.19931749354261], [6.492726424728416, 53.200737124303394], [6.485717639965302, 53.2038219685823], [6.481512645134791, 53.20355413366165], [6.463462234309131, 53.20005888595551], [6.462746433131936, 53.201979431606624], [6.466383632158853, 53.204193934017596], [6.46700443756661, 53.206171022748606], [6.464679930586283, 53.20746005424276], [6.464474438651224, 53.207614944675896], [6.46976878110098, 53.22046921443819], [6.476655841038315, 53.23650285989894], [6.48047559617929, 53.24550596755396], [6.48092175423542, 53.25018572180954], [6.488602691611796, 53.24901681625786], [6.488726531912494, 53.24723186981218], [6.490428525669821, 53.2473214016292], [6.4924367869114725, 53.246675181248115], [6.491986502435368, 53.245555193999415], [6.495847685658994, 53.24582353821729], [6.497041201321506, 53.24676698631551], [6.502152463430739, 53.24770684123314], [6.511443545737182, 53.254114740630264], [6.508003596157811, 53.25621509771011], [6.508247373195637, 53.25727433516144], [6.508241496625399, 53.25757451592504], [6.51082642224592, 53.256788329163236], [6.518092401529601, 53.25833164796902], [6.523170321346145, 53.25724223863521], [6.529684674594823, 53.258241297488894], [6.536583780182916, 53.260027213203855], [6.539309269053908, 53.2603603073876], [6.538471969562795, 53.26262470531974], [6.53792743045738, 53.264097227108586], [6.540967841634878, 53.2636241757482], [6.550264410045861, 53.264947470897795], [6.550335320300319, 53.26490999320982], [6.549553139776894, 53.264409586469064], [6.551388409792116, 53.26237563273906], [6.552398250863533, 53.262179226109986], [6.5539458093814025, 53.26212658044305], [6.566602438987358, 53.26360800234091], [6.567231342242834, 53.26149474291898], [6.585753545065128, 53.26154059459456], [6.585779975238334, 53.26249222375648], [6.588535173845807, 53.26254881126559], [6.5873633786285835, 53.260261022120126], [6.586344967427933, 53.25587560576123], [6.587127767877212, 53.25571444320135], [6.590737726310337, 53.255323245662424], [6.606352377864861, 53.253741721681614], [6.60640829376966, 53.251417482321735], [6.618346834890078, 53.25148685521941], [6.6192979709619735, 53.24944883714113], [6.635044426300231, 53.251285697610086], [6.636046479706459, 53.25143537120498], [6.635679119868092, 53.254095334618285], [6.63345295793806, 53.25976123479133], [6.625874135494395, 53.26614037827127], [6.632778553593929, 53.27621272965961], [6.642769700558697, 53.290934232789574], [6.649289676898046, 53.302281633507576], [6.654054748203513, 53.308645244882534], [6.654782693084403, 53.30842361362709], [6.655768050518643, 53.30811792524424], [6.655938068468678, 53.30833051489897], [6.656754241247626, 53.30806372260489], [6.656650339233073, 53.30793264172328], [6.657046685712136, 53.307746386864835], [6.660767313731711, 53.306693460734714], [6.6771736301530265, 53.303741468624025], [6.689736595952839, 53.29754030143941], [6.705317101546283, 53.30752583539911], [6.7066188527871535, 53.307038350320894], [6.709004909004016, 53.31011930146899], [6.712717649050213, 53.309325191212416], [6.721614963825969, 53.306430366800036], [6.724351758105439, 53.305539714141425], [6.72944947036395, 53.30535467617563], [6.732901518616921, 53.311409569133964], [6.737608006047433, 53.312795519454085], [6.740467635736455, 53.3121802718137]]]]}, "properties": {"type": "boundary", "gemeente": "Groningen"}}, {"type": "Feature", "geometry": {"type": "MultiPolygon", "coordinates": [[[[7.010133495824994, 53.0737031930766], [7.013333190834109, 53.06944197616339], [7.01544602208908, 53.07177561076097], [7.01910091424298, 53.0714684496745], [7.029533104675229, 53.0666504265446], [7.032379224784671, 53.066777018663146], [7.033648350324498, 53.06474929007243], [7.0371989392477685, 53.06483275638596], [7.060163875234011, 53.06580967553851], [7.064653759416828, 53.06695153949864], [7.065947111305841, 53.0672804224415], [7.070466389664408, 53.066194307679645], [7.076880890331255, 53.06369207070018], [7.080095900720457, 53.06144365582381], [7.080163414089169, 53.05917446101916], [7.076640713726209, 53.05118545809626], [7.074541677383652, 53.049948283161406], [7.071996732461072, 53.05073609422322], [7.068329048079229, 53.050785617971066], [7.067056068724167, 53.0476921476308], [7.068048622899875, 53.043509746844094], [7.0701089597331235, 53.042772361061914], [7.071725820905206, 53.0436045535928], [7.081655731285135, 53.04446591330329], [7.086119998506321, 53.04234834023141], [7.086677061815013, 53.0404903074144], [7.084264080027489, 53.039505336064614], [7.082638534466541, 53.03351676276202], [7.080378529339205, 53.029750915198804], [7.082750029248033, 53.02549908756484], [7.0884483539150205, 53.02634308945398], [7.091960203349806, 53.022847593529946], [7.095787000947731, 53.02120037477711], [7.097959451829574, 53.021223956410125], [7.10001422296613, 53.01644593147529], [7.095673615690287, 53.014501776091], [7.092201364559882, 53.0129429885949], [7.072058979812777, 53.003787992368366], [7.071119170031621, 52.98309401888902], [7.069936924365476, 52.95319006348172], [7.067342808891105, 52.95211242432052], [7.064676298187709, 52.95118555408139], [7.064654580989881, 52.950774853762866], [7.063426679897432, 52.93097129996738], [7.036300462812383, 52.92926673631991], [7.031887923899694, 52.92530648086506], [7.0278322020648405, 52.92164699482419], [7.026854978606308, 52.919037709059346], [7.024671319845456, 52.919870694614], [7.015698322504382, 52.92481636558091], [7.009559305727879, 52.93009387937431], [7.00289989102138, 52.93581559625597], [6.995024367915705, 52.94258862092007], [6.98788120071693, 52.94872405434438], [6.986023032211245, 52.95031978330294], [6.979861504274431, 52.95560511797533], [6.9785640866158625, 52.95671774509058], [6.9703628622224, 52.96376162514803], [6.970353153147551, 52.96376996240387], [6.969586771251071, 52.96442817212047], [6.963292727312729, 52.96982194438409], [6.956721233182277, 52.9754743439248], [6.956650799877807, 52.97553492095775], [6.948411723067373, 52.982619004913175], [6.942927478521714, 52.987332930458784], [6.938412010483993, 52.99121315544912], [6.936610775036089, 52.99276075960258], [6.935684966534082, 52.99335373386863], [6.9346800818764835, 52.993997296880025], [6.922171347789762, 53.002005913382], [6.907184493389342, 53.01159555005793], [6.907130549812827, 53.01163006860136], [6.904620035481058, 53.013235844961244], [6.897088020101563, 53.01805252626273], [6.861287460073301, 53.040875422189956], [6.8651036158272545, 53.042809298237], [6.865494712874242, 53.04289816926459], [6.8686413048632105, 53.04128557492243], [6.88144341952585, 53.04662025969515], [6.898931090341828, 53.03240787669626], [6.90333410315902, 53.034366472776796], [6.901891466845805, 53.035544999579706], [6.907702777935209, 53.03888239720386], [6.911911055344742, 53.03471267032174], [6.935854072437617, 53.019624250909686], [6.941663037205843, 53.01742057461207], [6.954000182330446, 53.014329858476366], [6.9546543363629505, 53.01414647478624], [6.9557902489655, 53.013861939456234], [6.980388109347338, 53.04091016121548], [6.98782869340038, 53.049077789527686], [6.99036302637475, 53.05438325911951], [6.992910333287162, 53.05509752521433], [6.994929083081095, 53.056843945350074], [7.000809929787825, 53.06330807883325], [7.010133495824994, 53.0737031930766]]]]}, "properties": {"type": "boundary", "gemeente": "Stadskanaal"}}, {"type": "Feature", "geometry": {"type": "MultiPolygon", "coordinates": [[[[6.899626888955834, 53.128074960502126], [6.93480104034172, 53.124144089879536], [6.949835224641803, 53.12117048091778], [6.959338615123378, 53.12017758736364], [6.961734843129522, 53.11002298080532], [6.9607845159589345, 53.09743187912792], [6.960597858038041, 53.095802988290885], [6.959381835956197, 53.09493835989873], [6.958397008612068, 53.09526832959431], [6.957951279428861, 53.09435649735943], [6.956890616924708, 53.094712297033574], [6.955409293386265, 53.09327250800744], [6.943836279419159, 53.081915762036104], [6.936892980176979, 53.07742345191492], [6.930594428647775, 53.072853173360755], [6.929605938224859, 53.07336559013521], [6.929094211483558, 53.07183063306282], [6.9244404865436815, 53.05777895679994], [6.933021928635457, 53.053589264833036], [6.933343582005478, 53.0496142571158], [6.919904963603898, 53.04931363714447], [6.920629187696326, 53.04525654030479], [6.905525020283522, 53.043630955115255], [6.907702777935209, 53.03888239720386], [6.901891466845805, 53.035544999579706], [6.90333410315902, 53.034366472776796], [6.898931090341828, 53.03240787669626], [6.88144341952585, 53.04662025969515], [6.8686413048632105, 53.04128557492243], [6.865494712874242, 53.04289816926459], [6.8651036158272545, 53.042809298237], [6.861287460073301, 53.040875422189956], [6.843273040744577, 53.05234563601797], [6.837170412513124, 53.0562298574047], [6.814535520075231, 53.07059947140025], [6.813944731272581, 53.07097299596927], [6.808450435272663, 53.0922809947347], [6.806959564396225, 53.09825662139799], [6.801673760148222, 53.119173045982905], [6.805987896702013, 53.12032731683498], [6.803239328146252, 53.124091041813266], [6.815805706992542, 53.12742371399649], [6.821168793194304, 53.12883304126806], [6.823100884600326, 53.12622038839933], [6.851541894512695, 53.12502254983521], [6.86515870059221, 53.124422596816736], [6.865928621942103, 53.12438872415307], [6.865957705029075, 53.12392953743339], [6.874123541495135, 53.1235487516895], [6.87429251690316, 53.12536988116542], [6.878618886868831, 53.125150168829904], [6.878939185791076, 53.1258232266573], [6.880016996238184, 53.12564906959266], [6.882814638939142, 53.12519689117078], [6.8830265725678315, 53.12581870767083], [6.88426839073149, 53.12561783030385], [6.885047105425775, 53.127427103674194], [6.886253172857273, 53.12860095650455], [6.894717328562459, 53.12785524911039], [6.897099350065932, 53.127579582385955], [6.897039412226348, 53.12849567023547], [6.898942947136067, 53.12816478445263], [6.899626888955834, 53.128074960502126]]]]}, "properties": {"type": "boundary", "gemeente": "Veendam"}}, {"type": "Feature", "geometry": {"type": "MultiPolygon", "coordinates": [[[[6.983780994937254, 53.1176527043976], [6.987361126059258, 53.11577476345928], [6.987692507684034, 53.11610525890475], [7.022239299636318, 53.116083727190166], [7.028026836034393, 53.11611386971486], [7.029753982271282, 53.1150988178106], [7.025959101698536, 53.112433437820634], [7.028176690648746, 53.11109121186307], [7.029885369559605, 53.10831732448035], [7.042608705910852, 53.1018896453458], [7.038229660409484, 53.097076317640656], [7.037532819025724, 53.096311022393365], [7.01544602208908, 53.07177561076097], [7.013333190834109, 53.06944197616339], [7.010133495824994, 53.0737031930766], [7.000809929787825, 53.06330807883325], [6.994929083081095, 53.056843945350074], [6.992910333287162, 53.05509752521433], [6.99036302637475, 53.05438325911951], [6.98782869340038, 53.049077789527686], [6.980388109347338, 53.04091016121548], [6.9557902489655, 53.013861939456234], [6.9546543363629505, 53.01414647478624], [6.954000182330446, 53.014329858476366], [6.941663037205843, 53.01742057461207], [6.935854072437617, 53.019624250909686], [6.911911055344742, 53.03471267032174], [6.907702777935209, 53.03888239720386], [6.905525020283522, 53.043630955115255], [6.920629187696326, 53.04525654030479], [6.919904963603898, 53.04931363714447], [6.933343582005478, 53.0496142571158], [6.933021928635457, 53.053589264833036], [6.9244404865436815, 53.05777895679994], [6.929094211483558, 53.07183063306282], [6.929605938224859, 53.07336559013521], [6.930594428647775, 53.072853173360755], [6.936892980176979, 53.07742345191492], [6.943836279419159, 53.081915762036104], [6.955409293386265, 53.09327250800744], [6.956890616924708, 53.094712297033574], [6.957951279428861, 53.09435649735943], [6.958397008612068, 53.09526832959431], [6.959381835956197, 53.09493835989873], [6.960597858038041, 53.095802988290885], [6.9607845159589345, 53.09743187912792], [6.961734843129522, 53.11002298080532], [6.965294485202634, 53.1108327513819], [6.967389439797359, 53.11135894525283], [6.979748534972544, 53.119197938368146], [6.982534767751327, 53.11912499741335], [6.984451615147948, 53.11811200857196], [6.983780994937254, 53.1176527043976]]]]}, "properties": {"type": "boundary", "gemeente": "Pekela"}}, {"type": "Feature", "geometry": {"type": "MultiPolygon", "coordinates": [[[[7.209672010609397, 53.23964068328087], [7.208052219821838, 53.23919949590879], [7.206543460420546, 53.237555899881464], [7.205135352167914, 53.23941279990103], [7.205977285183512, 53.23966549416892], [7.206724908383608, 53.23947431075039], [7.206871670637044, 53.24158205545352], [7.207888890516754, 53.24268410956615], [7.208947238521091, 53.24307477015389], [7.209672010609397, 53.23964068328087]]], [[[7.013227239816855, 53.26684175358114], [7.01260407600684, 53.26063959969304], [7.013294679529224, 53.26070308896357], [7.02184604805906, 53.2532382391618], [7.023152976169602, 53.25409462544852], [7.031596735800224, 53.25613333873071], [7.034594987121206, 53.258424124517404], [7.037207653905322, 53.259683480607215], [7.038717492895087, 53.25863128119239], [7.040305595071278, 53.25983801971206], [7.057419625755479, 53.247341762554925], [7.059439670105051, 53.24822943019968], [7.067501935021642, 53.242393142658415], [7.079429575167463, 53.248178750419804], [7.0766313453231975, 53.249700963858515], [7.083942012594051, 53.254349304488244], [7.09324838049196, 53.25714581716488], [7.0936934439241055, 53.25609465378911], [7.095499274112523, 53.255284284375335], [7.097720486062676, 53.256123734834986], [7.103611735301758, 53.25227893051837], [7.1052757750402735, 53.25274656049635], [7.1065494677531795, 53.251904689861234], [7.108264803222131, 53.25266398094404], [7.111826863813497, 53.25069331208115], [7.115104594790091, 53.252232259285364], [7.116610108615106, 53.25064845451866], [7.119239849601751, 53.25119194644318], [7.120933928104212, 53.24988450455754], [7.1239955592473745, 53.25041706088218], [7.134006951403095, 53.25015666677432], [7.135450862331039, 53.2484034746362], [7.139680467998776, 53.24751029337958], [7.1430425987549, 53.24570041792338], [7.147088182169398, 53.24635034542349], [7.150119141733461, 53.245194284249166], [7.155863384682643, 53.24339368215774], [7.156156013803297, 53.24491997464229], [7.1586391077246425, 53.24502673395797], [7.159368370154413, 53.24609523315999], [7.163136272815684, 53.24537544585856], [7.166544456344422, 53.24388254006629], [7.167749387952373, 53.242757953420174], [7.170402727389007, 53.242684679356636], [7.173065210608603, 53.24050007641847], [7.173757313152039, 53.24151005053978], [7.175636237708117, 53.24077685359115], [7.176659602806394, 53.24108493247271], [7.177484293336748, 53.24123505115534], [7.18321664683918, 53.239131105033756], [7.183579146861487, 53.239877832927895], [7.1862201154457725, 53.23873767429117], [7.187477045148137, 53.23912510032876], [7.189846318670433, 53.23820223934893], [7.194555631446825, 53.23802736715875], [7.205716423924099, 53.23631229501249], [7.207026973829494, 53.2323855854437], [7.207665119123239, 53.23243086130557], [7.208055894631712, 53.23166312124189], [7.208948915885804, 53.23181308291271], [7.209134020481635, 53.23221628152056], [7.206575936276065, 53.236821753705804], [7.208070017858931, 53.23887574017537], [7.20848024133154, 53.23924682338922], [7.209805463538672, 53.23940982257215], [7.2125039215561015, 53.22819065919977], [7.210491067722113, 53.228399121114265], [7.217024826799538, 53.21476862966611], [7.217622318762108, 53.197819366470085], [7.216551250371268, 53.1955500531714], [7.211452832748601, 53.192510605499706], [7.208189983625745, 53.18865302813535], [7.218243996456502, 53.184245509174595], [7.227498008442654, 53.18028052366233], [7.2140019271715925, 53.17720610722911], [7.205994503493896, 53.176499023704594], [7.203654505383169, 53.1765661893479], [7.200770737387205, 53.1732815820544], [7.1909001085722375, 53.16184166483325], [7.1911790339599415, 53.15957372855358], [7.189323165225534, 53.157324782070475], [7.189243932958268, 53.15488485880926], [7.183172416946982, 53.15475614679194], [7.1769950457225455, 53.1525843534972], [7.173959028684353, 53.14793310927983], [7.148069239844444, 53.159546288720705], [7.145307692518554, 53.16077554040674], [7.14321564169976, 53.15716467080053], [7.14010992781034, 53.15460834788717], [7.133625618321718, 53.15240016011922], [7.126278470896893, 53.15145073464375], [7.116111048886565, 53.14801771124054], [7.107196376019759, 53.14441802947382], [7.10213888183286, 53.14323410434415], [7.098399712825055, 53.14336271278015], [7.089514685142127, 53.145190795885604], [7.08620694348149, 53.14502490932629], [7.080305265888847, 53.14357401907199], [7.068849656020334, 53.13748812076337], [7.051179570276243, 53.13021980429174], [7.049902895707508, 53.12883267817499], [7.035596171078579, 53.11958110260336], [7.033659133204867, 53.11604873674585], [7.029753982271282, 53.1150988178106], [7.028026836034393, 53.11611386971486], [7.022239299636318, 53.116083727190166], [6.987692507684034, 53.11610525890475], [6.987361126059258, 53.11577476345928], [6.983780994937254, 53.1176527043976], [6.984451615147948, 53.11811200857196], [6.982534767751327, 53.11912499741335], [6.979748534972544, 53.119197938368146], [6.967389439797359, 53.11135894525283], [6.965294485202634, 53.1108327513819], [6.9658463256821666, 53.11207957980888], [6.959871557593165, 53.12450109307719], [6.956536628930214, 53.134390476022574], [6.956315796713621, 53.135047218219555], [6.955967049773322, 53.13626637743837], [6.955476659149019, 53.13692145860746], [6.954928043795689, 53.13674496361401], [6.954447128833568, 53.143797438440195], [6.950380470770766, 53.15889661580894], [6.943782832531595, 53.15901492428095], [6.942298479157445, 53.16642066594427], [6.929832910145963, 53.165336075579496], [6.929274901173115, 53.16905200784845], [6.903730406899523, 53.166507283511734], [6.907404189978051, 53.16970055204065], [6.912207785216461, 53.17196758320794], [6.908283538607018, 53.17223545576733], [6.907635633486559, 53.17287923459779], [6.908202508809969, 53.17428813298598], [6.912533624162565, 53.17562467919482], [6.9130840518713885, 53.17693059434867], [6.911497509002694, 53.17870476853888], [6.9115795658980455, 53.18128489012967], [6.913859510720728, 53.183028058201906], [6.9157951119113115, 53.188279765554626], [6.918688957646104, 53.191393618272855], [6.9229022181449675, 53.19070563400999], [6.925108133832545, 53.19424995619302], [6.922717563840308, 53.194649059083964], [6.91681943108502, 53.195571091411445], [6.918396937998309, 53.19873452664948], [6.9246872554559555, 53.205072441428946], [6.92059570908614, 53.2074500946882], [6.929004145664717, 53.21308532598604], [6.926941831081641, 53.21459859675223], [6.922815019600731, 53.22063104939186], [6.9255316538269955, 53.22155882982747], [6.920040758446795, 53.227343690401526], [6.9127157377577575, 53.22512577201888], [6.908590672044028, 53.23395509093701], [6.91134359596418, 53.24301664817145], [6.913952841423013, 53.242836829392914], [6.916147596099605, 53.24361951899599], [6.921719949669853, 53.23918131855871], [6.928590495813389, 53.237076716313226], [6.937602693683311, 53.24425052504257], [6.9425056527496265, 53.242044619040385], [6.944989570138511, 53.24361604694965], [6.946135515861485, 53.248975009068324], [6.952229922169813, 53.25649992811887], [6.9970104043017, 53.26713025281456], [7.013227239816855, 53.26684175358114]]]]}, "properties": {"type": "boundary", "gemeente": "Oldambt"}}, {"type": "Feature", "geometry": {"type": "MultiPolygon", "coordinates": [[[[7.148069239844444, 53.159546288720705], [7.173959028684353, 53.14793310927983], [7.1769950457225455, 53.1525843534972], [7.183172416946982, 53.15475614679194], [7.189243932958268, 53.15488485880926], [7.1896009991745045, 53.1479634512099], [7.185864954228866, 53.14466995011136], [7.183123174116696, 53.14015097480154], [7.180263441187041, 53.13803431729912], [7.178961341460051, 53.138547321470384], [7.180076443102843, 53.131321606004185], [7.181018371830031, 53.12768044537994], [7.183641044601314, 53.12486968816412], [7.185872669122207, 53.12422755015812], [7.183100942032547, 53.12168177587312], [7.202793418747475, 53.11341239726305], [7.19921944107714, 53.081388048750505], [7.200513761894113, 53.07468060583752], [7.204243498470332, 53.055576095708005], [7.212932447491014, 53.01106299109512], [7.217445748957132, 53.00703929148255], [7.216103063711337, 53.00592417574803], [7.216488130342595, 53.005652054383646], [7.209562767706159, 53.00050878393898], [7.200509644146579, 52.98148568255566], [7.181516062582431, 52.94158566887416], [7.150261083295521, 52.91012777120326], [7.104370778104928, 52.86393193609154], [7.087257812027944, 52.849887884553105], [7.0878208257536, 52.848687960261934], [7.09273951671939, 52.83819691042543], [7.072378396350711, 52.83851465334514], [7.071640686844216, 52.8392789303486], [7.072192749388858, 52.84521167167032], [7.076316899077565, 52.84874749771926], [7.076236731834373, 52.850030853661394], [7.070067901385042, 52.8477941137302], [7.069137954800121, 52.847864398146555], [7.0659171292304475, 52.85164268250292], [7.064269956662461, 52.851043960776224], [7.063749489277464, 52.85179024533557], [7.062726325869387, 52.85146915657565], [7.052300840748044, 52.86149631609994], [7.051461247245085, 52.861182751245174], [7.047884854274415, 52.86450694316814], [7.046432966342568, 52.86585627050853], [7.04348615767801, 52.86521924519378], [7.040286232157232, 52.872818866988936], [7.018576947530581, 52.87297562890957], [7.014799310310461, 52.872987210197806], [7.016562130587881, 52.875446793803384], [7.039540369292281, 52.907504364515155], [7.039540397535527, 52.907504403671865], [7.039581067684821, 52.90756110108016], [7.04553170103782, 52.915916203940476], [7.026854978606308, 52.919037709059346], [7.0278322020648405, 52.92164699482419], [7.031887923899694, 52.92530648086506], [7.036300462812383, 52.92926673631991], [7.063426679897432, 52.93097129996738], [7.064654580989881, 52.950774853762866], [7.064676298187709, 52.95118555408139], [7.067342808891105, 52.95211242432052], [7.069936924365476, 52.95319006348172], [7.071119170031621, 52.98309401888902], [7.072058979812777, 53.003787992368366], [7.092201364559882, 53.0129429885949], [7.095673615690287, 53.014501776091], [7.10001422296613, 53.01644593147529], [7.097959451829574, 53.021223956410125], [7.095787000947731, 53.02120037477711], [7.091960203349806, 53.022847593529946], [7.0884483539150205, 53.02634308945398], [7.082750029248033, 53.02549908756484], [7.080378529339205, 53.029750915198804], [7.082638534466541, 53.03351676276202], [7.084264080027489, 53.039505336064614], [7.086677061815013, 53.0404903074144], [7.086119998506321, 53.04234834023141], [7.081655731285135, 53.04446591330329], [7.071725820905206, 53.0436045535928], [7.0701089597331235, 53.042772361061914], [7.068048622899875, 53.043509746844094], [7.067056068724167, 53.0476921476308], [7.068329048079229, 53.050785617971066], [7.071996732461072, 53.05073609422322], [7.074541677383652, 53.049948283161406], [7.076640713726209, 53.05118545809626], [7.080163414089169, 53.05917446101916], [7.080095900720457, 53.06144365582381], [7.076880890331255, 53.06369207070018], [7.070466389664408, 53.066194307679645], [7.065947111305841, 53.0672804224415], [7.064653759416828, 53.06695153949864], [7.060163875234011, 53.06580967553851], [7.0371989392477685, 53.06483275638596], [7.033648350324498, 53.06474929007243], [7.032379224784671, 53.066777018663146], [7.029533104675229, 53.0666504265446], [7.01910091424298, 53.0714684496745], [7.01544602208908, 53.07177561076097], [7.037532819025724, 53.096311022393365], [7.038229660409484, 53.097076317640656], [7.042608705910852, 53.1018896453458], [7.029885369559605, 53.10831732448035], [7.028176690648746, 53.11109121186307], [7.025959101698536, 53.112433437820634], [7.029753982271282, 53.1150988178106], [7.033659133204867, 53.11604873674585], [7.035596171078579, 53.11958110260336], [7.049902895707508, 53.12883267817499], [7.051179570276243, 53.13021980429174], [7.068849656020334, 53.13748812076337], [7.080305265888847, 53.14357401907199], [7.08620694348149, 53.14502490932629], [7.089514685142127, 53.145190795885604], [7.098399712825055, 53.14336271278015], [7.10213888183286, 53.14323410434415], [7.107196376019759, 53.14441802947382], [7.116111048886565, 53.14801771124054], [7.126278470896893, 53.15145073464375], [7.133625618321718, 53.15240016011922], [7.14010992781034, 53.15460834788717], [7.14321564169976, 53.15716467080053], [7.145307692518554, 53.16077554040674], [7.148069239844444, 53.159546288720705]]]]}, "properties": {"type": "boundary", "gemeente": "Westerwolde"}}, {"type": "Feature", "geometry": {"type": "MultiPolygon", "coordinates": [[[[6.887376579214168, 53.29788312425413], [6.889725949529173, 53.29273912999836], [6.890766963267655, 53.29053503226532], [6.889238600199754, 53.289821067360705], [6.891270151110671, 53.28692170499751], [6.893111555222645, 53.287793086360224], [6.895595928911655, 53.28591874581605], [6.887471435892304, 53.28169300756593], [6.887332325079004, 53.27917998786168], [6.899089258853531, 53.279467602724125], [6.907903649503812, 53.27930390567228], [6.908257578741617, 53.27870198421575], [6.909081847530128, 53.279001318314045], [6.908141855494688, 53.270020954468066], [6.910201646654752, 53.26844669581244], [6.909336022262497, 53.26356012218307], [6.91214915886102, 53.26348642090528], [6.911342987403907, 53.25198745969485], [6.9092552300534775, 53.24351944728693], [6.91134359596418, 53.24301664817145], [6.908590672044028, 53.23395509093701], [6.9127157377577575, 53.22512577201888], [6.920040758446795, 53.227343690401526], [6.9255316538269955, 53.22155882982747], [6.922815019600731, 53.22063104939186], [6.926941831081641, 53.21459859675223], [6.929004145664717, 53.21308532598604], [6.92059570908614, 53.2074500946882], [6.9246872554559555, 53.205072441428946], [6.918396937998309, 53.19873452664948], [6.91681943108502, 53.195571091411445], [6.922717563840308, 53.194649059083964], [6.925108133832545, 53.19424995619302], [6.9229022181449675, 53.19070563400999], [6.918688957646104, 53.191393618272855], [6.9157951119113115, 53.188279765554626], [6.913859510720728, 53.183028058201906], [6.9115795658980455, 53.18128489012967], [6.911497509002694, 53.17870476853888], [6.9130840518713885, 53.17693059434867], [6.912533624162565, 53.17562467919482], [6.908202508809969, 53.17428813298598], [6.907635633486559, 53.17287923459779], [6.908283538607018, 53.17223545576733], [6.912207785216461, 53.17196758320794], [6.907404189978051, 53.16970055204065], [6.903730406899523, 53.166507283511734], [6.929274901173115, 53.16905200784845], [6.929832910145963, 53.165336075579496], [6.942298479157445, 53.16642066594427], [6.943782832531595, 53.15901492428095], [6.950380470770766, 53.15889661580894], [6.954447128833568, 53.143797438440195], [6.954928043795689, 53.13674496361401], [6.955476659149019, 53.13692145860746], [6.955967049773322, 53.13626637743837], [6.956315796713621, 53.135047218219555], [6.956536628930214, 53.134390476022574], [6.959871557593165, 53.12450109307719], [6.9658463256821666, 53.11207957980888], [6.965294485202634, 53.1108327513819], [6.961734843129522, 53.11002298080532], [6.959338615123378, 53.12017758736364], [6.949835224641803, 53.12117048091778], [6.93480104034172, 53.124144089879536], [6.899626888955834, 53.128074960502126], [6.898942947136067, 53.12816478445263], [6.897039412226348, 53.12849567023547], [6.897099350065932, 53.127579582385955], [6.894717328562459, 53.12785524911039], [6.886253172857273, 53.12860095650455], [6.885047105425775, 53.127427103674194], [6.88426839073149, 53.12561783030385], [6.8830265725678315, 53.12581870767083], [6.882814638939142, 53.12519689117078], [6.880016996238184, 53.12564906959266], [6.878939185791076, 53.1258232266573], [6.878618886868831, 53.125150168829904], [6.87429251690316, 53.12536988116542], [6.874123541495135, 53.1235487516895], [6.865957705029075, 53.12392953743339], [6.865928621942103, 53.12438872415307], [6.86515870059221, 53.124422596816736], [6.851541894512695, 53.12502254983521], [6.823100884600326, 53.12622038839933], [6.821168793194304, 53.12883304126806], [6.815805706992542, 53.12742371399649], [6.803239328146252, 53.124091041813266], [6.805987896702013, 53.12032731683498], [6.801673760148222, 53.119173045982905], [6.806959564396225, 53.09825662139799], [6.808450435272663, 53.0922809947347], [6.813944731272581, 53.07097299596927], [6.789826797185082, 53.08630911419434], [6.776509298983489, 53.09476203341401], [6.744729839892225, 53.115249327795915], [6.743530314210965, 53.11593775792447], [6.7432536653760735, 53.11656963170646], [6.74239646894025, 53.116372021216996], [6.737450856034579, 53.11946305546941], [6.723256427455883, 53.12005372628274], [6.721380732656107, 53.120131652183815], [6.71983169267559, 53.120219847864064], [6.718724635190617, 53.12024920640205], [6.695366909605276, 53.12117730061497], [6.6890527749417625, 53.14466571797856], [6.686274713558202, 53.14784887699977], [6.686986545743881, 53.14896666353361], [6.690215576520271, 53.150394504780095], [6.690269619835926, 53.15115629220205], [6.68871429105228, 53.15461241804378], [6.679705785470092, 53.163330066176655], [6.678178643501596, 53.1648074868661], [6.671684107730322, 53.166908170600635], [6.669676623167826, 53.16903045589679], [6.665368128532375, 53.16944197771506], [6.663259361181158, 53.17058448127912], [6.661625730949057, 53.17198058618231], [6.661164838685307, 53.1733257037568], [6.660273708705696, 53.176592302103835], [6.657635982717413, 53.180354616171975], [6.657241406854595, 53.18077036225751], [6.6572411588589775, 53.18077062819258], [6.647251477109892, 53.183783258781745], [6.639468373021678, 53.18598204004903], [6.643993303112582, 53.18736700714151], [6.644813635947161, 53.18738343349231], [6.6468215887159445, 53.18793864144288], [6.639813438496083, 53.19029786179766], [6.640198106061264, 53.190518867196424], [6.642611775481888, 53.191883632277765], [6.650179519632388, 53.193411677461064], [6.66215623974968, 53.1998164817871], [6.6668730688373445, 53.202021586813466], [6.67359728915699, 53.200651878893], [6.683023309776671, 53.2009875425816], [6.684013440307053, 53.2021481787783], [6.6824846876315895, 53.20848848514218], [6.679762493642754, 53.20832348021743], [6.679638859343335, 53.20940261498139], [6.680081660390367, 53.21003117042335], [6.6804734288236585, 53.21169287358864], [6.682658529992824, 53.212060479367594], [6.682848120273113, 53.211300246069996], [6.688190517629784, 53.212181130631926], [6.6882327174209335, 53.21263514068637], [6.690489860796587, 53.21246883088868], [6.690771253742944, 53.21316214119551], [6.6933616818817345, 53.2129966485543], [6.69330908380119, 53.2142531820063], [6.698245673661615, 53.21466859139885], [6.6975159742500345, 53.21696671552574], [6.698790240139159, 53.21730811891634], [6.698548785916602, 53.217807355303144], [6.701167437037915, 53.21940593668873], [6.702759696787997, 53.22113712829999], [6.70512405806349, 53.22370749348942], [6.706367766349277, 53.22453146984353], [6.705760473312344, 53.22501264378186], [6.707049902690213, 53.225600276880265], [6.708203484432316, 53.2262023156091], [6.707204056641448, 53.226863951821244], [6.707632154232533, 53.22710549607408], [6.705672745615855, 53.2282573692771], [6.707304258316089, 53.23107088501398], [6.708805058476193, 53.231856773258336], [6.709013207191385, 53.233118887026876], [6.707089347405327, 53.23429697319], [6.708453605338937, 53.23490969227951], [6.7088711291497996, 53.23517825040409], [6.708852327360432, 53.235297669135875], [6.708830317841109, 53.235437471051156], [6.712009358741862, 53.23845839003315], [6.7176862849476064, 53.24187346884607], [6.7127213354816835, 53.24462081570051], [6.714508218281016, 53.24561186976997], [6.709811393428062, 53.24843227334162], [6.703538169381718, 53.25194301310735], [6.70373386356655, 53.253782645026334], [6.69833114567081, 53.256145876205956], [6.707516599446622, 53.2594313917069], [6.717658349704781, 53.263168596866976], [6.732292446218477, 53.26920947778727], [6.751137068307856, 53.275400454959296], [6.772527218458176, 53.28308745151818], [6.814344622103989, 53.29759259425935], [6.814355052162499, 53.29758078068528], [6.814551338664383, 53.297358466695435], [6.816649354193026, 53.29518301342127], [6.825161623729687, 53.297623249445515], [6.828072431106208, 53.291092792261004], [6.838278299059184, 53.29034917070002], [6.845805426771482, 53.29012700865643], [6.850950649743031, 53.296650465962394], [6.851495471709578, 53.296786490872485], [6.860254170080205, 53.29632678205312], [6.860722917507922, 53.294988029950105], [6.873221963204531, 53.29649484337767], [6.874566296937287, 53.29561254505063], [6.877567717301741, 53.296490145039535], [6.879608523210945, 53.29785075715949], [6.8866306809111935, 53.29827595786811], [6.887376579214168, 53.29788312425413]]]]}, "properties": {"type": "boundary", "gemeente": "Midden-Groningen"}}, {"type": "Feature", "geometry": {"type": "MultiPolygon", "coordinates": [[[[6.2126129302811215, 53.36421453835401], [6.212140209798459, 53.36286533400602], [6.209626666854939, 53.36369892350119], [6.210792849309397, 53.36496637218902], [6.2126129302811215, 53.36421453835401]]], [[[6.209636815299642, 53.37236066021627], [6.209761624957511, 53.37035773654154], [6.208040075007782, 53.37055306284946], [6.206702297481285, 53.37206239407785], [6.207103505147939, 53.37259323705767], [6.208481621861243, 53.37286847180065], [6.209636815299642, 53.37236066021627]]], [[[6.207140614594642, 53.37074540396344], [6.207611221539931, 53.36349738395166], [6.196634593881662, 53.364007679695575], [6.181899484475563, 53.37063677095367], [6.1826282400828605, 53.37329350947773], [6.184074559915156, 53.37384560160814], [6.187745889556186, 53.37265798651583], [6.190292167656993, 53.369329401406716], [6.191067234429082, 53.37023379729576], [6.190703121899494, 53.373444870383736], [6.192136878568446, 53.374860339718786], [6.19439925756771, 53.374898831943554], [6.197514156768607, 53.37321965449263], [6.205303706807416, 53.372273716596936], [6.207140614594642, 53.37074540396344]]], [[[6.1890095655332935, 53.38590656545954], [6.184524305387093, 53.383863615551746], [6.183933667586079, 53.386910699592725], [6.186584376039829, 53.38759748088175], [6.1890095655332935, 53.38590656545954]]], [[[6.227078734767352, 53.3901274252103], [6.222850602404165, 53.38985763682537], [6.219067751200096, 53.39088854915656], [6.219715897750516, 53.39162959778062], [6.223520601400492, 53.39277544591339], [6.2280345135512185, 53.39344371780719], [6.22941105033805, 53.39306514319671], [6.231234731868387, 53.39166952097485], [6.227078734767352, 53.3901274252103]]], [[[6.778756925682717, 53.460749093935426], [6.793121154146507, 53.45572213143615], [6.7946333183234575, 53.457266702787365], [6.79836439986446, 53.45501023424119], [6.813563125805096, 53.46324399294858], [6.828898395830648, 53.45965368320065], [6.830188246576581, 53.4597562321074], [6.831719435804262, 53.46196208828107], [6.832886536975057, 53.46249930396096], [6.834921383794701, 53.46245092396322], [6.834801029684162, 53.46214553587009], [6.833394602068286, 53.46217423355182], [6.832180307778309, 53.46164619371087], [6.830779221934829, 53.45964024735732], [6.8312314902010725, 53.459080773718725], [6.833531519871959, 53.45828996320376], [6.834738860376162, 53.455924762758976], [6.832656909496205, 53.45629649001473], [6.832525291024205, 53.4560694010085], [6.831673330980203, 53.456106423053974], [6.831630371209577, 53.45647976002358], [6.822697121077958, 53.45807419678305], [6.821156444015116, 53.45932769739094], [6.818215276930858, 53.45978822012404], [6.817169004027877, 53.457356280622065], [6.834456839624103, 53.45461446793767], [6.83448845273763, 53.45411160685994], [6.832059018033116, 53.450742462357574], [6.8139292998825125, 53.45335469179646], [6.812881907373278, 53.45080602304404], [6.829406525179534, 53.44820386341363], [6.828381550891591, 53.445820718490864], [6.819795379402566, 53.44713983950558], [6.819268268162431, 53.44484528579276], [6.825339501999887, 53.444104653441926], [6.833708664249756, 53.4428985103336], [6.837068785476267, 53.44353792905053], [6.841321641100787, 53.44290070334231], [6.841515870194405, 53.443194763800854], [6.842047895330661, 53.443112722613115], [6.841972319750351, 53.44279989414007], [6.847788837242822, 53.44194029297018], [6.848033702445021, 53.442359224841034], [6.855352139082804, 53.44128830236219], [6.85640656962167, 53.4437077190373], [6.838371659044531, 53.446855948235935], [6.842580646330926, 53.45721019420806], [6.842583682130879, 53.45835058649637], [6.840995941119075, 53.46033592638191], [6.841572970258675, 53.46038353206406], [6.843160047536852, 53.45836613822441], [6.8429131352804635, 53.45644552637977], [6.8539074042957076, 53.45351521021139], [6.8552767470016684, 53.45315013922416], [6.8650851150627314, 53.44975608838051], [6.866105665422043, 53.45048636803938], [6.8659606507589075, 53.44974264061154], [6.86764549148884, 53.44986995110921], [6.8662723850110075, 53.449169371766715], [6.877567830389563, 53.442741814675834], [6.879644432632095, 53.44142817876713], [6.880572832209144, 53.44212045759917], [6.881420403386627, 53.44172669664716], [6.88114819231559, 53.44137593220934], [6.880350064622214, 53.441022166059184], [6.881511525729927, 53.44029156094332], [6.88287831025692, 53.44115381175485], [6.883469810092418, 53.44082341064289], [6.882405738159031, 53.439864587691055], [6.883142572756327, 53.43847199006069], [6.883461335709345, 53.43553613295121], [6.881038370703315, 53.43243372602822], [6.875178253733365, 53.42092757867234], [6.874210079805064, 53.40803398532561], [6.871837576491947, 53.4083461520788], [6.861083794414871, 53.41225196972237], [6.843717495828801, 53.422419550336976], [6.792455069347297, 53.4035960660339], [6.7880580094873375, 53.40785020400467], [6.783984037908682, 53.40747226113505], [6.784014928386091, 53.40971392828327], [6.782064555306726, 53.410612878161835], [6.778614333493947, 53.410788403963565], [6.770133157156899, 53.403558363592325], [6.753856109075011, 53.39747761009081], [6.75214679238932, 53.39675049383464], [6.748256218261844, 53.39497139593325], [6.7392109583682345, 53.388122501810294], [6.729684536904129, 53.38109658950253], [6.7096768377093925, 53.37003590052915], [6.708562747662499, 53.36946377772608], [6.708435782686616, 53.36910635836026], [6.702068542549447, 53.36667879815319], [6.697048933173454, 53.36290879250627], [6.686701918637382, 53.36641461936317], [6.6790772448742315, 53.36698944465978], [6.670834768518192, 53.36496631912726], [6.663815220948986, 53.36693670850291], [6.651482281875241, 53.36458975435275], [6.647381861372612, 53.36457916902565], [6.645027241140094, 53.366437559154214], [6.642182670765593, 53.365657351434585], [6.642392717601434, 53.36380044014402], [6.637002721107693, 53.36286131311877], [6.635750483314996, 53.36286282762955], [6.636862627658217, 53.36050153673827], [6.63595560675767, 53.36032006638235], [6.634863753099181, 53.362369153546005], [6.62969866227172, 53.36242145267827], [6.627699116521014, 53.36124352584021], [6.627187323698176, 53.36086507965093], [6.625688560314785, 53.36096742839839], [6.627549166979038, 53.35334376392506], [6.626110549372409, 53.35087562477862], [6.614728713995305, 53.34921712083729], [6.606801342222523, 53.34893115743169], [6.605247169474105, 53.35016324562824], [6.6030167888579046, 53.349893947184256], [6.595832430148011, 53.347141686260784], [6.601450012119782, 53.34042398803705], [6.604695871863973, 53.34080502310952], [6.605367203888745, 53.337516149853556], [6.592564922054216, 53.33601638824304], [6.592623240427109, 53.33571624471254], [6.593944497631059, 53.335326450515154], [6.5980228563932055, 53.33549528435909], [6.601712045706084, 53.32939933436543], [6.6052730349551645, 53.33038392570282], [6.610194991573912, 53.33011511777536], [6.614336880515481, 53.32520348614568], [6.613007286762972, 53.32321789132768], [6.6198637878665325, 53.31442872501927], [6.637676334513376, 53.314638804967835], [6.642659034426225, 53.3083216983351], [6.650370575953926, 53.30920655903828], [6.654054748203513, 53.308645244882534], [6.649289676898046, 53.302281633507576], [6.642769700558697, 53.290934232789574], [6.632778553593929, 53.27621272965961], [6.625874135494395, 53.26614037827127], [6.63345295793806, 53.25976123479133], [6.635679119868092, 53.254095334618285], [6.636046479706459, 53.25143537120498], [6.635044426300231, 53.251285697610086], [6.6192979709619735, 53.24944883714113], [6.618346834890078, 53.25148685521941], [6.60640829376966, 53.251417482321735], [6.606352377864861, 53.253741721681614], [6.590737726310337, 53.255323245662424], [6.587127767877212, 53.25571444320135], [6.586344967427933, 53.25587560576123], [6.5873633786285835, 53.260261022120126], [6.588535173845807, 53.26254881126559], [6.585779975238334, 53.26249222375648], [6.585753545065128, 53.26154059459456], [6.567231342242834, 53.26149474291898], [6.566602438987358, 53.26360800234091], [6.5539458093814025, 53.26212658044305], [6.552398250863533, 53.262179226109986], [6.551388409792116, 53.26237563273906], [6.549553139776894, 53.264409586469064], [6.550335320300319, 53.26490999320982], [6.550264410045861, 53.264947470897795], [6.540967841634878, 53.2636241757482], [6.53792743045738, 53.264097227108586], [6.538471969562795, 53.26262470531974], [6.539309269053908, 53.2603603073876], [6.536583780182916, 53.260027213203855], [6.529684674594823, 53.258241297488894], [6.523170321346145, 53.25724223863521], [6.518092401529601, 53.25833164796902], [6.51082642224592, 53.256788329163236], [6.508241496625399, 53.25757451592504], [6.50646083107116, 53.26890621129647], [6.5068190368603105, 53.27074577789551], [6.50183480567746, 53.2802596813415], [6.503975682393882, 53.28825247005946], [6.5043748948842, 53.295349532011784], [6.499741279876341, 53.300584890882575], [6.497890196697987, 53.30233625663888], [6.49469605184537, 53.305254727577], [6.492623468429399, 53.30726691323662], [6.481933653135461, 53.31690624613221], [6.483593986217805, 53.31992759361643], [6.48214127042559, 53.32190432164527], [6.4780922116708854, 53.32357267552092], [6.475289715737809, 53.32392278002087], [6.4740562946287605, 53.32356682484555], [6.473061140713917, 53.32176371915908], [6.471461620781234, 53.32097441627017], [6.468251434442203, 53.32070628698486], [6.462676497579286, 53.321661408502464], [6.46086910446627, 53.32292115481709], [6.4625848370613665, 53.32535614199131], [6.461797867128554, 53.32709237844938], [6.457266835212781, 53.328791935094415], [6.453012210143581, 53.328811036222795], [6.448557906164473, 53.3277017797005], [6.447011557620839, 53.326654372615785], [6.447163934152752, 53.32483005522379], [6.449916677248122, 53.3216436783841], [6.441293924458673, 53.31680747486767], [6.438940128714312, 53.316768218967965], [6.438145249186327, 53.317498870788306], [6.437276140791441, 53.32172699905953], [6.431097381206297, 53.328206532732004], [6.429329373606501, 53.3284306134985], [6.423632173732992, 53.32707069529312], [6.415560900269649, 53.32830790298913], [6.413928885393797, 53.3275150100486], [6.409619098935743, 53.32177516753397], [6.405751583070431, 53.32007549592277], [6.398567847714326, 53.319105185499275], [6.389616373805415, 53.319924275332966], [6.377617041056049, 53.32003554931158], [6.367009227223882, 53.32157178863356], [6.364758745566936, 53.32066505013916], [6.360396386326638, 53.31529505083722], [6.3569072628571535, 53.31385930907933], [6.35408987696475, 53.31438454022559], [6.350145156014622, 53.31732461703742], [6.346494423591368, 53.318777081245784], [6.3438656915398175, 53.319078844534026], [6.340423843510581, 53.318497497519196], [6.331260260083458, 53.315236289826196], [6.326847352018481, 53.315302962071016], [6.320884547160627, 53.31654734376708], [6.31653145607669, 53.319395170953804], [6.315948007262251, 53.32507159303285], [6.313586936694744, 53.32855877488683], [6.305666950240968, 53.33263089401418], [6.296239636883963, 53.336313171969145], [6.29548764477609, 53.336678082733776], [6.292270165584072, 53.33845679532734], [6.294687024589578, 53.33816274325576], [6.296308565940911, 53.33726965211096], [6.2969594753601665, 53.33712253991988], [6.297343148883282, 53.3373892898997], [6.29568413550917, 53.338902664274535], [6.299166587417973, 53.33947538866835], [6.299109138644854, 53.339847382326894], [6.294848516727882, 53.33923997739126], [6.293100118476179, 53.33931885109497], [6.2930618172136175, 53.33950302159792], [6.29740821301925, 53.3402871734979], [6.29692855522028, 53.34117764968939], [6.292273622706268, 53.3402053900461], [6.2923616701792975, 53.339741163209744], [6.291155505660348, 53.34059289782262], [6.28745688075296, 53.34190574208997], [6.283014869580429, 53.34251734887332], [6.274191428862331, 53.3456600151585], [6.269014459920882, 53.3466002418556], [6.265588486459235, 53.34682461786195], [6.25857246748565, 53.34880561343545], [6.249844493079352, 53.34930210836675], [6.23983355392855, 53.34430734021453], [6.234845262378427, 53.34376370702385], [6.233055121639615, 53.34415948487738], [6.23209369197378, 53.34517853785266], [6.233252072874051, 53.34787954428829], [6.23229352010132, 53.35215230279229], [6.246224638638739, 53.35430295775957], [6.251876274584994, 53.358172290002145], [6.2564313603002635, 53.35724230682338], [6.257407147282867, 53.35892363697561], [6.248376294079191, 53.36165250244963], [6.245203528018055, 53.3596743211042], [6.240965669100804, 53.35860664588522], [6.238140785199643, 53.358714552094995], [6.2339114206236586, 53.360229244951746], [6.234487145924361, 53.36142320914998], [6.238258762452959, 53.36383128195265], [6.241836731119817, 53.36495613242212], [6.239692481631974, 53.365838452216316], [6.237697107950569, 53.36923694548027], [6.235723057597609, 53.368325104063], [6.232374944894128, 53.3668883731225], [6.223136792911461, 53.36576707565842], [6.217586198844906, 53.36412869135822], [6.213442258812043, 53.36628077013705], [6.2096842440848175, 53.36718927572194], [6.209884900329449, 53.36901154248349], [6.2134434687813025, 53.37191730768841], [6.22332708731275, 53.37197939290086], [6.231980926997926, 53.37255180374584], [6.233707698352981, 53.37321908090487], [6.225958049816731, 53.37439317084972], [6.222103833595657, 53.37394676602113], [6.218880911147325, 53.37431902846727], [6.207378428299926, 53.37638141270994], [6.205604388548463, 53.37581437852055], [6.2009072263306395, 53.37566560559457], [6.191368404765679, 53.378005854807576], [6.185759925888816, 53.37800577965831], [6.184454680117419, 53.3785352826249], [6.183455125380111, 53.381241351804405], [6.1850337016640085, 53.38282173111785], [6.192066764773756, 53.382368084382115], [6.199570769292134, 53.38277998278154], [6.200871137762466, 53.3832657991834], [6.201687082635066, 53.385589183078366], [6.196796592923203, 53.3902921964116], [6.193894440686917, 53.390877331997096], [6.192284470438086, 53.390334354159705], [6.191467038784418, 53.39080198362788], [6.193504851913553, 53.391979698133376], [6.191535385968824, 53.39278045926942], [6.180667683451289, 53.39398540117306], [6.179445566287069, 53.394550206308914], [6.179691612021902, 53.39592545923244], [6.181439146830113, 53.397287536644086], [6.181400568295645, 53.400004221228485], [6.1825278107929496, 53.401776010200976], [6.1848218075836305, 53.40327807511512], [6.198490091049329, 53.40285808153802], [6.202386679373045, 53.3993977542671], [6.210568877325946, 53.395752334703594], [6.216689864184078, 53.38999921676167], [6.2216054198650115, 53.38816829733339], [6.224021112081824, 53.387736004728005], [6.225963755314582, 53.38878423779244], [6.233509823672652, 53.38896475839144], [6.2364307864582065, 53.39147780719717], [6.233772941847887, 53.39249505232132], [6.233212743362916, 53.39371785052637], [6.232761166945148, 53.395455977319244], [6.22963581919652, 53.396099214949864], [6.223905228083232, 53.39650051368518], [6.222347066567068, 53.397375515689994], [6.2210347762961264, 53.396436201509154], [6.21899649883286, 53.39716123373573], [6.218136451615222, 53.39833041975375], [6.213279285216651, 53.39987081807529], [6.213713753671658, 53.40032420355264], [6.212887778156828, 53.40084663696524], [6.2116678456077254, 53.40095847184006], [6.211524603933662, 53.40053992100753], [6.210939690217528, 53.40140509389261], [6.211141545745794, 53.401734298641], [6.2099483405760445, 53.40213933027392], [6.20957885095305, 53.40210708136264], [6.209174469049517, 53.401749667242235], [6.209374550918883, 53.40134283159279], [6.209244428990609, 53.40132265212449], [6.208938964912488, 53.40183969209676], [6.209608597518585, 53.40257986725308], [6.209420424438418, 53.40282386135952], [6.210094975169767, 53.403844592974764], [6.210662273950101, 53.40432007267225], [6.209691939471108, 53.405147258775024], [6.208048785286654, 53.40483742898386], [6.208121516307453, 53.404570999065925], [6.2079243419146755, 53.404422613675685], [6.205984323378405, 53.4042586144369], [6.204624566745102, 53.40435145072932], [6.2039791803666064, 53.404058936051236], [6.20243157576789, 53.40450614536554], [6.202375618282523, 53.405184745766256], [6.207155295423391, 53.405332228634165], [6.206943186587027, 53.40657681858151], [6.201927642812035, 53.406375855409166], [6.201186123639868, 53.405824016169426], [6.201325670080851, 53.405764137577094], [6.200824185957886, 53.40535728250187], [6.200717231596245, 53.405396287424274], [6.2006480410270335, 53.405312030059335], [6.200766397027004, 53.405132439386605], [6.20068506433115, 53.40510914358211], [6.199697687695957, 53.405518134655814], [6.199619902547066, 53.40572480283385], [6.199440325823151, 53.405743813588934], [6.198042349808337, 53.40630709438318], [6.197936076951119, 53.40630780919065], [6.197572662288094, 53.406441729814766], [6.197579829710668, 53.4064881053611], [6.1968983339163115, 53.40676675421948], [6.196672228638737, 53.40675077658046], [6.196270452705913, 53.406963564085636], [6.196262107814251, 53.40705671481607], [6.195906494992561, 53.40720630407946], [6.19632757640296, 53.407855498496076], [6.195746202679043, 53.408056507153326], [6.194794123323267, 53.40767421320198], [6.192687996095654, 53.40850725423266], [6.192317706786564, 53.40877026228592], [6.1921339943898115, 53.40925345064622], [6.19228411697467, 53.409678191719166], [6.191965788286651, 53.40993232666312], [6.192203407975637, 53.41020234638086], [6.191606365477657, 53.410450298029374], [6.191388310508395, 53.41030084937118], [6.191170592097672, 53.41038035552694], [6.191333420863023, 53.41056178658622], [6.191013500004562, 53.41069255711416], [6.191471205776651, 53.4110878343801], [6.1934767491405145, 53.41033619783849], [6.1951890143873705, 53.41089465985148], [6.197011089072931, 53.41171812328726], [6.199942637456711, 53.411635134904145], [6.199166596541714, 53.41109762046696], [6.1976688690736275, 53.41111421082425], [6.197235195332264, 53.410714236942574], [6.196757945193988, 53.408905330032425], [6.197537108457217, 53.40858182062446], [6.198368561731289, 53.40914345826334], [6.199007981689516, 53.40884289220997], [6.199082685076708, 53.407877771327655], [6.203053771860329, 53.407949002975094], [6.212273780227604, 53.40959971022647], [6.211313675872384, 53.41118637105648], [6.202409920581393, 53.40940476080747], [6.200149634709062, 53.40935704703826], [6.20002155301371, 53.40950626273625], [6.201109014248572, 53.40954677790863], [6.201791498433835, 53.41008626274477], [6.201127325527743, 53.4110440107819], [6.201240798344467, 53.411131243523094], [6.202419982698681, 53.40996917093994], [6.21101234823148, 53.41146925262832], [6.213053417286741, 53.41159872434802], [6.21367226177983, 53.41096765646375], [6.214725871556627, 53.40921600922374], [6.244305092865136, 53.415108481338194], [6.249335499390113, 53.415514379071084], [6.255062350672568, 53.41516370968798], [6.260658790858859, 53.41391669273633], [6.298261881327559, 53.399991161334164], [6.302364734400051, 53.39634591237133], [6.306040486866108, 53.39273130607925], [6.309199684151359, 53.392988771572476], [6.3107770412349735, 53.39418109986588], [6.3214537722184305, 53.3984964887696], [6.334823766802773, 53.40260016227783], [6.338386186814943, 53.405221889261725], [6.340487180504156, 53.408019028816184], [6.348838761670353, 53.410077326345046], [6.351075991586622, 53.41176504450769], [6.3548694461191975, 53.411543829870745], [6.357924511802834, 53.41223795946841], [6.36773397708176, 53.41575899692668], [6.396405193815931, 53.41992868868929], [6.40451966075764, 53.41984947544649], [6.410676471009335, 53.4207571563164], [6.415370551708091, 53.4223369390105], [6.419476277963249, 53.42145645867421], [6.423461248977291, 53.42216407172369], [6.467884185276674, 53.424992707390565], [6.4853678170166225, 53.42798180019436], [6.491497173645407, 53.42852352020472], [6.5018908119019265, 53.42840167156175], [6.521450228382525, 53.43002737885187], [6.521986510751969, 53.429574922459715], [6.537655222822725, 53.43061685842598], [6.537056459034494, 53.42796776968503], [6.546868566544045, 53.428914562623326], [6.566347328568067, 53.4321484376652], [6.567567431569292, 53.431731012323276], [6.568108268410835, 53.43254632351568], [6.5794755448984485, 53.433739516267806], [6.58234109272226, 53.43487648733729], [6.599398474865802, 53.43826648331724], [6.610525879091602, 53.44170582666026], [6.615512828342285, 53.445085006409535], [6.62304519761798, 53.447093788792046], [6.633812103961236, 53.45120756023859], [6.637641635422517, 53.45178668630994], [6.639907737598909, 53.45282702642172], [6.646774597683754, 53.4539179902542], [6.65430623031759, 53.455967244328924], [6.6672486565883835, 53.458166880824926], [6.6702994444608485, 53.45780754122844], [6.674354645531116, 53.45832780037081], [6.695796767022442, 53.46199862542256], [6.733464129402964, 53.46521687397732], [6.745994299320318, 53.46601179363527], [6.756566956262166, 53.46522910788331], [6.778756925682717, 53.460749093935426]]], [[[6.423367660657297, 53.515310773768256], [6.421414899159508, 53.51369797044623], [6.416260640581408, 53.516512351633615], [6.4143643478056065, 53.524089714659944], [6.416202083688415, 53.52545917544114], [6.422872579021937, 53.525369469507616], [6.423705967112264, 53.524775663511974], [6.421121766465839, 53.52421120787772], [6.4223245337276715, 53.523060189472176], [6.423417731901083, 53.52303450301137], [6.424541544253811, 53.5220145068475], [6.4255054109785315, 53.5189100277473], [6.423367660657297, 53.515310773768256]]], [[[6.594651633099641, 53.52231098073219], [6.5957080482706045, 53.52047678932289], [6.599140846639915, 53.52053020081339], [6.598291501873916, 53.519840683195454], [6.595699347845512, 53.51958036815109], [6.592568574654206, 53.52007312288207], [6.585886013133633, 53.52346207566474], [6.5870006489378286, 53.52541723772039], [6.5887435701928325, 53.52611213252341], [6.594529484620702, 53.52521048021219], [6.597694231816413, 53.523093957956945], [6.594651633099641, 53.52231098073219]]], [[[6.5765982327058525, 53.54206407841047], [6.580597075737344, 53.541547529013094], [6.591649949006656, 53.54178692039736], [6.60724977177945, 53.53996909244482], [6.613407516619831, 53.53840806861539], [6.620514373441023, 53.53535390007103], [6.619295675241248, 53.53472057366556], [6.613273526659722, 53.53724532765484], [6.608088739168685, 53.53798131751472], [6.605543015200175, 53.537556435749345], [6.601551027843261, 53.536999211156775], [6.598752544287653, 53.53630985102438], [6.5806564052081615, 53.5367137081251], [6.574213101821418, 53.53896502972402], [6.5699450670395105, 53.54203403761782], [6.572299625210104, 53.54274161626022], [6.5765982327058525, 53.54206407841047]]], [[[6.504950575545387, 53.551281888327786], [6.509808530055514, 53.54624433068494], [6.5130093849814745, 53.54046128245758], [6.512023347853135, 53.53938877839812], [6.518409807030835, 53.536969494776066], [6.529383616229345, 53.534917076377596], [6.531830119257666, 53.53384527060898], [6.532265712528573, 53.53297339397873], [6.529488648965885, 53.532833307583374], [6.5162808426283405, 53.53436031084096], [6.505850063033789, 53.53758373629246], [6.498449738060857, 53.54191257012728], [6.496341890567307, 53.54515531454871], [6.496927847106898, 53.546766982479944], [6.489890194754238, 53.54999618086929], [6.486899365636278, 53.5506135650142], [6.4833047714089425, 53.548209670080986], [6.4824385787697185, 53.54618252606457], [6.486777666338312, 53.54424949263997], [6.489809437193189, 53.54456876274614], [6.504817236219498, 53.53689551322979], [6.509481665039978, 53.535145544852995], [6.5094940535422605, 53.533959311235535], [6.507193458572021, 53.532658880240504], [6.5028976000768, 53.53526311620622], [6.495611612559493, 53.53294006429005], [6.488076661938278, 53.532882331899664], [6.481002121459003, 53.534341724218216], [6.480727952359496, 53.535383199965814], [6.473230422408878, 53.535765534986275], [6.4730979728701055, 53.53443045188728], [6.475028252387207, 53.53121031584654], [6.477697798786201, 53.529680049894374], [6.4861180396836895, 53.52710231498338], [6.4884705225175905, 53.52336114769724], [6.488415781745024, 53.52205776480556], [6.485336458535349, 53.517946333538575], [6.4805198998377955, 53.51429085431869], [6.478861933314183, 53.514012050166755], [6.476610246574872, 53.516984359004184], [6.475180200054757, 53.521407271004904], [6.470055750948057, 53.53086386369945], [6.461051225434268, 53.539074181879144], [6.4606182578263365, 53.540640271325294], [6.46197989444454, 53.543028397054215], [6.468977116623501, 53.547924931932066], [6.481041977152973, 53.55221422710005], [6.487404714903923, 53.55358278087658], [6.4952216139062005, 53.55404615003392], [6.500161329816509, 53.55363219510226], [6.504950575545387, 53.551281888327786]]]]}, "properties": {"type": "boundary", "gemeente": "Het Hogeland"}}, {"type": "Feature", "geometry": {"type": "MultiPolygon", "coordinates": [[[[6.2905215225154665, 53.33942062559155], [6.292837957791308, 53.3349263620253], [6.293584029898251, 53.33511745361914], [6.292177801217745, 53.337730963158116], [6.292241470999184, 53.33847265730733], [6.292270165584072, 53.33845679532734], [6.29548764477609, 53.336678082733776], [6.296239636883963, 53.336313171969145], [6.305666950240968, 53.33263089401418], [6.313586936694744, 53.32855877488683], [6.315948007262251, 53.32507159303285], [6.31653145607669, 53.319395170953804], [6.320884547160627, 53.31654734376708], [6.326847352018481, 53.315302962071016], [6.331260260083458, 53.315236289826196], [6.340423843510581, 53.318497497519196], [6.3438656915398175, 53.319078844534026], [6.346494423591368, 53.318777081245784], [6.350145156014622, 53.31732461703742], [6.35408987696475, 53.31438454022559], [6.3569072628571535, 53.31385930907933], [6.360396386326638, 53.31529505083722], [6.364758745566936, 53.32066505013916], [6.367009227223882, 53.32157178863356], [6.377617041056049, 53.32003554931158], [6.389616373805415, 53.319924275332966], [6.398567847714326, 53.319105185499275], [6.405751583070431, 53.32007549592277], [6.409619098935743, 53.32177516753397], [6.413928885393797, 53.3275150100486], [6.415560900269649, 53.32830790298913], [6.423632173732992, 53.32707069529312], [6.429329373606501, 53.3284306134985], [6.431097381206297, 53.328206532732004], [6.437276140791441, 53.32172699905953], [6.438145249186327, 53.317498870788306], [6.438940128714312, 53.316768218967965], [6.441293924458673, 53.31680747486767], [6.449916677248122, 53.3216436783841], [6.447163934152752, 53.32483005522379], [6.447011557620839, 53.326654372615785], [6.448557906164473, 53.3277017797005], [6.453012210143581, 53.328811036222795], [6.457266835212781, 53.328791935094415], [6.461797867128554, 53.32709237844938], [6.4625848370613665, 53.32535614199131], [6.46086910446627, 53.32292115481709], [6.462676497579286, 53.321661408502464], [6.468251434442203, 53.32070628698486], [6.471461620781234, 53.32097441627017], [6.473061140713917, 53.32176371915908], [6.4740562946287605, 53.32356682484555], [6.475289715737809, 53.32392278002087], [6.4780922116708854, 53.32357267552092], [6.48214127042559, 53.32190432164527], [6.483593986217805, 53.31992759361643], [6.481933653135461, 53.31690624613221], [6.492623468429399, 53.30726691323662], [6.49469605184537, 53.305254727577], [6.497890196697987, 53.30233625663888], [6.499741279876341, 53.300584890882575], [6.5043748948842, 53.295349532011784], [6.503975682393882, 53.28825247005946], [6.50183480567746, 53.2802596813415], [6.5068190368603105, 53.27074577789551], [6.50646083107116, 53.26890621129647], [6.508241496625399, 53.25757451592504], [6.508247373195637, 53.25727433516144], [6.508003596157811, 53.25621509771011], [6.511443545737182, 53.254114740630264], [6.502152463430739, 53.24770684123314], [6.497041201321506, 53.24676698631551], [6.495847685658994, 53.24582353821729], [6.491986502435368, 53.245555193999415], [6.4924367869114725, 53.246675181248115], [6.490428525669821, 53.2473214016292], [6.488726531912494, 53.24723186981218], [6.488602691611796, 53.24901681625786], [6.48092175423542, 53.25018572180954], [6.48047559617929, 53.24550596755396], [6.476655841038315, 53.23650285989894], [6.46976878110098, 53.22046921443819], [6.464474438651224, 53.207614944675896], [6.464679930586283, 53.20746005424276], [6.46700443756661, 53.206171022748606], [6.466383632158853, 53.204193934017596], [6.462746433131936, 53.201979431606624], [6.463462234309131, 53.20005888595551], [6.4499487270905975, 53.19669733919519], [6.44771288899805, 53.196441213439044], [6.445662756156741, 53.191016129312146], [6.442867600182718, 53.18774106994653], [6.438018727978962, 53.18565217931307], [6.424488367083266, 53.18167865375225], [6.40797113137784, 53.17814905015009], [6.405594136043176, 53.17647548748405], [6.405470391948572, 53.17628362190907], [6.40412157183769, 53.172955635438065], [6.404138781386626, 53.168573020498435], [6.402688144828202, 53.167006305784234], [6.3985953653499275, 53.164862749074935], [6.397615208974488, 53.16451336397423], [6.395094629893796, 53.16352936422744], [6.391129058633929, 53.159419402485945], [6.388729487274591, 53.158015420394456], [6.381471920362598, 53.1534366707493], [6.381564978433851, 53.15318651155951], [6.381547307954181, 53.149593331457204], [6.3826132482625795, 53.149571148701995], [6.381473562563491, 53.147738517669126], [6.366052936511163, 53.1225590224949], [6.365627939955013, 53.12129047537818], [6.36535504167218, 53.11952795488653], [6.363560903325137, 53.10756092425267], [6.356621487154955, 53.107085180802024], [6.344443744927639, 53.08715119575393], [6.341000124573853, 53.08794520417405], [6.337796756527848, 53.08868945597194], [6.315158233452568, 53.09405334802602], [6.296427601998335, 53.09844387499878], [6.293173265517662, 53.09921054911737], [6.29056622373199, 53.099829581868946], [6.283050875055991, 53.106863664980224], [6.274139318272815, 53.111161686994464], [6.261684965914678, 53.11429320665553], [6.255595160458941, 53.114200225616926], [6.254381751772857, 53.114132003809566], [6.251264980466735, 53.11393746901774], [6.239364126295014, 53.113389334813846], [6.225961863537319, 53.11430065477278], [6.22260678902215, 53.11491466125507], [6.212860486830291, 53.11523306095803], [6.2062712198046555, 53.115445012846585], [6.206205292316739, 53.11544829166458], [6.205609712051789, 53.115466983561845], [6.202381399660537, 53.11722111758549], [6.192940993030321, 53.123357107920015], [6.185716455705693, 53.129213937742115], [6.1790689993312435, 53.13399250630153], [6.175677278971476, 53.135076855720015], [6.175234569970484, 53.13590310364614], [6.1756207375835945, 53.14420264067959], [6.1763064009966655, 53.15282820567667], [6.176750056567748, 53.159504895709716], [6.177336706119726, 53.16698312031729], [6.181223604437241, 53.170348612848706], [6.18301654270965, 53.1739846997485], [6.1857908621850735, 53.17883269059078], [6.188033987814283, 53.182487039793315], [6.1930972491316485, 53.189278050007815], [6.1952766354945465, 53.19149882013517], [6.197036997619681, 53.19201619018962], [6.199830472196366, 53.19532302036438], [6.199621297442401, 53.1983556357061], [6.204114469203974, 53.19975880131827], [6.209578115566502, 53.19996131916275], [6.2192423696599635, 53.206130173765416], [6.224839674048598, 53.212004196022264], [6.224750193741138, 53.214578941823156], [6.2289341845396935, 53.21680585562952], [6.229988509245366, 53.21781882924346], [6.230173416688726, 53.22244080556965], [6.225339531693525, 53.22545573759382], [6.224632172423617, 53.23007414241646], [6.221680555854131, 53.23166803449842], [6.21458397148066, 53.233711011718796], [6.2148059911323505, 53.235648840748055], [6.215542568186907, 53.23698546814028], [6.220239119114434, 53.23734808684147], [6.224972142185958, 53.23859317544189], [6.224616004037431, 53.23970127512574], [6.222823521444483, 53.2394980026594], [6.218449578162818, 53.241691619657665], [6.217978299460303, 53.24193244531361], [6.2194535579919155, 53.24286706822048], [6.225111620082002, 53.24459074868339], [6.2277434328296195, 53.24524000585683], [6.229707319540059, 53.24475223774491], [6.231094977252162, 53.245105702860926], [6.2320753709029315, 53.247125002920136], [6.229601675898551, 53.248913528298196], [6.2303185890068296, 53.25042674896965], [6.233665303614185, 53.25039933505744], [6.235100802714495, 53.253355177885226], [6.232625382205603, 53.254564244455835], [6.23174919843565, 53.25594695192141], [6.232173163393074, 53.25674773573493], [6.234944946884219, 53.256704227345374], [6.237584314539659, 53.257547489493746], [6.238763156863088, 53.259681361693566], [6.237973572780122, 53.2615830595256], [6.239415788864383, 53.263143558805105], [6.241623648550385, 53.263952006313744], [6.243484632974967, 53.26546014632261], [6.243625147357198, 53.26645984768769], [6.246863308222145, 53.26829614886483], [6.249977432636261, 53.2672203184842], [6.253474286530256, 53.26772495012212], [6.254943613071968, 53.26852486797117], [6.255763438950213, 53.27083680486132], [6.252965072936782, 53.273468171917216], [6.2514088504060235, 53.27725527248162], [6.25294124881012, 53.284459541099544], [6.254266160462069, 53.28864312792792], [6.259903752429604, 53.291075994910976], [6.267456665867621, 53.290855129311204], [6.269267961195454, 53.290278738105364], [6.270755014812276, 53.292060410689594], [6.270286768131462, 53.293160001238455], [6.27437502060824, 53.29648896913522], [6.274488068551142, 53.29914764543901], [6.278307221159451, 53.30273119034261], [6.279478676007712, 53.30332463365357], [6.29025020016654, 53.305377914824184], [6.294016456041391, 53.30836880058396], [6.293579238326068, 53.30861544995383], [6.292779338705774, 53.309892382396896], [6.286763298153888, 53.312010605063584], [6.284027781640965, 53.311792412095826], [6.28050341801268, 53.31258173954899], [6.286900926187788, 53.34102658848451], [6.28846967973677, 53.34055753131067], [6.2905215225154665, 53.33942062559155]]]]}, "properties": {"type": "boundary", "gemeente": "Westerkwartier"}}, {"type": "Feature", "geometry": {"type": "MultiPolygon", "coordinates": [[[[6.878962133860205, 53.405154104698966], [6.888057405253126, 53.39595923500255], [6.885422664310908, 53.39351645836811], [6.8852568162390515, 53.39244939848143], [6.88916968107365, 53.39126959227655], [6.890575627561444, 53.38886826075917], [6.888660519453866, 53.383700333710784], [6.889000287498424, 53.38028072457851], [6.89320220685582, 53.371312233974294], [6.895679062578691, 53.36961169381599], [6.894512573595005, 53.36514010539887], [6.8950179414459, 53.36329220584084], [6.896447906971193, 53.36189376551482], [6.896180411818322, 53.35904097017346], [6.897125457460068, 53.355584252360494], [6.902085298865778, 53.34751077608326], [6.908525595106953, 53.347248948538294], [6.913038264534926, 53.34460246520793], [6.918876337461691, 53.342180254133474], [6.9299411405035904, 53.335484434680225], [6.930483691628314, 53.33486311892082], [6.932176631678171, 53.33457894944856], [6.936315149085348, 53.334030540685575], [6.9443164602561485, 53.3296943590512], [6.943557930389852, 53.32727946851749], [6.953220396432134, 53.32446868127308], [6.970269855068307, 53.321778060767336], [6.986987187040863, 53.31755203706758], [6.996463120435236, 53.31671639269496], [7.004971512583986, 53.31711819071133], [7.005071341790468, 53.316847230819924], [7.0048012599037595, 53.31675972242104], [7.003602340090901, 53.31612355463277], [6.99291141964033, 53.315757620579745], [6.987631837555985, 53.31640116263707], [6.970370106940506, 53.32080274068568], [6.952158323067215, 53.323298769990274], [6.946086270458828, 53.32486174665088], [6.940521525346118, 53.328306434380956], [6.939682992302095, 53.32816868769036], [6.934313293850027, 53.333075961391216], [6.931164790931198, 53.3321230666495], [6.929134451042524, 53.32899371475729], [6.928692643758999, 53.329093762776004], [6.928120843414178, 53.32769104461037], [6.930474671857909, 53.32715628604658], [6.931803447237237, 53.326227828331135], [6.935926314000277, 53.32633104298596], [6.9498742302036, 53.322066899480205], [6.958121556405563, 53.32060584422218], [6.962910151553962, 53.318859894184385], [6.968313696983622, 53.31900594690424], [6.975045015817916, 53.3169617347179], [6.979353517353661, 53.316334054628776], [6.996276109279012, 53.31166632503759], [7.000588294335437, 53.30942557736441], [7.010725546749058, 53.31381105641736], [7.0092239963083, 53.31542706067101], [7.010232361413121, 53.31578986859396], [7.012912694122336, 53.311245643431896], [7.0097836045616235, 53.30652766996496], [7.010291526351685, 53.30612487771651], [7.026993385169483, 53.30246039385586], [7.030985973128947, 53.302592457549956], [7.037944788574838, 53.30468662927298], [7.039183566301244, 53.30240083872144], [7.04478226571289, 53.30135118135768], [7.047501228826025, 53.29956850363249], [7.068191705158596, 53.29975823200981], [7.069919383865039, 53.3001921640383], [7.076716488445972, 53.30027885412288], [7.0807208818371805, 53.30369721069569], [7.086249300210082, 53.304159611675864], [7.090987165993692, 53.30513341571793], [7.0922311709238395, 53.305621727177545], [7.095382297717948, 53.30804820372219], [7.0983769889957715, 53.30872696998083], [7.099964464417878, 53.30790166297621], [7.099170045375002, 53.30647832553181], [7.098373864990898, 53.305051727939905], [7.095627987545953, 53.30473863988236], [7.090351824087385, 53.30053492611067], [7.085496224474421, 53.2977514282629], [7.084898301135335, 53.29801926081642], [7.0841663430367054, 53.297560765937334], [7.082502054912926, 53.29123557859111], [7.08524090470233, 53.28250958909416], [7.080903939954156, 53.27739881785222], [7.078236564152048, 53.270771054039486], [7.078329940229353, 53.26658270582048], [7.084619332113955, 53.2615659642736], [7.09324838049196, 53.25714581716488], [7.083942012594051, 53.254349304488244], [7.0766313453231975, 53.249700963858515], [7.079429575167463, 53.248178750419804], [7.067501935021642, 53.242393142658415], [7.059439670105051, 53.24822943019968], [7.057419625755479, 53.247341762554925], [7.040305595071278, 53.25983801971206], [7.038717492895087, 53.25863128119239], [7.037207653905322, 53.259683480607215], [7.034594987121206, 53.258424124517404], [7.031596735800224, 53.25613333873071], [7.023152976169602, 53.25409462544852], [7.02184604805906, 53.2532382391618], [7.013294679529224, 53.26070308896357], [7.01260407600684, 53.26063959969304], [7.013227239816855, 53.26684175358114], [6.9970104043017, 53.26713025281456], [6.952229922169813, 53.25649992811887], [6.946135515861485, 53.248975009068324], [6.944989570138511, 53.24361604694965], [6.9425056527496265, 53.242044619040385], [6.937602693683311, 53.24425052504257], [6.928590495813389, 53.237076716313226], [6.921719949669853, 53.23918131855871], [6.916147596099605, 53.24361951899599], [6.913952841423013, 53.242836829392914], [6.91134359596418, 53.24301664817145], [6.9092552300534775, 53.24351944728693], [6.911342987403907, 53.25198745969485], [6.91214915886102, 53.26348642090528], [6.909336022262497, 53.26356012218307], [6.910201646654752, 53.26844669581244], [6.908141855494688, 53.270020954468066], [6.909081847530128, 53.279001318314045], [6.908257578741617, 53.27870198421575], [6.907903649503812, 53.27930390567228], [6.899089258853531, 53.279467602724125], [6.887332325079004, 53.27917998786168], [6.887471435892304, 53.28169300756593], [6.895595928911655, 53.28591874581605], [6.893111555222645, 53.287793086360224], [6.891270151110671, 53.28692170499751], [6.889238600199754, 53.289821067360705], [6.890766963267655, 53.29053503226532], [6.889725949529173, 53.29273912999836], [6.887376579214168, 53.29788312425413], [6.8866306809111935, 53.29827595786811], [6.879608523210945, 53.29785075715949], [6.877567717301741, 53.296490145039535], [6.874566296937287, 53.29561254505063], [6.873221963204531, 53.29649484337767], [6.860722917507922, 53.294988029950105], [6.860254170080205, 53.29632678205312], [6.851495471709578, 53.296786490872485], [6.850950649743031, 53.296650465962394], [6.845805426771482, 53.29012700865643], [6.838278299059184, 53.29034917070002], [6.828072431106208, 53.291092792261004], [6.825161623729687, 53.297623249445515], [6.816649354193026, 53.29518301342127], [6.814551338664383, 53.297358466695435], [6.814355052162499, 53.29758078068528], [6.814344622103989, 53.29759259425935], [6.772527218458176, 53.28308745151818], [6.769137334649658, 53.28662638187211], [6.772309892058564, 53.28779349827268], [6.769794859900997, 53.290681252597814], [6.772226091781233, 53.29191854833682], [6.764621062423023, 53.29813519714806], [6.7606842379062915, 53.29523701672299], [6.755539154326389, 53.29963455570275], [6.753082046153033, 53.298847891094844], [6.748048877116216, 53.30296973403078], [6.74479279444471, 53.307754435047286], [6.7493514189347446, 53.30984386126324], [6.74794894306729, 53.31178184579897], [6.747310989180465, 53.31192881566848], [6.747051487882813, 53.3114910495131], [6.744219104019649, 53.3119193701701], [6.743677991837999, 53.31110007144327], [6.74289621527794, 53.311357532601434], [6.742682192328505, 53.311020543798655], [6.740467635736455, 53.3121802718137], [6.737608006047433, 53.312795519454085], [6.732901518616921, 53.311409569133964], [6.72944947036395, 53.30535467617563], [6.724351758105439, 53.305539714141425], [6.721614963825969, 53.306430366800036], [6.712717649050213, 53.309325191212416], [6.709004909004016, 53.31011930146899], [6.7066188527871535, 53.307038350320894], [6.705317101546283, 53.30752583539911], [6.689736595952839, 53.29754030143941], [6.6771736301530265, 53.303741468624025], [6.660767313731711, 53.306693460734714], [6.657046685712136, 53.307746386864835], [6.656650339233073, 53.30793264172328], [6.656754241247626, 53.30806372260489], [6.655938068468678, 53.30833051489897], [6.655768050518643, 53.30811792524424], [6.654782693084403, 53.30842361362709], [6.654054748203513, 53.308645244882534], [6.650370575953926, 53.30920655903828], [6.642659034426225, 53.3083216983351], [6.637676334513376, 53.314638804967835], [6.6198637878665325, 53.31442872501927], [6.613007286762972, 53.32321789132768], [6.614336880515481, 53.32520348614568], [6.610194991573912, 53.33011511777536], [6.6052730349551645, 53.33038392570282], [6.601712045706084, 53.32939933436543], [6.5980228563932055, 53.33549528435909], [6.593944497631059, 53.335326450515154], [6.592623240427109, 53.33571624471254], [6.592564922054216, 53.33601638824304], [6.605367203888745, 53.337516149853556], [6.604695871863973, 53.34080502310952], [6.601450012119782, 53.34042398803705], [6.595832430148011, 53.347141686260784], [6.6030167888579046, 53.349893947184256], [6.605247169474105, 53.35016324562824], [6.606801342222523, 53.34893115743169], [6.614728713995305, 53.34921712083729], [6.626110549372409, 53.35087562477862], [6.627549166979038, 53.35334376392506], [6.625688560314785, 53.36096742839839], [6.627187323698176, 53.36086507965093], [6.627699116521014, 53.36124352584021], [6.62969866227172, 53.36242145267827], [6.634863753099181, 53.362369153546005], [6.63595560675767, 53.36032006638235], [6.636862627658217, 53.36050153673827], [6.635750483314996, 53.36286282762955], [6.637002721107693, 53.36286131311877], [6.642392717601434, 53.36380044014402], [6.642182670765593, 53.365657351434585], [6.645027241140094, 53.366437559154214], [6.647381861372612, 53.36457916902565], [6.651482281875241, 53.36458975435275], [6.663815220948986, 53.36693670850291], [6.670834768518192, 53.36496631912726], [6.6790772448742315, 53.36698944465978], [6.686701918637382, 53.36641461936317], [6.697048933173454, 53.36290879250627], [6.702068542549447, 53.36667879815319], [6.708435782686616, 53.36910635836026], [6.708562747662499, 53.36946377772608], [6.7096768377093925, 53.37003590052915], [6.729684536904129, 53.38109658950253], [6.7392109583682345, 53.388122501810294], [6.748256218261844, 53.39497139593325], [6.75214679238932, 53.39675049383464], [6.753856109075011, 53.39747761009081], [6.770133157156899, 53.403558363592325], [6.778614333493947, 53.410788403963565], [6.782064555306726, 53.410612878161835], [6.784014928386091, 53.40971392828327], [6.783984037908682, 53.40747226113505], [6.7880580094873375, 53.40785020400467], [6.792455069347297, 53.4035960660339], [6.843717495828801, 53.422419550336976], [6.86108379441465, 53.41225196972251], [6.871837576491951, 53.40834615207886], [6.874210079805064, 53.40803398532561], [6.878962133860205, 53.405154104698966]]]]}, "properties": {"type": "boundary", "gemeente": "Eemsdelta"}}]}