{"type": "FeatureCollection", "features": [{"type": "Feature", "geometry": {"type": "MultiPolygon", "coordinates": [[[[5.395522872299434, 52.21915465049423], [5.407222350533141, 52.213405446860925], [5.409670475458964, 52.21858036546965], [5.43471443685659, 52.20587654251171], [5.439237636287536, 52.204602186185], [5.439821010655466, 52.20598449556168], [5.440568430973524, 52.20583739565845], [5.440187679303421, 52.20463122406823], [5.441119197020418, 52.204323012479406], [5.43944954209277, 52.20219582117991], [5.439771895151447, 52.19726777971103], [5.439770331645951, 52.197237074165265], [5.439711933850392, 52.19608277039972], [5.44009628569872, 52.190052921182115], [5.438086589267941, 52.18458550861057], [5.439043384769426, 52.18412764992213], [5.440093488720599, 52.17337901889355], [5.438916385087724, 52.17291767876584], [5.439875848987696, 52.17119808293876], [5.443594709999753, 52.16883045802408], [5.4465378567630465, 52.16802393027101], [5.457615421006915, 52.16707983897513], [5.469633046470086, 52.16621001172245], [5.479922641195722, 52.165815123536134], [5.478948543544467, 52.16474171791367], [5.475508230190749, 52.16437813631342], [5.473265949780779, 52.163264759758555], [5.472433568595611, 52.16285142612698], [5.472866025121536, 52.16184895379504], [5.475520091648159, 52.16216223468575], [5.479196953957287, 52.16136128499077], [5.482116343798398, 52.1597962184067], [5.482013508048801, 52.159547924979414], [5.481495777058805, 52.15829783793322], [5.484317535293846, 52.158064380849446], [5.484073776695545, 52.15534660830928], [5.483767277392664, 52.15398160395143], [5.481341966940411, 52.150501462842], [5.476747689862079, 52.1522180615626], [5.469863327842243, 52.15284979872209], [5.459582255249079, 52.152876837822895], [5.455950600900184, 52.15434799333142], [5.446984728139706, 52.15953728963562], [5.44496352460887, 52.159898368137334], [5.442464395702753, 52.16144866486507], [5.438951900376406, 52.161389219511726], [5.431941401777105, 52.15875651556854], [5.423547572729855, 52.157620697220565], [5.417843757168254, 52.15478524957598], [5.416208627635399, 52.15091706252349], [5.41401105083333, 52.14831134174958], [5.413771963336919, 52.14802737249734], [5.408339629905056, 52.14264669626077], [5.409391068248675, 52.1403879262181], [5.4075633464430855, 52.14196032272441], [5.405404941371494, 52.13981197368974], [5.40009692154122, 52.13572092677389], [5.400082197443214, 52.13571260282913], [5.398074738541944, 52.13354828468719], [5.397127457955647, 52.13394745531371], [5.384335040253296, 52.13173900521327], [5.374388774552467, 52.1309932810397], [5.3722221289372305, 52.132364751417214], [5.370457636442151, 52.13157057895342], [5.355635189916803, 52.136830073614234], [5.334036312502876, 52.12041525714749], [5.3250007850717225, 52.11680600848985], [5.310919545927074, 52.1083846963652], [5.306458375005881, 52.11027176897439], [5.311582970597106, 52.11414342546124], [5.331267718761736, 52.12663063074048], [5.333851565586271, 52.131345808178835], [5.332048852584026, 52.1337869063474], [5.330643420374137, 52.13570381244613], [5.3363164419777975, 52.14595145405417], [5.336335332352925, 52.14604949510326], [5.338720341861967, 52.1600571218342], [5.343483799394286, 52.1602711570247], [5.344673694344114, 52.163628900942356], [5.347613907110687, 52.170729485721495], [5.346883866479441, 52.171679921510275], [5.3473149382068, 52.17278557573441], [5.3486838788604505, 52.17295492129161], [5.348505959930018, 52.17353134099932], [5.349925598448655, 52.17385734850274], [5.3490999831023975, 52.17467870012263], [5.349897794050251, 52.17560572693396], [5.344322068131836, 52.17703829299864], [5.340663032266064, 52.17818000806947], [5.336439842094034, 52.18271836083049], [5.333563787729263, 52.18317495410779], [5.32670873062745, 52.18181171861275], [5.323696697723228, 52.18258916739381], [5.3246518360982265, 52.187289429352155], [5.3238447457169435, 52.18849619597189], [5.320682750944544, 52.1902221591737], [5.314668203709813, 52.191584494168815], [5.311640278694615, 52.191036168068536], [5.310216751115634, 52.192016826916], [5.309338484804353, 52.19472952749419], [5.314282205651203, 52.20302349265923], [5.330691976757496, 52.20338560905146], [5.3278823066071155, 52.20935082768185], [5.33054163784912, 52.21473250026358], [5.3583643200023445, 52.20971589391161], [5.35911883799638, 52.210361807731665], [5.364434250853041, 52.20984476752815], [5.3648791377562945, 52.209365069002786], [5.3732939952976935, 52.20780123970827], [5.378074366526855, 52.20706539405182], [5.3853976747843255, 52.20643398168299], [5.39273590838423, 52.20552848718715], [5.395522872299434, 52.21915465049423]]]]}, "properties": {"type": "boundary", "gemeente": "Amersfoort"}}, {"type": "Feature", "geometry": {"type": "MultiPolygon", "coordinates": [[[[5.335263884880507, 52.22631145313157], [5.334323786845676, 52.22012390525423], [5.33054163784912, 52.21473250026358], [5.3278823066071155, 52.20935082768185], [5.330691976757496, 52.20338560905146], [5.314282205651203, 52.20302349265923], [5.313626044922752, 52.20421993764015], [5.31218364408267, 52.20424558717603], [5.310664549075834, 52.20348457447557], [5.308791978423863, 52.204549352915585], [5.304017934865317, 52.20001143736916], [5.297266721697985, 52.19755797513449], [5.297119376013651, 52.19750469856949], [5.282498955686606, 52.1920749093441], [5.282335126911382, 52.19286170885899], [5.2815829751588055, 52.1926091796068], [5.270215499566731, 52.18852626143618], [5.262080715739412, 52.18393929293794], [5.257230185133929, 52.18087045912939], [5.2492597469149365, 52.17573067902918], [5.246956651755834, 52.174226391796815], [5.24317246980719, 52.17007698134884], [5.239041138473208, 52.167622809548256], [5.238359624274658, 52.16777525108794], [5.23790055713105, 52.17125147794294], [5.235985233844642, 52.171099892733615], [5.236315603264589, 52.1674587853018], [5.224998607395779, 52.16570011635669], [5.223888998044435, 52.165380077698096], [5.222701468450288, 52.17468772031367], [5.221218623118922, 52.17457187473978], [5.221120365943524, 52.176372881366234], [5.2209948139590185, 52.17826107533388], [5.214131381886296, 52.17667459122912], [5.212075383482922, 52.17637451170465], [5.216002729204749, 52.18806152417261], [5.215046378162093, 52.18875445147234], [5.213253948765507, 52.190082494117604], [5.214109818429009, 52.19916105733456], [5.21630079113145, 52.203042157265784], [5.215500636424159, 52.204274114637954], [5.2165292151547975, 52.205451425673736], [5.217213995078297, 52.20623347701152], [5.216486490291716, 52.20636749730204], [5.218960254256824, 52.21212940747323], [5.2205774393353135, 52.215972057998925], [5.22473020042936, 52.22519776730178], [5.232633083562001, 52.22498916722578], [5.254167286047286, 52.22444594640719], [5.255589341533027, 52.22441395744889], [5.255725579672116, 52.22441126363331], [5.270572560483001, 52.224007171768626], [5.283107099450081, 52.223541037522345], [5.287574681828568, 52.22288325559047], [5.2888035075641335, 52.22299329723731], [5.294168403408791, 52.22354588232872], [5.3009697248216625, 52.223525059715314], [5.302721673970047, 52.22237214514104], [5.302654370776233, 52.22148226635343], [5.306444211676269, 52.219460043692976], [5.313158099155828, 52.221952063242426], [5.314613257247953, 52.22453607483996], [5.313128784974448, 52.22564979423442], [5.312617530197755, 52.2252897716305], [5.313403922598797, 52.22470270558671], [5.311207195089132, 52.22456824855523], [5.3100796848615115, 52.22596484309757], [5.310649519897819, 52.226227990134205], [5.3115939121791405, 52.22650859533689], [5.310642657261546, 52.22759204658036], [5.307400879937301, 52.22919078141607], [5.306611685956983, 52.230268664648605], [5.3076830210132995, 52.23159728359948], [5.309767780276979, 52.232186800984536], [5.31227819010563, 52.23282959279821], [5.3197565401823725, 52.231002206281765], [5.335541501225971, 52.22845278692384], [5.335263884880507, 52.22631145313157]]]]}, "properties": {"type": "boundary", "gemeente": "Baarn"}}, {"type": "Feature", "geometry": {"type": "MultiPolygon", "coordinates": [[[[5.216002729204749, 52.18806152417261], [5.212075383482922, 52.17637451170465], [5.214131381886296, 52.17667459122912], [5.2209948139590185, 52.17826107533388], [5.221120365943524, 52.176372881366234], [5.221218623118922, 52.17457187473978], [5.222701468450288, 52.17468772031367], [5.223888998044435, 52.165380077698096], [5.224998607395779, 52.16570011635669], [5.226702336201597, 52.15416358693388], [5.226883295814673, 52.15299168953216], [5.229284828706531, 52.136730425503714], [5.229298833120329, 52.13663238446778], [5.229460545196414, 52.135570353371314], [5.229573642177403, 52.13458646384906], [5.2289982885643855, 52.131655349796205], [5.230231642909624, 52.12262465453425], [5.230929922234635, 52.116788922481476], [5.218218673430948, 52.113672617649236], [5.220895892917713, 52.1060097156565], [5.222328354524016, 52.10389316591334], [5.21564415615723, 52.102024021042574], [5.2108098869337605, 52.10072109911672], [5.211981118875063, 52.09887955849571], [5.211406591017052, 52.098310406219994], [5.212726635884143, 52.097674185032396], [5.212318426870564, 52.09700326045944], [5.208608183966249, 52.09361875156135], [5.20959033428391, 52.091482659577565], [5.210587068017327, 52.09031427475532], [5.207229207542664, 52.086439130375844], [5.205516626100603, 52.086829375221846], [5.206714452832316, 52.086270365686076], [5.20552404221546, 52.08489542530694], [5.192751476116596, 52.08607624312721], [5.189757194890468, 52.086333865101764], [5.186169459878413, 52.092927459246496], [5.184618686223971, 52.09314689547655], [5.182691347146866, 52.09430740198436], [5.180702080650174, 52.094608231125484], [5.180563540075975, 52.093131639156894], [5.176807132960889, 52.093357104068374], [5.176008799742373, 52.09408341249174], [5.175864220619817, 52.093408843438894], [5.172011126933091, 52.093784966584614], [5.166114625571195, 52.09372530098666], [5.161320417921736, 52.09438429923884], [5.157309095643949, 52.098339006504006], [5.156402605059474, 52.09814840190793], [5.156269203208316, 52.09840179091726], [5.1619145113045795, 52.10721518220649], [5.157264096197113, 52.1081390582999], [5.150380365877917, 52.110875235970504], [5.148650675130765, 52.11524361842221], [5.149309715818237, 52.11849113077999], [5.146731630134768, 52.12041268458429], [5.142623848548338, 52.12084437497899], [5.14220182079489, 52.12019189966154], [5.141595852441851, 52.12117470205069], [5.140163100449548, 52.12058196760395], [5.140396775500543, 52.12099295117595], [5.12654811780144, 52.12459871631811], [5.10709271719722, 52.13321127855462], [5.110778630116256, 52.13664134889039], [5.120528814140574, 52.14554134373194], [5.095508881678388, 52.15507869749709], [5.094889708331141, 52.155349328448956], [5.118845097560436, 52.17240647262707], [5.115311033018747, 52.179816756491235], [5.121412456675211, 52.180953236974325], [5.1241104622297975, 52.1808278779782], [5.143225057468152, 52.17999958949239], [5.143344161641383, 52.18029935016891], [5.1667400268552734, 52.17897633362479], [5.169704633177679, 52.17880324359691], [5.179431477251507, 52.17821394358648], [5.184185378280653, 52.177955227168624], [5.192585775882909, 52.177833516045936], [5.215500636424159, 52.204274114637954], [5.21630079113145, 52.203042157265784], [5.214109818429009, 52.19916105733456], [5.213253948765507, 52.190082494117604], [5.215046378162093, 52.18875445147234], [5.216002729204749, 52.18806152417261]]]]}, "properties": {"type": "boundary", "gemeente": "De Bilt"}}, {"type": "Feature", "geometry": {"type": "MultiPolygon", "coordinates": [[[[5.162396812430868, 52.078609696726275], [5.166916713929191, 52.07668102708646], [5.171605697293046, 52.07867478281947], [5.1791009990579235, 52.077914874045774], [5.181553170911149, 52.07625873119888], [5.192638691804246, 52.07791407912666], [5.195154400778704, 52.077346120102966], [5.19893632702487, 52.07631372249901], [5.200547583976182, 52.07681202336034], [5.225021473228252, 52.064921738485104], [5.2184597487330855, 52.0602387680629], [5.219130916025946, 52.05975277212067], [5.24742263938124, 52.05864666990405], [5.250738107125769, 52.0556455954796], [5.251506316581182, 52.05331967035735], [5.24800551332587, 52.04741300456232], [5.249893402879098, 52.04637786793702], [5.248952938293734, 52.042114828514016], [5.249493973661666, 52.04098623052231], [5.25108297783958, 52.03922523386491], [5.255887514257144, 52.0381283637716], [5.257539562781807, 52.03831636632136], [5.258581576523604, 52.037260981311775], [5.257469621139613, 52.03610552994631], [5.257498455340577, 52.03267771337329], [5.264452537263241, 52.03112607838566], [5.269297868194626, 52.02917060948077], [5.270866409494126, 52.02740364473278], [5.263239010614833, 52.02438041109068], [5.269883982466241, 52.018326110162675], [5.2716927342151845, 52.01460950635409], [5.279909528396386, 52.010721902648356], [5.2757012447000236, 52.00572058243897], [5.275806616592613, 52.00248347386397], [5.277586295673524, 52.000954716630424], [5.277542914684417, 52.00014320537372], [5.274476264072064, 51.99841895687603], [5.271574930834424, 51.99777931364877], [5.2673661635306095, 51.999080051154394], [5.266332124055174, 52.000297100137715], [5.266168311648158, 52.00301696133981], [5.264735822238525, 52.00322042048734], [5.2595621431647945, 52.00099950525827], [5.243190142128502, 51.99879328964578], [5.2294080117535415, 52.011193250000275], [5.219373572637341, 52.015215596462404], [5.202164562023881, 52.01744688602729], [5.203526609783604, 52.02007626871924], [5.200255826403316, 52.022847816062274], [5.199102702205202, 52.02521903647437], [5.200910131846849, 52.031663314141575], [5.199449384868064, 52.03371726461192], [5.195432030442456, 52.03642700379888], [5.1925031483553425, 52.034408809666985], [5.189540886843326, 52.03698852958197], [5.188984159434032, 52.038404687888125], [5.191472228345542, 52.043044417378745], [5.1894988330679865, 52.043314123478105], [5.187366997395577, 52.044123457450915], [5.178930240366908, 52.0463404061964], [5.17883604262981, 52.045720198351674], [5.160743089267629, 52.045514665234194], [5.153030153595452, 52.056757219321035], [5.157754805358342, 52.05834174395525], [5.156890164695045, 52.063426734200114], [5.158896738425232, 52.06486484195977], [5.158326637618392, 52.065249734758105], [5.159388414888258, 52.067062339780776], [5.156399923658161, 52.06905776259221], [5.15565774079979, 52.071416053799574], [5.1604408849777785, 52.07778825542603], [5.160179362206364, 52.080295954137206], [5.1607185181845665, 52.080562479572784], [5.162396812430868, 52.078609696726275]]]]}, "properties": {"type": "boundary", "gemeente": "Bunnik"}}, {"type": "Feature", "geometry": {"type": "MultiPolygon", "coordinates": [[[[5.331241010796636, 52.27361131477353], [5.339673429575461, 52.2702047167268], [5.340880754763343, 52.270699189255], [5.35002211059842, 52.268818401584184], [5.356926829570285, 52.26983564120854], [5.3611005902383635, 52.26829157103795], [5.363313493637096, 52.268477207366686], [5.366687799196394, 52.26695399643443], [5.371426239542505, 52.26318867353214], [5.3700613206220345, 52.26316725202991], [5.370291421825201, 52.26226430735907], [5.372414421843833, 52.26084399017293], [5.3732525514502, 52.26129223643057], [5.37129034080204, 52.262684010814645], [5.371409114524199, 52.262743723186304], [5.37422549884039, 52.26166865161033], [5.374199629934959, 52.26165273869926], [5.374724816468451, 52.26002542035816], [5.377459953455515, 52.25902024095749], [5.38169630998251, 52.25801968189968], [5.3821139441492845, 52.25927657744134], [5.3825233911372115, 52.25918550703718], [5.38404642966604, 52.25716162982867], [5.3887707409501875, 52.25395728821527], [5.388974440570705, 52.25282727328875], [5.400852375372837, 52.24745653779563], [5.40364204770594, 52.24709940935097], [5.396593543102849, 52.22979121151383], [5.39476858254797, 52.22485127560256], [5.393211838332782, 52.220646298807104], [5.395522872299325, 52.219154650494225], [5.39273590838423, 52.20552848718715], [5.3853976747843255, 52.20643398168299], [5.378074366526855, 52.20706539405182], [5.3732939952976935, 52.20780123970827], [5.3648791377562945, 52.209365069002786], [5.364434250853041, 52.20984476752815], [5.35911883799638, 52.210361807731665], [5.3583643200023445, 52.20971589391161], [5.33054163784912, 52.21473250026358], [5.334323786845676, 52.22012390525423], [5.335263884880615, 52.22631145313157], [5.335541501225971, 52.22845278692384], [5.3197565401823725, 52.231002206281765], [5.31227819010574, 52.23282959279821], [5.313410305356733, 52.23525315331277], [5.310893288982063, 52.24212029836317], [5.310662214634204, 52.24632662820156], [5.314129181349862, 52.251954876078706], [5.324231787160499, 52.25298405463542], [5.328583317428292, 52.25531817074056], [5.32836850776639, 52.257170885354206], [5.323177617023093, 52.26054416667585], [5.322032299250883, 52.262326695579134], [5.322621650312398, 52.26388208277064], [5.326728589115525, 52.26614560080367], [5.328534430878027, 52.26870649317189], [5.331241010796636, 52.27361131477353]]]]}, "properties": {"type": "boundary", "gemeente": "Bunschoten"}}, {"type": "Feature", "geometry": {"type": "MultiPolygon", "coordinates": [[[[5.278663974824367, 52.28047296383988], [5.305825694785738, 52.27733016836472], [5.306465417729716, 52.27760623727649], [5.308873627302144, 52.27638635580347], [5.3106694575211595, 52.27430081522486], [5.315450193494396, 52.27410207777016], [5.321053491838837, 52.27239726112817], [5.327448452517171, 52.27369413741646], [5.331241010796636, 52.27361131477353], [5.328534430878027, 52.26870649317189], [5.326728589115525, 52.26614560080367], [5.322621650312398, 52.26388208277064], [5.322032299250883, 52.262326695579134], [5.323177617023093, 52.26054416667585], [5.32836850776639, 52.257170885354206], [5.328583317428292, 52.25531817074056], [5.324231787160499, 52.25298405463542], [5.314129181349862, 52.251954876078706], [5.310662214634204, 52.24632662820156], [5.310893288982063, 52.24212029836317], [5.313410305356733, 52.23525315331277], [5.31227819010574, 52.23282959279821], [5.309767780277088, 52.232186800984536], [5.307683021013354, 52.23159728359948], [5.306611685956983, 52.230268664648605], [5.307400879937301, 52.22919078141607], [5.310642657261602, 52.22759204658036], [5.3115939121791405, 52.22650859533689], [5.310649519897819, 52.226227990134205], [5.310079684861621, 52.22596484309757], [5.311207195089243, 52.22456824855523], [5.313403922598904, 52.22470270558671], [5.312617530197755, 52.225289771630386], [5.313128784974558, 52.22564979423442], [5.3146132572480616, 52.22453607483996], [5.313158099155937, 52.22195206324243], [5.306444211676269, 52.219460043692976], [5.3026543707763425, 52.22148226635343], [5.302721673970047, 52.22237214514104], [5.300969724821771, 52.223525059715314], [5.294168403408791, 52.22354588232872], [5.2888035075641335, 52.22299329723731], [5.287574681828677, 52.22288325559047], [5.2831070994501905, 52.223541037522345], [5.270572560483001, 52.224007171768626], [5.255725579672227, 52.22441126363331], [5.255589341533027, 52.22441395744889], [5.254167286047286, 52.22444594640719], [5.232633083562001, 52.22498916722578], [5.22473020042936, 52.22519776730178], [5.222901202129149, 52.22526162122151], [5.231879620836548, 52.23707830251431], [5.237368782698727, 52.244277176679354], [5.238407701579734, 52.24566093324632], [5.245093103404635, 52.25443165253918], [5.244081106572213, 52.2546633657674], [5.26110175982951, 52.27583628763006], [5.265663156959984, 52.28150584222718], [5.265769062667428, 52.28164509035302], [5.269207489475246, 52.281544875112004], [5.277129479926116, 52.28063835341474], [5.278663974824367, 52.28047296383988]]]]}, "properties": {"type": "boundary", "gemeente": "Eemnes"}}, {"type": "Feature", "geometry": {"type": "MultiPolygon", "coordinates": [[[[5.153030153595452, 52.056757219321035], [5.160743089267629, 52.045514665234194], [5.17883604262981, 52.045720198351674], [5.178930240366908, 52.0463404061964], [5.187366997395577, 52.044123457450915], [5.1894988330679865, 52.043314123478105], [5.191472228345542, 52.043044417378745], [5.188984159434032, 52.038404687888125], [5.189540886843326, 52.03698852958197], [5.1925031483553425, 52.034408809666985], [5.195432030442456, 52.03642700379888], [5.199449384868064, 52.03371726461192], [5.200910131846849, 52.031663314141575], [5.199102702205202, 52.02521903647437], [5.200255826403316, 52.022847816062274], [5.203526609783604, 52.02007626871924], [5.20216456202399, 52.017446886027294], [5.2193735726374495, 52.015215596462404], [5.2294080117535415, 52.011193250000275], [5.243190142128502, 51.99879328964578], [5.242354654728112, 51.99866223196377], [5.244017982030729, 51.998350992866605], [5.243540574046983, 51.99761408152903], [5.245384811123156, 51.99598396945761], [5.2561294108028696, 51.99361089468649], [5.253324875695652, 51.99233526823168], [5.254140658346863, 51.98607090587368], [5.271407094619931, 51.98114506659053], [5.271267864398762, 51.98105086695081], [5.266590662530785, 51.97626306536604], [5.2562706176589415, 51.970941539973076], [5.246523229179553, 51.977498403118354], [5.242269865057897, 51.97872988826039], [5.236866550301666, 51.978757640998445], [5.233006130853915, 51.97755057524231], [5.229911970654021, 51.97564909777662], [5.2239562758606874, 51.967814173566104], [5.21905779652687, 51.96342768900853], [5.213469595753713, 51.96066609174368], [5.213434821479945, 51.96065331570199], [5.205988174049542, 51.95943251680516], [5.198844825110365, 51.96019779805737], [5.189720025417786, 51.962914247228674], [5.1802260391290345, 51.96744836344613], [5.172721350948888, 51.96961735996551], [5.160952858924677, 51.970470092229995], [5.154603015828972, 51.97176619578808], [5.149713149786906, 51.974271394992364], [5.146882657908851, 51.97681745505071], [5.143610090948483, 51.98414942063924], [5.143595383209945, 51.98421830203414], [5.141880043128057, 51.99073017285672], [5.139676310406165, 51.993943319778985], [5.133867606991727, 51.996687342264586], [5.128216376063181, 51.997753093225356], [5.119562825567745, 51.99992422927099], [5.1208206263655525, 52.003324923496315], [5.122836228528313, 52.008606889325826], [5.125568722046765, 52.0166865471829], [5.128350949041067, 52.02461390420776], [5.130992896634745, 52.02472388711779], [5.121773798433423, 52.03043287226519], [5.129672032302065, 52.0498528348524], [5.124717578696458, 52.04991543271192], [5.126831549391919, 52.05491819046095], [5.14567523475261, 52.052559070470686], [5.149941116226459, 52.05558920312295], [5.152808191877039, 52.056687967567235], [5.153030153595452, 52.056757219321035]]]]}, "properties": {"type": "boundary", "gemeente": "Houten"}}, {"type": "Feature", "geometry": {"type": "MultiPolygon", "coordinates": [[[[5.500002657536148, 52.14104340280579], [5.502603248230082, 52.13953602830472], [5.507592024712466, 52.138866205670666], [5.5074503955706176, 52.13853204140045], [5.511690374969473, 52.13749397571213], [5.514079533020624, 52.13592344729779], [5.512444000936284, 52.134330111758715], [5.512366811070428, 52.13422421794411], [5.5118810257924125, 52.13411538534044], [5.5119988610829544, 52.1339984314816], [5.512039579334799, 52.13363714991287], [5.511667706637336, 52.132050874104664], [5.509203212420951, 52.13194563454719], [5.507676974515902, 52.131125171460354], [5.504988480385323, 52.13108796849262], [5.501488444792161, 52.129939254491596], [5.499098031175178, 52.13054193415329], [5.497913163819927, 52.130283256510445], [5.496759151242826, 52.12481461993808], [5.494704774903068, 52.124717970940395], [5.495060099212273, 52.12199378675938], [5.496917730391221, 52.11955779384929], [5.5000423479460965, 52.11920031322786], [5.503371697214759, 52.11965949436109], [5.5053540014753, 52.11975074763384], [5.503756031009035, 52.11658591796303], [5.507551463440802, 52.11561628580882], [5.507702095646237, 52.11389723065505], [5.506301570556787, 52.114310732021636], [5.50386782741284, 52.113745602898845], [5.50261032529095, 52.11509269548182], [5.498916551223042, 52.116017922894784], [5.495625946515994, 52.11558608059397], [5.488082247440636, 52.116101419351516], [5.486447107643111, 52.115360030389645], [5.482161128681832, 52.116162499699406], [5.479079056083034, 52.11742649238675], [5.47680160221962, 52.11415256720989], [5.475130629226099, 52.10689118454192], [5.476037091104404, 52.10501240405509], [5.473562820905056, 52.10456322864904], [5.47198725412109, 52.10145592021187], [5.468412197147759, 52.10059864022891], [5.467516422056375, 52.10040049440249], [5.4578659083793, 52.10536952663113], [5.445789132975528, 52.10685063127523], [5.443806612695161, 52.10707486105696], [5.44213462057007, 52.104214886474125], [5.439180713779739, 52.10187626645972], [5.437983142635149, 52.099791437050676], [5.43572634020947, 52.098912705702894], [5.434097976735669, 52.0977802001956], [5.43220660927742, 52.09787377126926], [5.43240620682165, 52.096897977090315], [5.429675647628588, 52.095917927635], [5.42866085197389, 52.096434997125336], [5.4260366060089655, 52.09639685397916], [5.424769297258983, 52.09704395873304], [5.4244602263938555, 52.09663593705467], [5.421980755052658, 52.09665504607501], [5.4205783303637745, 52.09714744344965], [5.4202586468988105, 52.09810954371114], [5.415001074516214, 52.10011638270577], [5.410158408418434, 52.10326357873462], [5.407384572409194, 52.10301711958085], [5.404520760772077, 52.10410672677606], [5.400781241359348, 52.09187931435947], [5.401331917279094, 52.089333802522624], [5.401207110956892, 52.08933789114183], [5.378013608083432, 52.09048984224941], [5.340567484547717, 52.09503185649799], [5.334297215147285, 52.09633355442379], [5.322462132765823, 52.10190123079749], [5.310919545927074, 52.1083846963652], [5.3250007850717225, 52.11680600848985], [5.334036312502876, 52.12041525714749], [5.355635189916803, 52.136830073614234], [5.370457636442151, 52.13157057895342], [5.3722221289372305, 52.132364751417214], [5.374388774552467, 52.1309932810397], [5.384335040253296, 52.13173900521327], [5.397127457955647, 52.13394745531371], [5.398074738541944, 52.13354828468719], [5.400082197443214, 52.13571260282913], [5.40009692154122, 52.13572092677389], [5.405404941371494, 52.13981197368974], [5.4075633464430855, 52.14196032272441], [5.409391068248675, 52.1403879262181], [5.408339629905056, 52.14264669626077], [5.413771963337028, 52.14802737249733], [5.414011050833439, 52.14831134174948], [5.416208627635398, 52.15091706252339], [5.417843757168254, 52.15478524957598], [5.423547572729855, 52.157620697220565], [5.431941401777214, 52.15875651556844], [5.438951900376515, 52.1613892195116], [5.442464395702863, 52.16144866486507], [5.444963524608979, 52.15989836813722], [5.446984728139816, 52.15953728963562], [5.455950600900294, 52.15434799333141], [5.459582255249079, 52.152876837822895], [5.469863327842243, 52.15284979872209], [5.476747689862079, 52.1522180615626], [5.481341966940411, 52.150501462842], [5.4837948715808364, 52.14946562195225], [5.489475826267752, 52.14821968661305], [5.498984856887718, 52.14736188719662], [5.497306403233148, 52.141443927682865], [5.500002657536148, 52.14104340280579]]]]}, "properties": {"type": "boundary", "gemeente": "Leusden"}}, {"type": "Feature", "geometry": {"type": "MultiPolygon", "coordinates": [[[[5.023913048994855, 52.01993216885273], [5.027082431575869, 52.014776994895094], [5.027316222786484, 52.01477971852442], [5.029351556971725, 52.0114720237302], [5.030141967654815, 52.0101643355842], [5.031771977129605, 52.007518950584945], [5.03400193629002, 52.00393699368144], [5.03604536844403, 52.00425900366066], [5.04246987046276, 52.00566838525825], [5.052611583215513, 51.997654350903126], [5.053885673685182, 51.996631136804], [5.053082016016006, 51.99538477808364], [5.055865870255699, 51.99408070444227], [5.062637850060307, 51.99123318293133], [5.044995062022064, 51.981959033583614], [5.0404019449158035, 51.97744369692389], [5.038830022102008, 51.9741362579315], [5.036127221686918, 51.97132859990586], [5.032848629174752, 51.96974627038785], [5.029672613581451, 51.969203404016724], [5.022375409346588, 51.96972669750595], [5.016103025515708, 51.97214022546827], [5.010077269134216, 51.97554419830815], [5.00218217655292, 51.978215579084114], [4.998073320003681, 51.97787154215339], [4.991862056788845, 51.97585294799997], [4.9870027642049575, 51.973307485127286], [4.983907872294797, 51.97059370352558], [4.9788878182754415, 51.96595785534848], [4.976143003229255, 51.96344512646894], [4.968101537451559, 51.95933641659085], [4.9638511192571295, 51.95943413721813], [4.957333334580425, 51.96098395161772], [4.948691019270868, 51.96347166167764], [4.943305189601754, 51.96394270346265], [4.939820332745045, 51.96343985645159], [4.933583350154258, 51.959707142087986], [4.9263010639775695, 51.95092776694194], [4.9191873461111655, 51.944728739326145], [4.9140110769802945, 51.942435708685174], [4.877792638293838, 51.93803034590838], [4.875811797427265, 51.943533253979226], [4.872755499788206, 51.95094040619593], [4.871597820946141, 51.953710432320285], [4.868956554110501, 51.9567064913203], [4.865673936502275, 51.96043312090911], [4.8643044946294225, 51.96339715523331], [4.860382288757051, 51.96801333748357], [4.849766050608205, 51.973853958437715], [4.847553358943577, 51.97513679663641], [4.845546569363863, 51.97520040101486], [4.8442971944961055, 51.97635171839349], [4.834114747259953, 51.98558026113813], [4.835218241019001, 51.98614303904572], [4.853260740232246, 51.99172684557264], [4.8778321769591795, 52.000568950948235], [4.89158468348312, 52.00485284807019], [4.896412261795234, 52.00651656235311], [4.909734933078405, 52.01104156122195], [4.913888478282667, 52.01107772695196], [4.916855706623323, 52.01014489046541], [4.920045008175166, 52.010014133502885], [4.952103298162548, 52.01676499121029], [4.977256377675919, 52.02052678985801], [4.992162013840621, 52.02103265992839], [4.995194549862603, 52.02172055202119], [5.019721449093311, 52.02553307509923], [5.020353528098958, 52.02556571408812], [5.023913048994855, 52.01993216885273]]]]}, "properties": {"type": "boundary", "gemeente": "Lopik"}}, {"type": "Feature", "geometry": {"type": "MultiPolygon", "coordinates": [[[[4.9457140010504705, 52.075555707105885], [4.956333037277811, 52.070299652046074], [4.957105384579958, 52.065947962442934], [4.970500594782481, 52.06756038847017], [4.982590772023575, 52.06495070529203], [4.995844967895424, 52.06733449113726], [4.9994979651761895, 52.06613166771703], [5.018010220740266, 52.062219164976256], [5.0170742572604246, 52.061143063570874], [5.010283404293133, 52.05374121945373], [5.0049009379230975, 52.055556130582715], [5.0011254506298695, 52.05402884217729], [4.997147406193556, 52.05295231783591], [4.9953322344184645, 52.0526078557763], [4.991074511830785, 52.05286456345979], [4.990302930255734, 52.05243854167617], [4.983276465757503, 52.040236877317476], [4.978392416352441, 52.03968667907739], [4.978989596948514, 52.03807157196513], [4.9831388454118235, 52.02778473814673], [4.994046093482257, 52.02974025142766], [4.995194549862549, 52.02172055202119], [4.992162013840621, 52.02103265992839], [4.977256377675809, 52.020526789858], [4.952103298162548, 52.01676499121029], [4.920045008175166, 52.010014133502885], [4.916638861023896, 52.01341328953622], [4.917747894653236, 52.01321684529187], [4.908523484049197, 52.02277704025065], [4.904974915881858, 52.02647776269399], [4.912426144701696, 52.025291241384096], [4.920059361911285, 52.0255580627155], [4.924026217109616, 52.026525497883135], [4.926435557788656, 52.02847607351985], [4.926681157282111, 52.029987099736935], [4.91139824655444, 52.04018191058781], [4.914811925534392, 52.04237809443126], [4.9171179528486215, 52.043791145908266], [4.906504851085213, 52.05347598043482], [4.900546749357741, 52.05214017136767], [4.895739234963137, 52.050479552628666], [4.895411647716922, 52.04823426829571], [4.881344380070261, 52.05752298084271], [4.875506841441444, 52.06158021023518], [4.871458308087479, 52.05922502771872], [4.8682254154037965, 52.06344677401811], [4.873200711512542, 52.068745835238566], [4.874516687758692, 52.06819118558933], [4.875334955586384, 52.06888572050466], [4.888984736118573, 52.068907956669605], [4.900250135666469, 52.07020265408927], [4.90161346594526, 52.07039682312637], [4.90547311414748, 52.07014858550718], [4.908202640783286, 52.07189603283524], [4.914891238899619, 52.07409295713328], [4.917981620499477, 52.074765116987834], [4.9246609785635, 52.07759093411638], [4.926608354167651, 52.07781850793373], [4.930846534655101, 52.07928584926389], [4.93620223255183, 52.07986612179526], [4.939366643364761, 52.077924251873874], [4.9457140010504705, 52.075555707105885]]]]}, "properties": {"type": "boundary", "gemeente": "Montfoort"}}, {"type": "Feature", "geometry": {"type": "MultiPolygon", "coordinates": [[[[5.550342612110377, 52.10541973367083], [5.553063475009288, 52.1009541714182], [5.554235795080871, 52.10015137932749], [5.550542404664225, 52.09667650599384], [5.554429251578869, 52.095392052129974], [5.554434897652766, 52.093468756283336], [5.555869506592021, 52.09181966010826], [5.554718078595807, 52.09149850677627], [5.5549272932803975, 52.08651036692835], [5.555909539389634, 52.087117789087145], [5.55705298249579, 52.08686738051488], [5.557418262448795, 52.08617822089322], [5.556687197269062, 52.0854828429097], [5.5607538178465745, 52.08421076013293], [5.560710703045596, 52.08141292050488], [5.562746105169574, 52.07827802395441], [5.561443401230534, 52.07328631186148], [5.56031374544996, 52.07215270551129], [5.559210436086802, 52.071033709334394], [5.560729213000751, 52.067501488062355], [5.557903086092428, 52.048865046574676], [5.557817423013315, 52.048652608212194], [5.554523447725375, 52.04920860467291], [5.54463932537194, 52.049373249129246], [5.540862230704472, 52.04281478937057], [5.538818442429793, 52.04126473721353], [5.5354095901788645, 52.04147775364773], [5.531641304331842, 52.03985627806092], [5.531419884204611, 52.03946874834359], [5.5293476190527695, 52.04020236731627], [5.525998637220029, 52.04136892142234], [5.516430619785063, 52.0477637690768], [5.515681006407077, 52.05419113841927], [5.512995179718007, 52.05511366285274], [5.497875717436727, 52.05701822266633], [5.495574577453122, 52.070963555664356], [5.49612785786005, 52.07167800189389], [5.499882261110469, 52.07133526860862], [5.502092198606302, 52.073345275367224], [5.504584206511245, 52.07334968884443], [5.504922639319208, 52.07598904778297], [5.505003133924135, 52.07674239232835], [5.506836503062947, 52.07674841424456], [5.509112826001397, 52.07697711447606], [5.510360633430655, 52.07805508608137], [5.509922511500009, 52.079050265372274], [5.51445318689383, 52.07879540894185], [5.519413800208833, 52.07920692891261], [5.5203571047512145, 52.078307774167236], [5.522654279693456, 52.07754218691033], [5.526896142754349, 52.08067998321949], [5.531142085205783, 52.08227961495541], [5.531305983234228, 52.08393933465879], [5.526634078873964, 52.08490350069], [5.530856006186133, 52.08977450999371], [5.537118413410305, 52.088643921938036], [5.538293887332591, 52.09268985969582], [5.53507914049846, 52.092874757775206], [5.538830644598462, 52.0964363346172], [5.539160158677871, 52.09781386211934], [5.532816931383049, 52.099984054327784], [5.531543284885714, 52.10226714628796], [5.541539933004595, 52.10373728344619], [5.544012638382804, 52.1019490740196], [5.546302203673316, 52.10244381437996], [5.545291806702376, 52.10439023007563], [5.550342612110377, 52.10541973367083]]]]}, "properties": {"type": "boundary", "gemeente": "Renswoude"}}, {"type": "Feature", "geometry": {"type": "MultiPolygon", "coordinates": [[[[5.548336372241311, 52.00164691961347], [5.553228983381879, 51.99903074704829], [5.554429572110342, 52.00018204511836], [5.558044814085059, 52.003631917556525], [5.561352956742086, 52.0018527150575], [5.570478377483473, 51.996958243341695], [5.5732447179922415, 51.99876595134004], [5.58208799001491, 52.004475259404224], [5.589488588968715, 52.00945537593561], [5.591112554719961, 52.00730132527777], [5.590807990962316, 52.00302465676517], [5.591997538710366, 52.00139214485451], [5.596556190777973, 51.99920138670782], [5.602514928591004, 51.99499767078976], [5.606016941466808, 51.9941641887406], [5.609972206734959, 51.99369136489224], [5.613812768403076, 51.990342608680535], [5.615059950233163, 51.982716775267264], [5.619888340017704, 51.97771017876916], [5.626064250760701, 51.97406988960198], [5.624855756617876, 51.970448199252125], [5.620258296249782, 51.96658217567588], [5.62321364585549, 51.96256459073045], [5.626495307227671, 51.95736559918897], [5.6273086992858845, 51.95247316763026], [5.625027570414264, 51.95161469812563], [5.623446607053282, 51.95194543000216], [5.620162613113862, 51.951497987995346], [5.620437397385176, 51.94832466320546], [5.616428042277103, 51.94935343014931], [5.6059397139236475, 51.94312468990061], [5.603911140436117, 51.94388317840183], [5.592736547483571, 51.94918246919891], [5.586616538178777, 51.95082886036096], [5.575574263148439, 51.95282646959749], [5.561252308969787, 51.95450171802297], [5.556933551978607, 51.9557109506468], [5.549560810722488, 51.95919682242373], [5.540207824858179, 51.967281441851554], [5.537520164884586, 51.968285263341585], [5.527112676282416, 51.970219004855664], [5.518829174644341, 51.97157355363888], [5.5182217431401215, 51.97169333079114], [5.510978956914632, 51.973643167583475], [5.500750580345009, 51.97859198975452], [5.486213567375497, 51.98382638887081], [5.477664050955846, 51.98347261725095], [5.477849378029674, 51.987691660941984], [5.480554697544963, 51.98874793463003], [5.4792587463390765, 51.99019949250208], [5.480300253641765, 51.99109398658958], [5.484594292454842, 51.98775952287531], [5.486083763334616, 51.99085258215197], [5.4852934106902, 51.99096497696427], [5.490897313065051, 51.996561002777334], [5.492874322067744, 51.99609457037219], [5.494201269836919, 51.99490100815426], [5.507886548458338, 52.01231104896822], [5.511022299426812, 52.01642021688092], [5.512591840645124, 52.018516034049476], [5.524646710124938, 52.01448972998258], [5.533455040622714, 52.012373504600994], [5.532365701958278, 52.010900045173315], [5.536690177244481, 52.00831972202358], [5.539183508519613, 52.007407896911495], [5.540234736350546, 52.007021048492476], [5.548336372241311, 52.00164691961347]]]]}, "properties": {"type": "boundary", "gemeente": "Rhenen"}}, {"type": "Feature", "geometry": {"type": "MultiPolygon", "coordinates": [[[[5.308791978423863, 52.204549352915585], [5.310664549075834, 52.20348457447557], [5.31218364408267, 52.20424558717603], [5.313626044922752, 52.20421993764015], [5.314282205651203, 52.20302349265923], [5.309338484804353, 52.19472952749419], [5.310216751115634, 52.192016826916], [5.311640278694615, 52.191036168068536], [5.314668203709813, 52.191584494168815], [5.320682750944544, 52.1902221591737], [5.3238447457169435, 52.18849619597189], [5.3246518360982265, 52.187289429352155], [5.323696697723228, 52.18258916739381], [5.32670873062745, 52.18181171861275], [5.333563787729263, 52.18317495410779], [5.336439842094034, 52.18271836083049], [5.340663032266064, 52.17818000806947], [5.344322068131836, 52.17703829299864], [5.349897794050251, 52.17560572693396], [5.3490999831023975, 52.17467870012263], [5.349925598448655, 52.17385734850274], [5.348505959930018, 52.17353134099932], [5.3486838788604505, 52.17295492129161], [5.3473149382068, 52.17278557573441], [5.346883866479441, 52.171679921510275], [5.347613907110687, 52.170729485721495], [5.344673694344114, 52.163628900942356], [5.343483799394286, 52.1602711570247], [5.338720341861967, 52.1600571218342], [5.336335332352925, 52.14604949510326], [5.3363164419777975, 52.14595145405417], [5.330643420374137, 52.13570381244613], [5.332048852584026, 52.1337869063474], [5.333851565586271, 52.131345808178835], [5.331267718761736, 52.12663063074048], [5.311582970597106, 52.11414342546124], [5.306458375005881, 52.11027176897439], [5.298965499790159, 52.11180000055066], [5.294599207924227, 52.11347425895435], [5.291802945078262, 52.114538870063626], [5.290533388072094, 52.11421291655801], [5.282212723719285, 52.112083256309724], [5.27755980775408, 52.11881919783412], [5.277146693537987, 52.1194538599189], [5.274212776739274, 52.123740421513865], [5.271935813239147, 52.12704581980647], [5.264101489512904, 52.125080312138856], [5.256183054239628, 52.13637825551371], [5.255267040981797, 52.13888556063464], [5.256421621303732, 52.144056315596], [5.256386045811254, 52.1441722163206], [5.254793723292968, 52.149516336524066], [5.250994707375528, 52.15634007363833], [5.249666186289253, 52.158755954915414], [5.24317246980719, 52.17007698134884], [5.246956651755834, 52.174226391796815], [5.2492597469149365, 52.17573067902918], [5.257230185133929, 52.18087045912939], [5.262080715739412, 52.18393929293794], [5.270215499566731, 52.18852626143618], [5.2815829751588055, 52.1926091796068], [5.282335126911382, 52.19286170885899], [5.282498955686606, 52.1920749093441], [5.297119376013651, 52.19750469856949], [5.297266721697985, 52.19755797513449], [5.304017934865317, 52.20001143736916], [5.308791978423863, 52.204549352915585]]]]}, "properties": {"type": "boundary", "gemeente": "Soest"}}, {"type": "Feature", "geometry": {"type": "MultiPolygon", "coordinates": [[[[5.032510749029838, 52.11683681381307], [5.033544960763824, 52.11675902962887], [5.040881213272068, 52.12549998938695], [5.045419456812801, 52.12846264630729], [5.0449784749188105, 52.12877961852034], [5.047556037677632, 52.12997264290291], [5.06120449913446, 52.12256194620679], [5.065727151776822, 52.125255605595456], [5.066989538801221, 52.1259851476734], [5.0697334189975605, 52.126414790031994], [5.070198631500001, 52.12718165324324], [5.072389536688574, 52.125359367134585], [5.076158415476148, 52.12704927203144], [5.085532790707655, 52.134366179325056], [5.085764452114398, 52.13455053195946], [5.087164489498096, 52.13567163154163], [5.100194475793181, 52.13021329931404], [5.10108423930037, 52.12984473450637], [5.102273971469048, 52.13032503081021], [5.1033972889383294, 52.1298484735967], [5.105576188261565, 52.13188558951658], [5.10709271719722, 52.13321127855462], [5.12654811780144, 52.12459871631811], [5.140396775500543, 52.12099295117595], [5.140163100449548, 52.12058196760395], [5.141595852441851, 52.12117470205069], [5.14220182079489, 52.12019189966154], [5.142623848548338, 52.12084437497899], [5.146731630134768, 52.12041268458429], [5.149309715818237, 52.11849113077999], [5.148650675130765, 52.11524361842221], [5.150380365877917, 52.110875235970504], [5.157264096197113, 52.1081390582999], [5.1619145113045795, 52.10721518220649], [5.156269203208316, 52.09840179091726], [5.156402605059474, 52.09814840190793], [5.157309095643949, 52.098339006504006], [5.161320417921736, 52.09438429923884], [5.166114625571195, 52.09372530098666], [5.172011126933091, 52.093784966584614], [5.175864220619817, 52.093408843438894], [5.176008799742373, 52.09408341249174], [5.176807132960889, 52.093357104068374], [5.180563540075975, 52.093131639156894], [5.180702080650174, 52.094608231125484], [5.182691347146866, 52.09430740198436], [5.184618686223971, 52.09314689547655], [5.186169459878413, 52.092927459246496], [5.189757194890468, 52.086333865101764], [5.192751476116596, 52.08607624312721], [5.195154400778704, 52.077346120102966], [5.192638691804246, 52.07791407912666], [5.181553170911149, 52.07625873119888], [5.1791009990579235, 52.077914874045774], [5.171605697293046, 52.07867478281947], [5.166916713929191, 52.07668102708646], [5.162396812430868, 52.078609696726275], [5.1607185181845665, 52.080562479572784], [5.160179362206364, 52.080295954137206], [5.1604408849777785, 52.07778825542603], [5.15565774079979, 52.071416053799574], [5.156399923658161, 52.06905776259221], [5.159388414888258, 52.067062339780776], [5.158326637618392, 52.065249734758105], [5.158896738425232, 52.06486484195977], [5.156890164695045, 52.063426734200114], [5.157754805358342, 52.05834174395525], [5.153030153595452, 52.056757219321035], [5.152808191877039, 52.056687967567235], [5.149941116226459, 52.05558920312295], [5.14567523475261, 52.052559070470686], [5.126831549391919, 52.05491819046095], [5.124079467741849, 52.05521599637172], [5.121248815354408, 52.05438565626926], [5.117751275898022, 52.05663903767369], [5.113162707870879, 52.05770453883938], [5.113275086202594, 52.05788495686466], [5.111256542062436, 52.05831796050013], [5.110377257901977, 52.05739733943939], [5.109440371909338, 52.055508457756126], [5.108415681917304, 52.052005845520824], [5.1073440125487615, 52.05002563069434], [5.105385195662294, 52.050112524104485], [5.104397319086004, 52.04993784348846], [5.102085464823298, 52.054263864627515], [5.097351792408016, 52.05948052071235], [5.096788704137672, 52.05928444157133], [5.094123823563491, 52.05875474798816], [5.089985917155266, 52.06072884062981], [5.073221076011654, 52.06222227800744], [5.069641154417026, 52.06141589911778], [5.067229990423656, 52.05750097899966], [5.065143635589376, 52.05498131344815], [5.064171234484922, 52.051577387138394], [5.063437773594141, 52.041105977283365], [5.063563001753428, 52.03834779335347], [5.062511241844562, 52.02860290078258], [5.063139620750565, 52.02788103816308], [5.0628008059270035, 52.02682334893753], [5.061020539992151, 52.02628213702803], [5.054909528754572, 52.028865634956276], [5.0553394359302235, 52.02973838468712], [5.051979539448538, 52.03088804172888], [5.051421063613388, 52.0301055842389], [5.045582916957258, 52.03477382141114], [5.03804394720714, 52.04417163839359], [5.028339686441588, 52.05076109827617], [5.027671942773891, 52.05169599736517], [5.028261084725123, 52.05358063937903], [5.026960786870261, 52.05463248370121], [5.027119326639109, 52.0553957921159], [5.02559287154151, 52.05585653495661], [5.0216101701886116, 52.055808073764126], [5.017426544132554, 52.06099123575769], [5.0170742572604246, 52.061143063570874], [5.018010220740266, 52.062219164976256], [4.9994979651761895, 52.06613166771703], [5.00161774161213, 52.078144236040316], [5.003229887597343, 52.077956978953324], [5.0050068090578215, 52.088452334217145], [4.9942176973806385, 52.090385143066634], [4.993524017485478, 52.092226143955074], [4.989326938220996, 52.10075558605213], [4.975659513270007, 52.09978988847982], [4.973440261559024, 52.10123033764922], [4.973049429562683, 52.10278408286613], [4.975820252603525, 52.105716795754915], [4.976269284803432, 52.10797209528627], [4.9787285570410535, 52.108100725557854], [4.9796247574615995, 52.10872274648023], [4.979580225406013, 52.11156439985601], [4.980221405893857, 52.11219981659462], [4.978466538349992, 52.113157365958095], [4.9781978821492165, 52.1128466058313], [4.970095924667489, 52.12244203339603], [4.973938332536406, 52.12967361252716], [4.985237997810668, 52.132437494103684], [4.986377699396684, 52.13524357449012], [4.994503241053985, 52.13861158542984], [5.003101869744316, 52.142050838181234], [5.002700098950938, 52.141301617212], [5.012112292464886, 52.129691889836465], [5.032510749029838, 52.11683681381307]]]]}, "properties": {"type": "boundary", "gemeente": "Utrecht"}}, {"type": "Feature", "geometry": {"type": "MultiPolygon", "coordinates": [[[[5.554523447725375, 52.04920860467291], [5.557817423013206, 52.048652608212194], [5.557903086092428, 52.048865046574676], [5.5708527546707725, 52.04799690089387], [5.569975171406527, 52.04563647053695], [5.5700107175841636, 52.04449499325305], [5.570152033504879, 52.044439693291714], [5.570044793397911, 52.04340073628092], [5.569754167418265, 52.04341477526218], [5.568656954819376, 52.04239641101295], [5.567400699857069, 52.04062480614883], [5.56831436256085, 52.04026904945658], [5.57728845741316, 52.03832668196234], [5.589960738301844, 52.034411307353025], [5.5900226373409545, 52.03430310475412], [5.589906946545882, 52.03269258852306], [5.589756214412845, 52.03269748619706], [5.589588511473839, 52.031176451350625], [5.58671145067018, 52.03129028747307], [5.587347444992048, 52.027263698378384], [5.587445787002829, 52.02664101276998], [5.587199678687405, 52.02044851218809], [5.590241938081834, 52.020266591611446], [5.589621449766515, 52.015594668621034], [5.586922078579878, 52.015713032293775], [5.5867505299653075, 52.01228577187199], [5.586014454968651, 52.01177613722724], [5.587421930220494, 52.01092153735555], [5.589488588968606, 52.009455375935616], [5.58208799001491, 52.004475259404224], [5.573244717992135, 51.99876595134015], [5.570478377483364, 51.996958243341766], [5.561352956742085, 52.0018527150576], [5.558044814085059, 52.003631917556525], [5.554429572110234, 52.00018204511836], [5.553228983381879, 51.99903074704829], [5.548336372241311, 52.00164691961347], [5.540234736350546, 52.007021048492476], [5.539183508519613, 52.007407896911495], [5.536690177244481, 52.00831972202358], [5.532365701958278, 52.010900045173315], [5.533455040622714, 52.012373504600994], [5.524646710124938, 52.01448972998258], [5.512591840645124, 52.018516034049476], [5.518338719904435, 52.02587824183812], [5.522319530148037, 52.03105129113592], [5.5252652310245045, 52.03498751103572], [5.5293476190527695, 52.04020236731627], [5.531419884204611, 52.03946874834359], [5.531641304331842, 52.03985627806092], [5.5354095901788645, 52.04147775364773], [5.538818442429793, 52.04126473721353], [5.540862230704363, 52.04281478937057], [5.54463932537194, 52.049373249129246], [5.554523447725375, 52.04920860467291]]]]}, "properties": {"type": "boundary", "gemeente": "Veenendaal"}}, {"type": "Feature", "geometry": {"type": "MultiPolygon", "coordinates": [[[[5.484301709126504, 52.10554236206833], [5.485267084248283, 52.09910038568735], [5.48473945884179, 52.09662462137486], [5.486082603781722, 52.093656951168825], [5.476784517912795, 52.09038006914461], [5.474720862108411, 52.09022117919679], [5.472945069866073, 52.089110216138906], [5.47183513134448, 52.08930239463822], [5.471491567562877, 52.08820082158364], [5.467903452434275, 52.08595565544013], [5.464053404012848, 52.083056334163345], [5.463367548701143, 52.083442324927624], [5.461298967696613, 52.08264618318017], [5.459677927943765, 52.08200356758912], [5.460147608672675, 52.080952255402835], [5.459243168901096, 52.0802256238074], [5.4656531492000475, 52.078288320729946], [5.4664395464228965, 52.07610060437764], [5.467373680955869, 52.075492168340375], [5.470904229376253, 52.07468639270709], [5.4736612814734835, 52.07313490149241], [5.4763590714430155, 52.07264729285998], [5.483897251984025, 52.06965647171816], [5.488281802175692, 52.07039266204475], [5.490696289490859, 52.071410609219335], [5.494066963893541, 52.07190836291449], [5.49612785786005, 52.07167800189389], [5.495574577453122, 52.070963555664356], [5.497875717436727, 52.05701822266633], [5.491428501159374, 52.05732204071484], [5.485379380620762, 52.05623469683443], [5.477194479981487, 52.05285494192182], [5.465857378491294, 52.050792644247565], [5.46209949099208, 52.04898819775067], [5.461137775600751, 52.04725909212936], [5.453891628357731, 52.04976784152917], [5.448612399327787, 52.04323696892014], [5.445702396762237, 52.04525893092118], [5.44160159770385, 52.04569314729507], [5.435150266869564, 52.04788537722125], [5.429868278816107, 52.05286671088203], [5.428334980798776, 52.05630569471626], [5.428714642285804, 52.05734117799286], [5.430622683643736, 52.05904776390013], [5.435267022325085, 52.059597661579495], [5.436450924311159, 52.06160939632349], [5.4383132106857035, 52.07027338772792], [5.437465992786302, 52.07201560077222], [5.4354688439139025, 52.07285109336321], [5.43338093645889, 52.07229483730799], [5.424071525477952, 52.07249879682288], [5.422355461397055, 52.07301601535254], [5.409353950901799, 52.06898465607401], [5.40189606159203, 52.06429875693639], [5.4005297071789355, 52.06474558674624], [5.3989560876399265, 52.06693846536028], [5.400480405545109, 52.067687329670306], [5.399536638362755, 52.06921078913006], [5.405365037748852, 52.07099987622501], [5.40706098796522, 52.072577023114015], [5.405893615458752, 52.07522069193681], [5.403503458385428, 52.07567875373626], [5.394507115857351, 52.07496499342193], [5.3910559008358385, 52.07507456910243], [5.389822439602929, 52.07566899666181], [5.388341056278697, 52.07493241031874], [5.384526983599448, 52.07826865633079], [5.33225060580584, 52.08416365774512], [5.326924640938377, 52.086730072185546], [5.298300386352431, 52.09644563887202], [5.322462132765823, 52.10190123079749], [5.334297215147285, 52.09633355442379], [5.340567484547824, 52.09503185649799], [5.378013608083539, 52.09048984224941], [5.401207110956892, 52.08933789114183], [5.4013319172791485, 52.089333802522624], [5.400781241359348, 52.09187931435947], [5.40452076077213, 52.10410672677606], [5.407384572409194, 52.10301711958085], [5.410158408418434, 52.10326357873462], [5.415001074516321, 52.10011638270577], [5.4202586468988105, 52.09810954371114], [5.4205783303637745, 52.09714744344965], [5.421980755052658, 52.09665504607501], [5.4244602263938555, 52.09663593705467], [5.424769297258983, 52.09704395873304], [5.4260366060089655, 52.09639685397916], [5.42866085197389, 52.096434997125336], [5.429675647628588, 52.095917927635], [5.43240620682176, 52.09689797709032], [5.4322066092774755, 52.09787377126926], [5.434097976735669, 52.0977802001956], [5.4357263402095795, 52.098912705702894], [5.437983142635203, 52.09979143705068], [5.439180713779847, 52.10187626645972], [5.44213462057007, 52.104214886474125], [5.44380661269527, 52.10707486105696], [5.445789132975528, 52.10685063127523], [5.457865908379408, 52.10536952663112], [5.467516422056484, 52.10040049440249], [5.468412197147759, 52.10059864022891], [5.47198725412109, 52.10145592021187], [5.4735628209051645, 52.10456322864904], [5.476037091104404, 52.10501240405509], [5.475130629226099, 52.10689118454192], [5.47680160221962, 52.11415256720989], [5.479079056083034, 52.11742649238675], [5.482161128681832, 52.116162499699406], [5.486447107643111, 52.115360030389645], [5.49187327654853, 52.114485407894776], [5.493921928126182, 52.112764350906026], [5.493861744149338, 52.11109752717092], [5.484301709126504, 52.10554236206833]]]]}, "properties": {"type": "boundary", "gemeente": "Woudenberg"}}, {"type": "Feature", "geometry": {"type": "MultiPolygon", "coordinates": [[[[5.363664904456812, 52.010020622515235], [5.381646660692071, 52.00213787860622], [5.398905195818485, 52.00292284687778], [5.415276235874887, 51.996701929392955], [5.399421861058219, 51.98794812330864], [5.378429479492486, 51.986082071797924], [5.387590269314221, 51.976308889583606], [5.3941643008932, 51.975934235887244], [5.394950483170834, 51.97444159342168], [5.392009186888434, 51.97340254103376], [5.390516557798519, 51.9712480587823], [5.390975617798862, 51.97073015182912], [5.3827978982275635, 51.96926390355169], [5.376010848482632, 51.96921061168358], [5.363015692814844, 51.97095010109929], [5.3556378402998295, 51.970353859396994], [5.348254795119353, 51.967686338863814], [5.339824631971708, 51.96113701746628], [5.339693088197255, 51.96102800773004], [5.333117939969929, 51.95720090552408], [5.323438693359186, 51.955097117736614], [5.316600250680571, 51.955220963645196], [5.310870533002549, 51.957013712996044], [5.300893671321614, 51.96156863140098], [5.282607542697965, 51.96316261323931], [5.270373094156539, 51.96542673482189], [5.262103742317287, 51.96820610873324], [5.2562706176589415, 51.970941539973076], [5.266590662530785, 51.97626306536604], [5.271267864398762, 51.98105086695081], [5.271407094619931, 51.98114506659053], [5.254140658346755, 51.98607090587368], [5.253324875695543, 51.99233526823167], [5.256129410802761, 51.993610894686626], [5.245384811123156, 51.99598396945761], [5.2435405740468735, 51.99761408152913], [5.244017982030729, 51.998350992866605], [5.242354654728003, 51.99866223196387], [5.243190142128502, 51.99879328964578], [5.2595621431647945, 52.00099950525827], [5.264735822238525, 52.00322042048734], [5.266168311648158, 52.00301696133981], [5.266332124055174, 52.000297100137715], [5.2673661635306095, 51.999080051154394], [5.271574930834424, 51.99777931364877], [5.274476264072064, 51.99841895687603], [5.277542914684417, 52.00014320537372], [5.277586295673524, 52.000954716630424], [5.275806616592613, 52.00248347386397], [5.2757012447000236, 52.00572058243897], [5.279909528396386, 52.010721902648356], [5.287995485451754, 52.00992191084178], [5.2912196122039825, 52.00835410958846], [5.314647812706685, 52.02700094233461], [5.323985135010551, 52.02282571047536], [5.344291217738323, 52.02019390330812], [5.350259609448991, 52.01603764680305], [5.363664904456812, 52.010020622515235]]]]}, "properties": {"type": "boundary", "gemeente": "Wijk bij Duurstede"}}, {"type": "Feature", "geometry": {"type": "MultiPolygon", "coordinates": [[[[5.017426544132554, 52.06099123575769], [5.0216101701886116, 52.055808073764126], [5.02559287154151, 52.05585653495661], [5.027119326639109, 52.0553957921159], [5.02696078687037, 52.05463248370121], [5.028261084725231, 52.053580639379035], [5.027671942773891, 52.05169599736517], [5.028339686441588, 52.05076109827617], [5.03804394720714, 52.04417163839359], [5.045582916957258, 52.03477382141114], [5.051421063613497, 52.0301055842389], [5.051979539448592, 52.03088804172888], [5.055339435930332, 52.02973838468712], [5.054909528754572, 52.028865634956276], [5.061020539992151, 52.02628213702803], [5.0628008059270035, 52.02682334893753], [5.062873344617978, 52.02574333148523], [5.062944404656519, 52.025238471839785], [5.065991078860626, 52.018704552272354], [5.0679982039499425, 52.01440398310962], [5.068932752562349, 52.01416923258193], [5.071426141856738, 52.00986283199512], [5.07360129645392, 52.00590950471763], [5.074860500135511, 52.00355362681677], [5.072793442975894, 52.00030816150512], [5.075785156069743, 52.00078097314136], [5.077717271314899, 51.99870508765188], [5.0775349583841045, 51.997451946162485], [5.06628591794183, 51.994073517589484], [5.062637850060307, 51.99123318293133], [5.055865870255699, 51.99408070444227], [5.053082016016006, 51.99538477808364], [5.053885673685182, 51.996631136804], [5.052611583215513, 51.997654350903126], [5.04246987046276, 52.00566838525825], [5.03604536844403, 52.00425900366066], [5.03400193629002, 52.00393699368144], [5.031771977129605, 52.007518950584945], [5.030141967654815, 52.0101643355842], [5.029351556971725, 52.0114720237302], [5.027316222786484, 52.01477971852442], [5.027082431575869, 52.014776994895094], [5.023913048994855, 52.01993216885273], [5.020353528098958, 52.02556571408812], [5.019721449093311, 52.02553307509923], [4.995194549862603, 52.02172055202119], [4.994046093482257, 52.02974025142766], [4.9831388454118235, 52.02778473814673], [4.978989596948622, 52.038071571965126], [4.978392416352441, 52.039686679077285], [4.983276465757503, 52.040236877317476], [4.990302930255842, 52.05243854167617], [4.991074511830785, 52.05286456345979], [4.9953322344184645, 52.0526078557763], [4.9971474061936645, 52.05295231783591], [5.0011254506298695, 52.05402884217729], [5.0049009379230975, 52.055556130582715], [5.010283404293133, 52.05374121945373], [5.0170742572604246, 52.061143063570874], [5.017426544132554, 52.06099123575769]]]]}, "properties": {"type": "boundary", "gemeente": "IJsselstein"}}, {"type": "Feature", "geometry": {"type": "MultiPolygon", "coordinates": [[[[5.238359624274658, 52.16777525108794], [5.239041138473208, 52.167622809548256], [5.24317246980719, 52.17007698134884], [5.249666186289253, 52.158755954915414], [5.250994707375528, 52.15634007363833], [5.254793723292968, 52.149516336524066], [5.256386045811254, 52.1441722163206], [5.256421621303732, 52.144056315596], [5.255267040981797, 52.13888556063464], [5.256183054239628, 52.13637825551371], [5.264101489512904, 52.125080312138856], [5.271935813239147, 52.12704581980647], [5.274212776739274, 52.123740421513865], [5.277146693537987, 52.1194538599189], [5.27755980775408, 52.11881919783412], [5.282212723719285, 52.112083256309724], [5.290533388072094, 52.11421291655801], [5.291802945078262, 52.114538870063626], [5.294599207924227, 52.11347425895435], [5.298965499790159, 52.11180000055066], [5.306458375005881, 52.11027176897439], [5.310919545927074, 52.1083846963652], [5.322462132765823, 52.10190123079749], [5.298300386352324, 52.09644563887202], [5.32692464093827, 52.08673007218555], [5.332250605805733, 52.08416365774508], [5.332608228965271, 52.078810102431085], [5.320422439433114, 52.07032716277803], [5.291152595360027, 52.08635329315859], [5.266158206849704, 52.070714790728516], [5.265362284453239, 52.07020698707551], [5.2593528486050545, 52.066766229313615], [5.257522866457361, 52.065490220124936], [5.256000584422842, 52.06289325893638], [5.2521211647449695, 52.062026098036746], [5.24742263938124, 52.05864666990405], [5.219130916025946, 52.05975277212067], [5.2184597487330855, 52.0602387680629], [5.225021473228252, 52.064921738485104], [5.200547583976182, 52.07681202336034], [5.19893632702487, 52.07631372249901], [5.195154400778704, 52.077346120102966], [5.192751476116596, 52.08607624312721], [5.20552404221546, 52.08489542530694], [5.206714452832316, 52.086270365686076], [5.205516626100603, 52.086829375221846], [5.207229207542664, 52.086439130375844], [5.210587068017327, 52.09031427475532], [5.20959033428391, 52.091482659577565], [5.208608183966249, 52.09361875156135], [5.212318426870564, 52.09700326045944], [5.212726635884143, 52.097674185032396], [5.211406591017052, 52.098310406219994], [5.211981118875063, 52.09887955849571], [5.2108098869337605, 52.10072109911672], [5.21564415615723, 52.102024021042574], [5.222328354524016, 52.10389316591334], [5.220895892917713, 52.1060097156565], [5.218218673430948, 52.113672617649236], [5.230929922234635, 52.116788922481476], [5.230231642909624, 52.12262465453425], [5.2289982885643855, 52.131655349796205], [5.229573642177403, 52.13458646384906], [5.229460545196414, 52.135570353371314], [5.229298833120329, 52.13663238446778], [5.229284828706531, 52.136730425503714], [5.226883295814673, 52.15299168953216], [5.226702336201597, 52.15416358693388], [5.224998607395779, 52.16570011635669], [5.236315603264589, 52.1674587853018], [5.235985233844642, 52.171099892733615], [5.23790055713105, 52.17125147794294], [5.238359624274658, 52.16777525108794]]]]}, "properties": {"type": "boundary", "gemeente": "Zeist"}}, {"type": "Feature", "geometry": {"type": "MultiPolygon", "coordinates": [[[[5.089985917155266, 52.06072884062981], [5.094123823563491, 52.05875474798816], [5.09678870413778, 52.05928444157133], [5.097351792408126, 52.05948052071222], [5.102085464823408, 52.054263864627515], [5.1043973190861145, 52.04993784348838], [5.105385195662403, 52.05011252410449], [5.1073440125487615, 52.05002563069434], [5.108415681917304, 52.052005845520824], [5.109440371909338, 52.055508457756126], [5.110377257901977, 52.05739733943939], [5.111256542062436, 52.05831796050013], [5.113275086202594, 52.05788495686466], [5.113162707870879, 52.05770453883938], [5.117751275898022, 52.05663903767369], [5.121248815354408, 52.05438565626926], [5.124079467741849, 52.05521599637172], [5.126831549391919, 52.05491819046095], [5.124717578696458, 52.04991543271192], [5.129672032302065, 52.0498528348524], [5.121773798433533, 52.03043287226519], [5.130992896634854, 52.02472388711779], [5.128350949041176, 52.02461390420776], [5.125568722046765, 52.0166865471828], [5.122836228528313, 52.008606889325726], [5.1208206263655525, 52.00332492349621], [5.119562825567745, 51.99992422927099], [5.11391716132662, 52.0016717647415], [5.102965248344008, 52.0030268573243], [5.091720554468798, 52.00191534262351], [5.077534958384214, 51.997451946162364], [5.077717271314899, 51.99870508765188], [5.07578515606985, 52.00078097314138], [5.072793442976004, 52.00030816150496], [5.074860500135511, 52.00355362681677], [5.07360129645403, 52.00590950471763], [5.071426141856739, 52.00986283199502], [5.0689327525622945, 52.01416923258177], [5.067998203950053, 52.01440398310952], [5.065991078860626, 52.018704552272354], [5.0629444046564105, 52.025238471839785], [5.062873344617978, 52.02574333148523], [5.0628008059270035, 52.02682334893753], [5.063139620750565, 52.02788103816308], [5.062511241844562, 52.02860290078258], [5.063563001753428, 52.03834779335347], [5.063437773594141, 52.041105977283365], [5.064171234484922, 52.051577387138394], [5.065143635589376, 52.05498131344815], [5.067229990423656, 52.05750097899966], [5.069641154417026, 52.06141589911778], [5.073221076011654, 52.06222227800744], [5.089985917155266, 52.06072884062981]]]]}, "properties": {"type": "boundary", "gemeente": "Nieuwegein"}}, {"type": "Feature", "geometry": {"type": "MultiPolygon", "coordinates": [[[[4.8682254154037965, 52.06344677401811], [4.871458308087479, 52.05922502771872], [4.875506841441444, 52.06158021023518], [4.881344380070371, 52.05752298084272], [4.895411647717031, 52.04823426829571], [4.895739234963245, 52.050479552628666], [4.900546749357903, 52.05214017136767], [4.90650485108532, 52.053475980434825], [4.917117952848731, 52.043791145908266], [4.914811925534502, 52.04237809443116], [4.91139824655444, 52.04018191058781], [4.926681157282221, 52.029987099736935], [4.926435557788765, 52.02847607351977], [4.924026217109724, 52.026525497883135], [4.920059361911285, 52.0255580627155], [4.912426144701696, 52.025291241384096], [4.904974915881858, 52.02647776269399], [4.908523484049197, 52.02277704025065], [4.917747894653236, 52.01321684529187], [4.916638861023896, 52.01341328953622], [4.920045008175166, 52.010014133502885], [4.916855706623323, 52.01014489046541], [4.913888478282612, 52.01107772695196], [4.909734933078405, 52.01104156122195], [4.896412261795126, 52.006516562353106], [4.89158468348312, 52.00485284807019], [4.8778321769591795, 52.000568950948235], [4.853260740232191, 51.99172684557264], [4.835218241019001, 51.98614303904572], [4.826969148980904, 51.99259478314584], [4.8178065210564505, 51.99976707735266], [4.8536026282286375, 52.004798579821355], [4.8571271435291195, 52.00595968042857], [4.856386288135312, 52.006838239283944], [4.848603441346754, 52.016117184189824], [4.8472041488396505, 52.01797458827057], [4.846896508003871, 52.01818199516187], [4.840178815224477, 52.0167072329005], [4.833335551270336, 52.01642323697969], [4.824995052852433, 52.01723693506865], [4.82148548207488, 52.015918615248424], [4.815859699319179, 52.014030313294334], [4.812632111210457, 52.013942159217905], [4.808285897159419, 52.01414357893393], [4.805395563744078, 52.01413327152105], [4.803410908583797, 52.01414489615972], [4.7987009716674605, 52.022272143534515], [4.809934228725223, 52.026764938109366], [4.8096606577651215, 52.02750635088821], [4.8086713398618945, 52.029654342158416], [4.806705153026408, 52.03316776124198], [4.811823025726471, 52.03382496518345], [4.817193734355376, 52.03693155716727], [4.829361494036676, 52.049279994070694], [4.829490954912837, 52.049813881870314], [4.839094065816518, 52.05416787547049], [4.848049024337244, 52.058165152516004], [4.856305558496174, 52.05915224182824], [4.8682254154037965, 52.06344677401811]]]]}, "properties": {"type": "boundary", "gemeente": "Oudewater"}}, {"type": "Feature", "geometry": {"type": "MultiPolygon", "coordinates": [[[[4.903686663590993, 52.162051291776336], [4.907806828600179, 52.161461322984884], [4.909638065481284, 52.161871402727456], [4.911187383281189, 52.16009548994077], [4.911777656782128, 52.14425496201107], [4.915039493053169, 52.14458178722292], [4.923601793703023, 52.14731935846133], [4.9343759093181605, 52.1388586777957], [4.94391605233065, 52.127537201337354], [4.96099682904043, 52.133362245769945], [4.970095924667489, 52.12244203339603], [4.9781978821492165, 52.1128466058313], [4.978466538349992, 52.113157365958095], [4.980221405893857, 52.11219981659462], [4.979580225406013, 52.11156439985601], [4.9796247574615995, 52.10872274648023], [4.9787285570410535, 52.108100725557854], [4.976269284803432, 52.10797209528627], [4.975820252603525, 52.105716795754915], [4.973049429562683, 52.10278408286613], [4.973440261559024, 52.10123033764922], [4.975659513270007, 52.09978988847982], [4.989326938220996, 52.10075558605213], [4.993524017485478, 52.092226143955074], [4.9942176973806385, 52.090385143066634], [5.0050068090578215, 52.088452334217145], [5.003229887597343, 52.077956978953324], [5.00161774161213, 52.078144236040316], [4.9994979651761895, 52.06613166771703], [4.995844967895424, 52.06733449113726], [4.982590772023575, 52.06495070529203], [4.970500594782481, 52.06756038847017], [4.957105384579958, 52.065947962442934], [4.956333037277811, 52.070299652046074], [4.9457140010504705, 52.075555707105885], [4.939366643364761, 52.077924251873874], [4.93620223255183, 52.07986612179526], [4.930846534655101, 52.07928584926389], [4.926608354167651, 52.07781850793373], [4.9246609785635, 52.07759093411638], [4.917981620499477, 52.074765116987834], [4.914891238899619, 52.07409295713328], [4.908202640783286, 52.07189603283524], [4.90547311414748, 52.07014858550718], [4.90161346594526, 52.07039682312637], [4.900250135666469, 52.07020265408927], [4.888984736118573, 52.068907956669605], [4.875334955586384, 52.06888572050466], [4.874516687758692, 52.06819118558933], [4.873200711512542, 52.068745835238566], [4.855231888124442, 52.068814022019794], [4.840376857273156, 52.06888056973634], [4.82980834686052, 52.06682391602993], [4.834035753222491, 52.07273636555109], [4.832789598163234, 52.07295156042194], [4.833045596122485, 52.074827448538564], [4.82627602020252, 52.07464410230727], [4.826492881730098, 52.07952770513531], [4.825629831942418, 52.07979286261171], [4.825635608269751, 52.08008200468146], [4.823394815524052, 52.092801753854324], [4.8230558924966225, 52.10519334354458], [4.82438950312306, 52.105403613487425], [4.825314741614361, 52.107151626823864], [4.792079959381058, 52.122287913738205], [4.792360078314243, 52.1233838066868], [4.793490623593144, 52.123973270865015], [4.798357464117617, 52.12530113928186], [4.80198048362935, 52.12485808091324], [4.803497537968228, 52.12641618435675], [4.806365489030682, 52.127396805561425], [4.80667415295266, 52.12782304306871], [4.80805203664239, 52.12914718545667], [4.807790069158073, 52.12985825547538], [4.808352286133657, 52.13152674675657], [4.8088467326741835, 52.131814330680555], [4.807675464579041, 52.134668738352104], [4.80872676647224, 52.13726716051283], [4.810250565875307, 52.13855983011898], [4.813110983528139, 52.14017377511044], [4.8149295930353455, 52.139953055044145], [4.81666562848815, 52.1393874640477], [4.817916380293975, 52.14075574064715], [4.819170626202918, 52.14137606758082], [4.820533551946006, 52.14222930088729], [4.826471801998836, 52.14217686378376], [4.831970091573618, 52.14445857557776], [4.833053093521976, 52.14470658976121], [4.837520567384202, 52.14064428325284], [4.840793342732267, 52.14147729900863], [4.842583828820464, 52.13953365355856], [4.847412586302691, 52.138945471667945], [4.85153532031122, 52.1396161719045], [4.8524834846413265, 52.13838483985139], [4.85523869837358, 52.13721014427064], [4.864915099851774, 52.13739164326412], [4.870543726639517, 52.138340674396986], [4.872710613585725, 52.1388539903312], [4.874518546537066, 52.1388319299225], [4.873623563514663, 52.15608303564748], [4.887574546823331, 52.15995868753123], [4.8921783706162785, 52.16179844162482], [4.903686663590993, 52.162051291776336]]]]}, "properties": {"type": "boundary", "gemeente": "Woerden"}}, {"type": "Feature", "geometry": {"type": "MultiPolygon", "coordinates": [[[[5.021542170961224, 52.30245712184659], [5.021866138297644, 52.28265361954796], [5.01491890934081, 52.259128286973784], [5.0074621976622025, 52.23170502984384], [5.007461821726017, 52.23170499987435], [5.007049314409069, 52.23167351192047], [5.00318979409453, 52.23136418355424], [4.999829062610977, 52.231080391626634], [4.9974141292390835, 52.230817759548096], [4.994726745014015, 52.23247474159568], [4.993586467421322, 52.23209974855821], [4.994728985911526, 52.23026685666999], [4.980413072105984, 52.226847958634714], [4.9828735876138435, 52.22241611973639], [4.973746026924287, 52.22059894117088], [4.968303203160191, 52.207842693713594], [4.9665954622659, 52.20005283338876], [4.961387433755865, 52.19947563957175], [4.960808334529194, 52.19782030176834], [4.9508810860991215, 52.19863902244351], [4.949556003560055, 52.19349344075834], [4.948382590351326, 52.193598703616935], [4.948276204927352, 52.192532898745355], [4.949469472064655, 52.19240913239548], [4.948571511246215, 52.185785196364584], [4.9457125705200315, 52.18581350433519], [4.933995301238261, 52.17694554608214], [4.935006868592123, 52.17585531252102], [4.933738865038113, 52.17414101395608], [4.931618431704369, 52.1737570892619], [4.9324506545196645, 52.17239925148914], [4.928606390300713, 52.16720061474258], [4.909638065481284, 52.161871402727456], [4.907806828600179, 52.161461322984884], [4.903686663590993, 52.162051291776336], [4.8921783706162785, 52.16179844162482], [4.867130091305609, 52.173449788752805], [4.855465225719951, 52.17895825276431], [4.8440616493368305, 52.18006622261714], [4.842995414665123, 52.180815425464964], [4.838383391278739, 52.18325883441305], [4.823616152061053, 52.19316599876062], [4.822253679488723, 52.19609404108511], [4.8144000775739, 52.1993097727458], [4.8131049274727244, 52.20133700097448], [4.813594530719504, 52.201847636886356], [4.8029253078305985, 52.20102826800868], [4.801615901135473, 52.20400309132538], [4.801481046664198, 52.20989194865866], [4.802147235567829, 52.217641140638456], [4.799014699138623, 52.21931253408686], [4.794430197216215, 52.223423896983185], [4.794576042676713, 52.22673116021586], [4.801942940161572, 52.22692270500939], [4.805275440058491, 52.227974670463254], [4.8081986552368035, 52.227115689882375], [4.81410042052513, 52.22716983786132], [4.817193199099725, 52.228325399918106], [4.822003057292842, 52.22919490246233], [4.828614025394957, 52.23059360275569], [4.839633048382517, 52.23539179806614], [4.842845661988414, 52.235347743152204], [4.842996312821668, 52.236790475077115], [4.845995528966369, 52.23765828719522], [4.847326121796065, 52.239781872974646], [4.850792497736591, 52.23860711720364], [4.852156914254322, 52.23964171352128], [4.8512735094163135, 52.2418906909095], [4.852053620239844, 52.242013981938335], [4.854938229570103, 52.24214611024228], [4.855291294790646, 52.24555644676878], [4.856535252898759, 52.24627623772689], [4.857522040546249, 52.247723534052724], [4.86062114156089, 52.24821728542502], [4.8661135601273315, 52.250988742205465], [4.868779368852677, 52.251698808499135], [4.870121456918477, 52.253282613317815], [4.872289847352615, 52.25118251176201], [4.873853104880391, 52.25074309890848], [4.877728991881888, 52.252816562846036], [4.882718901672252, 52.25371196874476], [4.887585690827969, 52.25098969128087], [4.891759447212619, 52.25326812095286], [4.898568444178014, 52.25093270012665], [4.902930578718375, 52.25318225711952], [4.908546827616023, 52.25268306775179], [4.910969991841748, 52.25268269199652], [4.917302931891902, 52.25681768228425], [4.91855318238385, 52.25858660448631], [4.918086487252677, 52.261665557412236], [4.923136254087175, 52.26302359376527], [4.924713146880983, 52.2669376606857], [4.929389968394175, 52.26835372680918], [4.929299434486373, 52.269958710596676], [4.928014116851656, 52.27174253632245], [4.926650899291494, 52.27244516834552], [4.927654389861725, 52.27380868889484], [4.925985157831715, 52.278078663590286], [4.926402129624212, 52.2797096063842], [4.928586623367972, 52.27961162458739], [4.933754448502924, 52.28089610652229], [4.942690806363494, 52.27818431433249], [4.946666748854739, 52.27899190336049], [4.953764099918825, 52.27803000998903], [4.955239692764706, 52.27830526050019], [4.956570658271737, 52.27866600867832], [4.961052750350601, 52.27817456275645], [4.962631470552064, 52.28029168231663], [4.965800914043515, 52.28064923159204], [4.967575565108062, 52.27956199494303], [4.970371307737269, 52.283487760008406], [4.9718385255754685, 52.28436103545238], [4.971850061196003, 52.28436866166415], [4.983504882311236, 52.29036845220841], [4.997474308976031, 52.28911867895286], [5.001756835409438, 52.292772865147676], [5.001850207621394, 52.295879067218266], [5.003238907835258, 52.29601822738213], [5.003244682088769, 52.2963965962152], [5.00376407055321, 52.29834077599179], [5.005263755925759, 52.298393119529614], [5.007950911732178, 52.30154883322607], [5.0127186957748195, 52.3035844044674], [5.014263557679998, 52.3036771871582], [5.016173159854652, 52.30314314909467], [5.017701310483055, 52.30271575597608], [5.021542170961224, 52.30245712184659]]]]}, "properties": {"type": "boundary", "gemeente": "De Ronde Venen"}}, {"type": "Feature", "geometry": {"type": "MultiPolygon", "coordinates": [[[[5.291152595360027, 52.08635329315859], [5.320422439433114, 52.07032716277803], [5.332608228965271, 52.078810102431085], [5.332250605805733, 52.08416365774508], [5.38452698359934, 52.07826865633079], [5.388341056278586, 52.07493241031873], [5.38982243960293, 52.07566899666189], [5.391055900835731, 52.07507456910243], [5.394507115857351, 52.07496499342193], [5.403503458385428, 52.07567875373626], [5.405893615458644, 52.07522069193681], [5.40706098796522, 52.072577023114015], [5.405365037748852, 52.07099987622501], [5.399536638362755, 52.06921078913006], [5.400480405545054, 52.067687329670306], [5.3989560876398714, 52.06693846536028], [5.4005297071789355, 52.06474558674624], [5.40189606159203, 52.06429875693639], [5.409353950901799, 52.06898465607401], [5.422355461397055, 52.07301601535254], [5.424071525477952, 52.07249879682288], [5.43338093645889, 52.07229483730799], [5.435468843913796, 52.07285109336321], [5.437465992786302, 52.07201560077222], [5.438313210685593, 52.07027338772792], [5.436450924311159, 52.06160939632349], [5.435267022325032, 52.059597661579495], [5.430622683643736, 52.05904776390013], [5.428714642285695, 52.05734117799286], [5.428334980798665, 52.05630569471625], [5.429868278816107, 52.05286671088203], [5.435150266869564, 52.04788537722125], [5.441601597703743, 52.04569314729507], [5.445702396762237, 52.04525893092118], [5.448612399327787, 52.04323696892014], [5.453891628357731, 52.04976784152917], [5.461137775600751, 52.04725909212936], [5.46209949099208, 52.04898819775067], [5.465857378491294, 52.050792644247565], [5.477194479981433, 52.05285494192182], [5.485379380620762, 52.05623469683443], [5.491428501159266, 52.05732204071484], [5.497875717436727, 52.05701822266633], [5.512995179718007, 52.05511366285274], [5.515681006406969, 52.05419113841927], [5.516430619785008, 52.0477637690768], [5.525998637220029, 52.04136892142234], [5.5293476190527695, 52.04020236731627], [5.5252652310245045, 52.03498751103572], [5.522319530148037, 52.03105129113592], [5.518338719904435, 52.02587824183812], [5.512591840645124, 52.018516034049476], [5.511022299426812, 52.01642021688092], [5.507886548458229, 52.012311048968215], [5.494201269836919, 51.99490100815426], [5.492874322067744, 51.99609457037219], [5.490897313065051, 51.996561002777334], [5.4852934106902, 51.99096497696427], [5.486083763334616, 51.99085258215197], [5.484594292454842, 51.98775952287531], [5.480300253641765, 51.99109398658958], [5.4792587463390765, 51.99019949250208], [5.480554697544854, 51.98874793463003], [5.477849378029565, 51.987691660941984], [5.477664050955738, 51.983472617250946], [5.472686150800874, 51.98297755938972], [5.457011532490191, 51.98368399790214], [5.44240778002874, 51.98594748460881], [5.436243484618108, 51.985348396480944], [5.430399423656878, 51.98326505631941], [5.423363194126973, 51.97875537432744], [5.418155117162206, 51.97660565205524], [5.399337156129377, 51.973102731877816], [5.390975617798862, 51.97073015182912], [5.390516557798519, 51.9712480587823], [5.392009186888434, 51.97340254103376], [5.394950483170834, 51.97444159342168], [5.3941643008932, 51.975934235887244], [5.387590269314221, 51.976308889583606], [5.378429479492486, 51.986082071797924], [5.399421861058219, 51.98794812330864], [5.415276235874887, 51.996701929392955], [5.398905195818485, 52.00292284687778], [5.381646660692071, 52.00213787860622], [5.363664904456812, 52.010020622515235], [5.350259609448991, 52.01603764680305], [5.344291217738323, 52.02019390330812], [5.323985135010551, 52.02282571047536], [5.314647812706685, 52.02700094233461], [5.2912196122039825, 52.00835410958846], [5.287995485451754, 52.00992191084178], [5.279909528396386, 52.010721902648356], [5.2716927342151845, 52.01460950635409], [5.269883982466241, 52.018326110162675], [5.263239010614833, 52.02438041109068], [5.270866409494126, 52.02740364473278], [5.269297868194626, 52.02917060948077], [5.264452537263241, 52.03112607838566], [5.257498455340577, 52.03267771337329], [5.257469621139613, 52.03610552994631], [5.258581576523604, 52.037260981311775], [5.257539562781807, 52.03831636632136], [5.255887514257144, 52.0381283637716], [5.25108297783958, 52.03922523386491], [5.249493973661666, 52.04098623052231], [5.248952938293734, 52.042114828514016], [5.249893402879098, 52.04637786793702], [5.24800551332587, 52.04741300456232], [5.251506316581182, 52.05331967035735], [5.250738107125769, 52.0556455954796], [5.24742263938124, 52.05864666990405], [5.2521211647449695, 52.062026098036746], [5.256000584422842, 52.06289325893638], [5.257522866457361, 52.065490220124936], [5.2593528486050545, 52.066766229313615], [5.265362284453239, 52.07020698707551], [5.266158206849704, 52.070714790728516], [5.291152595360027, 52.08635329315859]]]]}, "properties": {"type": "boundary", "gemeente": "Utrechtse Heuvelrug"}}, {"type": "Feature", "geometry": {"type": "MultiPolygon", "coordinates": [[[[5.063424976851992, 52.28705542888408], [5.064791039174156, 52.28508086775861], [5.06547065689198, 52.2851984802648], [5.065862525116686, 52.28114022000612], [5.0658576874243275, 52.28053766854081], [5.06441158611449, 52.280737941773225], [5.062872143344722, 52.282199983426814], [5.062857987337048, 52.28477861926928], [5.0603972042423315, 52.28514343580591], [5.050752521298508, 52.281818150732], [5.049665173582081, 52.28020622624677], [5.049678856722621, 52.277989218676936], [5.048236580886787, 52.276960802509684], [5.042520975942387, 52.2779306638545], [5.033068941646429, 52.27529026224052], [5.030932048575497, 52.27250325944478], [5.029812672537582, 52.272043895570675], [5.028294332341046, 52.2720325277768], [5.023709178644624, 52.27320856004329], [5.022885801047295, 52.272483830059954], [5.02330902751964, 52.27147238995512], [5.026338138991258, 52.26866179346155], [5.0276257698311415, 52.267778053590916], [5.027853618347239, 52.26624684954127], [5.026549937338634, 52.264199038226764], [5.031452735540744, 52.26130613306954], [5.032571495358439, 52.25997535338476], [5.032504008185677, 52.258744233837035], [5.03070884463146, 52.25689071137468], [5.032121521384873, 52.254618948470466], [5.035254378484597, 52.25264532748193], [5.037195411506935, 52.253441648646785], [5.040252189444661, 52.256576826421615], [5.041877871640203, 52.25656041072107], [5.043426892019013, 52.25544898902102], [5.044190647461992, 52.2516047237165], [5.045257189787598, 52.2498689381014], [5.046442079176563, 52.24872555885703], [5.04599545377426, 52.24322103112278], [5.056901252950687, 52.236522838094295], [5.057712063936451, 52.23534308394924], [5.057407682093693, 52.23524802202965], [5.056760997107572, 52.23559333318704], [5.055788811415053, 52.2352140917337], [5.05622352357659, 52.23497916315548], [5.042312681448061, 52.23053218286083], [5.0415848104220755, 52.23088872783847], [5.041427955538854, 52.230078369271276], [5.040544736843287, 52.2298424690137], [5.0406957657062375, 52.22956796404291], [5.041255572432195, 52.22950660941812], [5.0411438766603425, 52.22932395274456], [5.042483725993147, 52.22878039068816], [5.0416850693046955, 52.228235020639154], [5.038729860271438, 52.22517992741284], [5.037101078707566, 52.22534216119462], [5.036964194169892, 52.22478946376958], [5.039872522349848, 52.224387837666676], [5.04192816658434, 52.22408919181203], [5.041983266029135, 52.22432716311167], [5.042794990052179, 52.22404002355636], [5.042631836501592, 52.223866063633345], [5.041921903135498, 52.22406273116692], [5.041906509404636, 52.2239935711706], [5.039362261976397, 52.22440760257896], [5.039211110553034, 52.223945031981934], [5.036664910918625, 52.22436066769395], [5.0358484082095645, 52.21752965135316], [5.037118329096605, 52.21659698968628], [5.036908762751507, 52.21515623633309], [5.0356828716053785, 52.215125172784276], [5.035329017895697, 52.21446278003496], [5.037242395806421, 52.21418912866125], [5.036741536946621, 52.21366387341853], [5.033787420330049, 52.21371450938179], [5.033729154954974, 52.21312355065533], [5.034353301100397, 52.21311797464531], [5.033400110716858, 52.209836743724445], [5.036443231279913, 52.20956457727057], [5.036444276635628, 52.20956448420391], [5.035315836118265, 52.205233100896876], [5.037420627092939, 52.20496501763998], [5.036649547925309, 52.202138488064556], [5.025599465927883, 52.2039823296357], [5.025454674069167, 52.20327980517699], [5.025034313900032, 52.203278116535365], [5.024995883224866, 52.20284439801171], [5.0233146945347995, 52.203051345725264], [5.023432460038925, 52.203828895895235], [5.0226206364720545, 52.203941968679366], [5.0224731180192865, 52.20267434660144], [5.023100704544963, 52.202754059811895], [5.023025565485267, 52.20203948162188], [5.022686057439891, 52.20223647374995], [5.021603516922378, 52.20254249366269], [5.021586365284428, 52.202475732042195], [5.022031292236717, 52.20238371480593], [5.02245164655325, 52.202226006214204], [5.0229350394257875, 52.20170998570103], [5.021383976394592, 52.20203711378252], [5.021292591905217, 52.201886246650794], [5.022768734503565, 52.20153469036773], [5.02606090865998, 52.20137446349912], [5.027942007925245, 52.19995936366508], [5.030971810531296, 52.19876457411668], [5.037124420493068, 52.19805320393775], [5.037203941300781, 52.19684807746673], [5.038133832307281, 52.19516366050526], [5.036646077328633, 52.1937337901048], [5.03558428909836, 52.19097508545105], [5.0349771078080146, 52.186803424210304], [5.033764604863505, 52.18616418055391], [5.032503126412749, 52.184113870273386], [5.041591679000848, 52.18375197934887], [5.04646361223459, 52.16592950248978], [5.0786559753113005, 52.172986102431004], [5.115311033018747, 52.179816756491235], [5.118845097560436, 52.17240647262707], [5.094889708331141, 52.155349328448956], [5.095508881678388, 52.15507869749709], [5.120528814140574, 52.14554134373194], [5.110778630116256, 52.13664134889039], [5.10709271719722, 52.13321127855462], [5.105576188261565, 52.13188558951658], [5.1033972889383294, 52.1298484735967], [5.102273971469048, 52.13032503081021], [5.10108423930037, 52.12984473450637], [5.100194475793181, 52.13021329931404], [5.087164489498096, 52.13567163154163], [5.085764452114398, 52.13455053195946], [5.085532790707655, 52.134366179325056], [5.076158415476148, 52.12704927203144], [5.072389536688682, 52.12535936713458], [5.070198631500001, 52.12718165324324], [5.069733418997669, 52.126414790031994], [5.06698953880133, 52.1259851476734], [5.065727151776931, 52.125255605595456], [5.06120449913446, 52.12256194620679], [5.047556037677632, 52.12997264290291], [5.0449784749188105, 52.12877961852034], [5.045419456812801, 52.12846264630729], [5.040881213272068, 52.12549998938695], [5.033544960763824, 52.11675902962887], [5.032510749029838, 52.11683681381307], [5.012112292464886, 52.129691889836465], [5.002700098950938, 52.141301617212], [5.003101869744316, 52.142050838181234], [4.994503241053985, 52.13861158542984], [4.986377699396684, 52.13524357449012], [4.985237997810668, 52.132437494103684], [4.973938332536406, 52.12967361252716], [4.970095924667489, 52.12244203339603], [4.96099682904043, 52.133362245769945], [4.94391605233065, 52.127537201337354], [4.9343759093181605, 52.1388586777957], [4.923601793703023, 52.14731935846133], [4.915039493053169, 52.14458178722292], [4.911777656782128, 52.14425496201107], [4.911187383281189, 52.16009548994077], [4.909638065481284, 52.161871402727456], [4.928606390300713, 52.16720061474258], [4.9324506545196645, 52.17239925148914], [4.931618431704369, 52.1737570892619], [4.933738865038113, 52.17414101395608], [4.935006868592123, 52.17585531252102], [4.933995301238261, 52.17694554608214], [4.9457125705200315, 52.18581350433519], [4.948571511246215, 52.185785196364584], [4.949469472064655, 52.19240913239548], [4.948276204927352, 52.192532898745355], [4.948382590351326, 52.193598703616935], [4.949556003560055, 52.19349344075834], [4.9508810860991215, 52.19863902244351], [4.960808334529194, 52.19782030176834], [4.961387433755865, 52.19947563957175], [4.9665954622659, 52.20005283338876], [4.968303203160191, 52.207842693713594], [4.973746026924287, 52.22059894117088], [4.9828735876138435, 52.22241611973639], [4.980413072105984, 52.226847958634714], [4.994728985911526, 52.23026685666999], [4.993586467421322, 52.23209974855821], [4.994726745014015, 52.23247474159568], [4.9974141292390835, 52.230817759548096], [4.999829062610977, 52.231080391626634], [5.00318979409453, 52.23136418355424], [5.007049314409069, 52.23167351192047], [5.007461821726017, 52.23170499987435], [5.0074621976622025, 52.23170502984384], [5.01491890934081, 52.259128286973784], [5.021866138297644, 52.28265361954796], [5.022825416771084, 52.28215078371693], [5.024380568474686, 52.28135780220275], [5.030527391122696, 52.28848750609618], [5.033211435347894, 52.286258437335036], [5.039520327162723, 52.28326364821214], [5.040741252551511, 52.28387536945127], [5.04277767252745, 52.28248848470792], [5.050419316066561, 52.2878630030158], [5.052737130331023, 52.28650856336104], [5.059539425442299, 52.28932044472291], [5.063424976851992, 52.28705542888408]]]]}, "properties": {"type": "boundary", "gemeente": "Stichtse Vecht"}}, {"type": "Feature", "geometry": {"type": "MultiPolygon", "coordinates": [[[[5.172721350948997, 51.96961735996542], [5.180226039129144, 51.96744836344614], [5.173990727532467, 51.960341569645564], [5.163004669869296, 51.94655129286599], [5.154662498729456, 51.93793494876653], [5.151466454401726, 51.93361521101161], [5.14943676772826, 51.933526934323005], [5.147962558576196, 51.93215491673532], [5.149006360134906, 51.930540224945894], [5.148459171874971, 51.929485151661936], [5.14243221090148, 51.92493654890715], [5.135674100220124, 51.91822272771246], [5.13657111754859, 51.914693311632135], [5.135720169380844, 51.91419536071724], [5.132376301638467, 51.91486039770243], [5.119672138650319, 51.8982452508395], [5.117028193638127, 51.89817597958553], [5.116984938886907, 51.896910688757636], [5.118498151875231, 51.896377744887324], [5.117581581191763, 51.892366419058604], [5.115392886655562, 51.89043777554457], [5.114273967782243, 51.88926584125627], [5.113262821794927, 51.88825520856674], [5.11273618797774, 51.887776269788034], [5.105758731555534, 51.88881102381645], [5.097994602193846, 51.887836988738286], [5.094824814438756, 51.88874362547817], [5.090364019684142, 51.88865457690512], [5.088445372233172, 51.88755080496836], [5.087491657306633, 51.88430152732236], [5.086585272237169, 51.88112465813738], [5.08593279598471, 51.880299155247236], [5.083659115560595, 51.87836095238648], [5.0812766088882695, 51.87600539153679], [5.073040624860334, 51.87404813650203], [5.071738500950002, 51.874104086966405], [5.063387060027906, 51.87440989023762], [5.055361619839539, 51.87304104791531], [5.052309921333984, 51.869984608719214], [5.052198149710881, 51.86664314007172], [5.0541990350363815, 51.86509922020609], [5.06278091024647, 51.86202768559229], [5.063623310094308, 51.860598990751306], [5.062357390421543, 51.85936221218907], [5.059184711277476, 51.858154643044685], [5.052998638266825, 51.85736084007549], [5.046604279283186, 51.85886934956501], [5.04373390413812, 51.859230060968535], [5.02690722151017, 51.858607841201355], [5.027387189962804, 51.86373913766188], [5.021815904928161, 51.86911561774861], [5.0231665669613825, 51.87202680047428], [5.02322691666089, 51.87574090436294], [5.025710776200396, 51.881156999560304], [5.027253891032989, 51.88152787171908], [5.026955371224696, 51.881918264198426], [5.023746852982248, 51.88105666816443], [5.001241890144167, 51.87472595885063], [5.001266241235556, 51.87499226527632], [4.9962375519852245, 51.873119227218176], [4.994951907915633, 51.87695631598235], [4.999451773471741, 51.884283515885464], [4.996672218452635, 51.89010554663533], [4.9963014394021785, 51.89668920577276], [4.994967650252381, 51.90229229279696], [4.994376796229453, 51.902239237664546], [4.99434016941746, 51.902345240589575], [4.991449122738865, 51.90167329278647], [4.978837637507413, 51.8983054949873], [4.974354551614901, 51.89709303412116], [4.973410276876565, 51.89724997358047], [4.9737402387533, 51.90766731780735], [4.9677915626276175, 51.910094000527394], [4.964127805329366, 51.91063788023771], [4.964159785134855, 51.91226733236939], [4.96329282337669, 51.91278507365959], [4.964784854507804, 51.91351883741842], [4.964121176569487, 51.9137535881566], [4.956157087679552, 51.91559091812227], [4.949595167794138, 51.93156590000828], [4.947639306501434, 51.933710268506736], [4.945943911482081, 51.933289335987126], [4.942292824890557, 51.930166496717085], [4.939234728151663, 51.928937881112574], [4.932126129462698, 51.94755162695455], [4.929475238613402, 51.95019127555886], [4.926301063977461, 51.95092776694193], [4.933583350154204, 51.959707142087986], [4.939820332744991, 51.96343985645159], [4.943305189601646, 51.96394270346265], [4.948691019270759, 51.963471661677644], [4.957333334580317, 51.96098395161772], [4.9638511192571295, 51.95943413721813], [4.968101537451559, 51.95933641659085], [4.976143003229255, 51.96344512646894], [4.9788878182754415, 51.96595785534848], [4.983907872294688, 51.97059370352557], [4.9870027642049575, 51.973307485127286], [4.991862056788845, 51.97585294799997], [4.998073320003573, 51.97787154215339], [5.002182176552813, 51.978215579084114], [5.010077269134108, 51.97554419830815], [5.016103025515708, 51.97214022546827], [5.022375409346479, 51.96972669750595], [5.029672613581451, 51.969203404016724], [5.0328486291746986, 51.969746270387844], [5.036127221686918, 51.97132859990586], [5.038830022101899, 51.9741362579315], [5.0404019449158035, 51.97744369692389], [5.044995062021955, 51.9819590335836], [5.062637850060307, 51.99123318293133], [5.0662859179417215, 51.99407351758948], [5.0775349583841045, 51.997451946162485], [5.09172055446869, 52.00191534262352], [5.102965248344008, 52.0030268573243], [5.113917161326511, 52.0016717647416], [5.119562825567635, 51.99992422927098], [5.12821637606318, 51.99775309322546], [5.133867606991727, 51.996687342264586], [5.139676310406165, 51.993943319778985], [5.141880043128057, 51.99073017285672], [5.143595383209945, 51.98421830203414], [5.14361009094832, 51.98414942063924], [5.146882657908851, 51.97681745505071], [5.149713149786906, 51.974271394992364], [5.154603015829079, 51.971766195788085], [5.160952858924784, 51.970470092229995], [5.172721350948997, 51.96961735996542]]]]}, "properties": {"type": "boundary", "gemeente": "Vijfheerenlanden"}}]}